IDSUCURSAL,NRO_AGENTE_PF,NOMBRE,DIRECCION,LOCALIDAD,PROVINCIA,WESTERN_UNION,ENVIO_NACIONAL,PAGO_FACTURAS,RECARGA_FACIL,HS_LAV,HS_SABADO,HS_DOMINGO,LATITUD,LONGITUD
102,10249128,AGENCIA LOS CABALEROS,AV. LOPE DE VEGA 3389,VILLA DEVOTO,Capital Federal,0,1,1,0,Lun. a Vie. 09:15hs a 13:30hs y 15:45hs a 20:00hs,Sáb. 09:15hs a 13:00hs ,,-34.6127235,-58.52695633
164,5207014,AXION AMERICA (444),AV. MOSCONI 2500,VILLA DEVOTO,Capital Federal,0,0,0,1,Lun. a Vie. 00:00hs a 24:00hs ,Sáb. 00:00hs a 24:00hs ,Dom. 00:00hs a 24:00hs ,-34.583529,-58.497684
165,5207015,AXION AMANECER (427),BEIRO 5501,VILLA DEVOTO,Capital Federal,0,0,0,1,Lun. a Vie. 00:00hs a 24:00hs ,Sáb. 00:00hs a 24:00hs ,Dom. 00:00hs a 24:00hs ,-34.61594,-58.527548
338,9902117,CORREO VILLA DEVOTO,AV. SAN MARTIN 6354,VILLA DEVOTO,Capital Federal,1,0,1,0,Lun. a Vie. 10:00hs a 18:00hs ,,,-34.59424808,-58.50486182
915,90017003,C.S. SHOPPING DEVOTO,JOSE PEDRO VARELA 4866,VILLA DEVOTO,Capital Federal,1,1,1,0,Lun. a Vie. 10:00hs a 22:00hs ,Sáb. 10:00hs a 22:00hs ,Dom. 10:00hs a 16:00hs ,-34.61131069,-58.51813139
1003,5349100,SUPERMERCADO SUPERSERVICIO,JOSE CUBAS 4450,VILLA DEVOTO,Capital Federal,0,0,1,0,Lun. a Vie. 08:00hs a 13:00hs y 16:00hs a 21:00hs,Sáb. 08:00hs a 13:30hs y 17:00hs a 21:00hs,Dom. 09:00hs a 13:00hs ,-34.60049896,-58.51951441
1289,8949358,TELECENTRO VILLA DEVOTO NORTE,AV. SAN MARTIN 6907,VILLA DEVOTO,Capital Federal,1,1,1,0,Lun. a Vie. 08:00hs a 20:00hs ,Sáb. 09:00hs a 14:00hs ,,-34.59172751,-58.51103069
2055,90001118,C.S. CARREFOUR VILLA DEVOTO,JOSE PEDRO VARELA 4750,VILLA DEVOTO,Capital Federal,1,1,1,0,Lun. a Vie. 10:00hs a 20:00hs ,Sáb. 10:00hs a 20:00hs ,Dom. 10:00hs a 20:00hs ,-34.61041308,-58.51671951
2508,5319256,CARREFOUR EXPRESS (0586),SAN MARTIN 5930,VILLA DEVOTO,Capital Federal,0,0,1,0,Lun. a Vie. 08:00hs a 22:00hs ,Sáb. 08:00hs a 22:00hs ,Dom. 11:00hs a 20:00hs ,-34.59585,-58.499864
2967,5319322,CARREFOUR EXPRESS (624),NAZCA 3214,VILLA DEVOTO,Capital Federal,0,0,1,0,Lun. a Vie. 08:30hs a 22:00hs ,Sáb. 08:30hs a 22:00hs ,,-34.599032,-58.491609
2968,5319323,CARREFOUR EXPRESS (664),NOGOYA 3644,VILLA DEVOTO,Capital Federal,0,0,1,0,Lun. a Vie. 08:30hs a 22:00hs ,Sáb. 08:30hs a 22:00hs ,Dom. 11:00hs a 20:00hs ,-34.606384,-58.497794
2773,5319026,CARREFOUR EXPRESS (0310),CHIVILCOY 3840,VILLA DEVOTO,Capital Federal,0,0,1,0,Lun. a Vie. 08:00hs a 22:00hs ,Sáb. 08:00hs a 22:00hs ,Dom. 11:00hs a 20:00hs ,-34.600512,-58.511285
3010,5319372,CARREFOUR EXPRESS (685),PAREJA 4890,VILLA DEVOTO,Capital Federal,0,0,1,0,Lun. a Vie. 08:30hs a 22:00hs ,Sáb. 08:30hs a 22:00hs ,Dom. 11:00hs a 20:00hs ,-34.605468,-58.523885
3542,6959004,AGL LIBRERIA HOLOGRAMA,FERNANDEZ DE ENCISO 4404,VILLA DEVOTO,Capital Federal,0,0,1,0,Lun. a Vie. 10:00hs a 13:00hs y 16:00hs a 19:00hs,,,-34.595423,-58.5117
3862,11949390,TXV BEIRO,AV. FRANCISCO BEIRO 3438,VILLA DEVOTO,Capital Federal,1,1,1,0,Lun. a Vie. 08:00hs a 18:00hs ,,,-34.59946,-58.501423
3951,11949417,TXV BEIRO I,AV.FRANCISCO BEIRO 3501,VILLA DEVOTO,Capital Federal,1,1,1,0,Lun. a Vie. 09:00hs a 18:00hs ,,,-34.599942,-58.502446
4480,12449180,TXV LOPE DE VEGA II,LOPE DE VEGA 2803,VILLA DEVOTO,Capital Federal,0,1,1,0,Lun. a Vie. 09:00hs a 18:00hs ,,,-34.616287,-58.522083
4332,11949487,TXV TINOGASTA,TINOGASTA 4400,VILLA DEVOTO,Capital Federal,1,1,1,0,Lun. a Vie. 08:00hs a 19:00hs ,,,-34.60834,-58.508651
5775,10849055,DEVOTO REPUESTOS,AV. LOPE DE VEGA 2468,VILLA DEVOTO,Capital Federal,1,1,1,0,Lun. a Vie. 08:30hs a 13:00hs y 14:00hs a 19:00hs,Sáb. 10:00hs a 15:00hs ,,-34.659191,-58.477278
5451,6149356,EL AHORRO,BENITO JUAREZ 2686,VILLA DEVOTO,Capital Federal,0,1,1,0,Lun. a Vie. 09:00hs a 22:00hs ,Sáb. 09:00hs a 22:00hs ,,-34.614804,-58.509416
5538,8159448,AGL SEGUROS APR,JOSE PEDRO VARELA 5039,VILLA DEVOTO,Capital Federal,0,0,1,0,Lun. a Vie. 09:00hs a 19:00hs ,,,-34.61223,-58.519842
5547,8749263,CENTRO EXCLUSIVO,AV. SEGUROLA 3194,VILLA DEVOTO,Capital Federal,1,1,1,0,Lun. a Vie. 10:00hs a 12:30hs y 13:30hs a 20:30hs,Sáb. 10:00hs a 14:00hs ,,-34.607502,-58.511994
