IDSUCURSAL,NRO_AGENTE_PF,NOMBRE,DIRECCION,LOCALIDAD,PROVINCIA,WESTERN_UNION,ENVIO_NACIONAL,PAGO_FACTURAS,RECARGA_FACIL,HS_LAV,HS_SABADO,HS_DOMINGO,LATITUD,LONGITUD
251,9902024,CORREO VILLA LUGANO,AV. RIESTRA 5719,VILLA LUGANO,Capital Federal,1,0,1,0,Lun. a Vie. 10:00hs a 18:00hs ,,,-34.67751294,-58.475823
1063,8849493,LOCUTORIO MIRAMAR,ESCALADA 2278,VILLA LUGANO,Capital Federal,0,1,1,0,Lun. a Vie. 09:30hs a 19:30hs ,Sáb. 09:30hs a 14:00hs ,,-34.65834583,-58.47820067
1192,8849706,LOCUTORIO CADAC,SOLDADO DE LA FRONTERA 5251 ED. 37 LOC C,VILLA LUGANO,Capital Federal,1,1,1,0,Lun. a Vie. 09:00hs a 18:00hs ,Sáb. 09:00hs a 13:00hs ,,-34.68578552,-58.46354709
1454,8849891,LOCUTORIO JUSAR,AV. PIEDRABUENA 4920,VILLA LUGANO,Capital Federal,1,1,1,0,Lun. a Vie. 09:00hs a 13:00hs y 16:00hs a 19:00hs,,,-34.68784016,-58.47538216
1481,10249456,AGENCIA ESQUINA DE LA SUERTE,ALBARINO 2505,VILLA LUGANO,Capital Federal,0,1,1,0,Lun. a Vie. 10:30hs a 18:00hs ,,,-34.66074516,-58.48335851
1267,7049580,MAXIKIOSCO LUGANO,MURGUIONDO 4057,VILLA LUGANO,Capital Federal,0,1,1,0,Lun. a Vie. 09:00hs a 18:30hs ,Sáb. 09:00hs a 14:00hs ,,-34.67622,-58.477218
1543,7049868,DRUGSTORE VERO,UNANUE 6760,VILLA LUGANO,Capital Federal,1,1,1,0,Lun. a Vie. 08:00hs a 13:00hs y 15:00hs a 22:00hs,Sáb. 08:00hs a 13:00hs y 15:00hs a 22:00hs,,-34.68639071,-58.48120433
2604,5319122,CARREFOUR EXPRESS (0423),AV. CASTANARES 4854,VILLA LUGANO,Capital Federal,0,0,1,0,Lun. a Vie. 08:00hs a 22:00hs ,Sáb. 08:00hs a 22:00hs ,Dom. 11:00hs a 20:00hs ,-34.667115,-58.473055
2682,5319206,CARREFOUR EXPRESS (0535),MURGUIONDO 4324,VILLA LUGANO,Capital Federal,0,0,1,0,Lun. a Vie. 08:00hs a 22:00hs ,Sáb. 08:00hs a 22:00hs ,Dom. 11:00hs a 20:00hs ,-34.677968,-58.474328
3232,7059025,AGL KIOSCO DIANA,LARRAZABAL 4066,VILLA LUGANO,Capital Federal,0,0,1,0,Lun. a Vie. 09:00hs a 13:00hs y 16:00hs a 19:00hs,,,-31.39893,-64.182129
3013,5319345,CARREFOUR EXPRESS (614),MURGUIONDO 4053,VILLA LUGANO,Capital Federal,0,0,1,0,Lun. a Vie. 08:30hs a 22:00hs ,Sáb. 08:30hs a 22:00hs ,Dom. 11:00hs a 20:00hs ,-34.749981,-58.583751
3014,5319346,CARREFOUR EXPRESS (672),AV. CHILAVERT 6901,VILLA LUGANO,Capital Federal,0,0,1,0,Lun. a Vie. 08:30hs a 22:00hs ,Sáb. 08:30hs a 22:00hs ,Dom. 11:00hs a 20:00hs ,-34.689438,-58.479536
3084,10349075,SEBASTIAN II,2 DE ABRIL DE 1982 6937 ESC.12 A PB L 38,VILLA LUGANO,Capital Federal,0,1,1,0,Lun. a Vie. 09:00hs a 20:00hs ,Sáb. 09:00hs a 20:00hs ,,-34.674209,-58.481464
3346,9749240,GRANJA CHOCO POLLO,MURGUIONDO 4736,VILLA LUGANO,Capital Federal,0,1,1,0,Lun. a Vie. 09:00hs a 17:00hs ,,,-34.681606,-58.469719
3613,12349031,LOCUTORIO LUGANO,MURGIONDO 4002,VILLA LUGANO,Capital Federal,1,0,1,0,Lun. a Vie. 08:00hs a 22:00hs ,Sáb. 08:00hs a 22:00hs ,,-34.675714,-58.477439
3632,11649332,CYBER J Y G,CORVALAN MZA 17 CASA 2,VILLA LUGANO,Capital Federal,0,1,1,0,Lun. a Vie. 07:00hs a 22:00hs ,,,-34.672323,-58.466824
4112,12349045,GRAFICA LUGANO,FERNANDEZ D.L.CRUZ A 6735,VILLA LUGANO,Capital Federal,1,1,1,0,Lun. a Vie. 09:00hs a 19:00hs ,,,-34.689071,-58.477209
3968,12249156,LOCUTORIO EL OMBU,ALVAREZ CRISOSTOMO 5918,VILLA LUGANO,Capital Federal,1,1,1,0,Lun. a Vie. 09:00hs a 21:00hs ,Sáb. 09:00hs a 21:00hs ,,-34.672063,-58.486636
4667,8749196,CENTRO  SERVICIOS BARCELONA,SOLDADO D.L.FRONTERA 5330 P 1 DPTO C,VILLA LUGANO,Capital Federal,1,1,1,0,Lun. a Vie. 08:00hs a 14:00hs y 16:30hs a 19:00hs,Sáb. 09:00hs a 13:00hs ,,-34.686406,-58.462454
6736,,NSA AR LUGANO,POLA  3983,VILLA LUGANO,Capital Federal,1,0,0,0,Lun. a Vie. 0900 A 1400 1600 A 2000,Sáb. 0900 A 2000,Dom. 1000 A 1700,-34.674323,-58.469201
6767,,NSA AR VILLA LUGANO - CANDELARIA,VILLA 20  Y MANZANA 19 CASA 32A,VILLA LUGANO,Capital Federal,1,0,0,0,Lun. a Vie. 0600 A 2200,Sáb. 0600 A 2200,,-58.466151,-34.675268
4982,8149395,LF SERVICIOS,AV. EVA PERON 5128,VILLA LUGANO,Capital Federal,0,1,1,0,Lun. a Vie. 09:00hs a 13:00hs y 14:00hs a 18:30hs,,,-34.659295,-58.480708
5101,8749223,SEBASTIAN KIOSCO II LUGANO,GUAMINI 4856,VILLA LUGANO,Capital Federal,1,1,1,0,Lun. a Vie. 08:30hs a 13:00hs y 16:30hs a 20:00hs,Sáb. 08:30hs a 13:00hs y 16:30hs a 20:00hs,,-34.686753,-58.477781
5769,8159529,AGL SEGUROS AYELEN,ESCALADA AV. 2293,VILLA LUGANO,Capital Federal,0,0,1,0,Lun. a Vie. 09:00hs a 14:00hs y 17:00hs a 20:00hs,,,-34.659191,-58.477278
5224,8159311,AGL CS SEGUROS,MURGUIONDO 3677,VILLA LUGANO,Capital Federal,0,0,1,0,Lun. a Vie. 10:00hs a 17:00hs ,,,-34.672296,-58.481894
5394,8149450,ORGANIZACION ANGELI,EVA PERON 5710,VILLA LUGANO,Capital Federal,0,1,1,0,Lun. a Vie. 09:00hs a 18:00hs ,,,-34.662471,-58.48607
6101,8159641,AGL SEGUROS ORGANIZACION P.J. LUGANO,J.P.T. BATLLE Y ORDONEZ 5208,VILLA LUGANO,Capital Federal,0,0,1,0,Lun. a Vie. 09:00hs a 13:00hs y 13:30hs a 19:30hs,Sáb. 10:00hs a 13:30hs ,,-34.674615,-58.468979
4906,12649003,AGENCIA POR UNA CABEZA,CHILAVERT 6310,VILLA LUGANO,Capital Federal,0,1,1,0,Lun. a Vie. 09:00hs a 18:00hs ,,,-34.685336,-58.475007
4963,8149388,SEGUROS C Y J,FERNANDEZ D.L.CRUZ A 5699,VILLA LUGANO,Capital Federal,0,1,1,0,Lun. a Vie. 09:30hs a 13:00hs y 14:00hs a 19:00hs,,,-34.682042,-58.469115
