IDSUCURSAL,NRO_AGENTE_PF,NOMBRE,DIRECCION,LOCALIDAD,PROVINCIA,WESTERN_UNION,ENVIO_NACIONAL,PAGO_FACTURAS,RECARGA_FACIL,HS_LAV,HS_SABADO,HS_DOMINGO,LATITUD,LONGITUD
128,90015005,C.S. LIBERTAD MENDOZA,AV. J.V.GONZALEZ Y CIPOLLETTI,GODOY CRUZ,Mendoza,1,1,1,0,Lun. a Vie. 09:00hs a 22:00hs ,Sáb. 09:00hs a 22:00hs ,Dom. 09:00hs a 22:00hs ,-32.932121,-68.858753
393,9902179,CORREO GODOY CRUZ,PERITO MORENO 50,GODOY CRUZ,Mendoza,1,0,1,0,Lun. a Vie. 08:00hs a 13:00hs y 17:00hs a 20:00hs,,,-32.92522298,-68.84383859
1162,5349141,MULTIESPACIO 581,RIVADAVIA 581,GODOY CRUZ,Mendoza,1,1,1,0,Lun. a Vie. 09:00hs a 20:00hs ,Sáb. 09:00hs a 20:00hs ,,-32.924407,-68.84476875
1010,5149695,FARMACIA NATAL IV,MARCOS SASTRE 985,GODOY CRUZ,Mendoza,0,1,1,0,Lun. a Vie. 09:00hs a 13:00hs y 17:00hs a 20:00hs,Sáb. 09:00hs a 13:00hs ,,-32.914744,-68.871496
1658,9849039,MINIMARKET LULY,JUAN XXIII 353,GODOY CRUZ,Mendoza,0,1,1,0,Lun. a Vie. 09:00hs a 13:00hs y 17:00hs a 20:30hs,,,-32.930219,-68.835604
1703,7049974,COMMODO VEA 6,PASO DE LOS ANDES 850,GODOY CRUZ,Mendoza,1,1,1,0,Lun. a Vie. 09:00hs a 13:00hs y 17:00hs a 21:00hs,Sáb. 09:00hs a 13:00hs ,,-32.951674,-68.753454
1572,7049897,DRUGSTORE VEA 7,AMERICA 2780,GODOY CRUZ,Mendoza,0,1,1,0,Lun. a Vie. 08:30hs a 20:30hs ,Sáb. 08:30hs a 20:30hs ,Dom. 08:30hs a 13:00hs y 17:00hs a 20:30hs,-32.912257,-68.876536
2217,8749051,WESTE GODOY CRUZ,AV. SAN MARTIN Y RIVADAVIA,GODOY CRUZ,Mendoza,1,1,1,0,Lun. a Vie. 08:30hs a 20:30hs ,Sáb. 09:00hs a 20:00hs ,,-32.923813,-68.848303
2894,8118043,COREFIN (GODOY CRUZ),RIVADAVIA 604,GODOY CRUZ,Mendoza,0,0,1,0,Lun. a Vie. 08:30hs a 13:00hs y 16:30hs a 20:30hs,Sáb. 09:00hs a 13:00hs ,,-32.924308,-68.84619
3161,8749085,PAGOS STARE,SARMIENTO 585 LOC 25,GODOY CRUZ,Mendoza,0,1,1,0,Lun. a Vie. 08:00hs a 13:00hs y 16:30hs a 21:00hs,Sáb. 09:00hs a 13:00hs ,,-32.938762,-68.839144
3457,5349360,COMMODO JUMBO,BALCARCE 735 LOC 1050,GODOY CRUZ,Mendoza,1,1,1,0,Lun. a Vie. 08:30hs a 21:30hs ,Sáb. 08:30hs a 21:30hs ,Dom. 08:30hs a 21:30hs ,-32.917729,-68.840845
3472,12049849,MINIMARKET MIKA,ARISTOBULO DEL VALLE 2008- II BRIO SOEVA,GODOY CRUZ,Mendoza,0,1,1,0,Lun. a Vie. 09:00hs a 13:00hs y 17:00hs a 20:00hs,Sáb. 09:00hs a 13:00hs y 17:00hs a 20:00hs,,-32.948727,-68.826082
3326,10649014,PRESENCE,CERRO TRAPAL 1104,GODOY CRUZ,Mendoza,1,1,1,0,Lun. a Vie. 09:30hs a 12:30hs y 16:30hs a 20:30hs,Sáb. 09:30hs a 12:30hs y 16:30hs a 20:30hs,,-32.943628,-68.827555
3350,8749099,BOLSA DE COMERCIO SEDE GODOY CRUZ,RIVADAVIA Y SAN MARTIN,GODOY CRUZ,Mendoza,0,0,1,0,Lun. a Vie. 08:30hs a 20:30hs ,,,-32.92394,-68.848112
3356,8749105,BOLSA DE COMERCIO SEDE PALMARES,RUTA PANAMERICANA 2650,GODOY CRUZ,Mendoza,0,0,1,0,Lun. a Vie. 08:00hs a 16:00hs ,,,-32.892383,-68.80078
3816,8749137,COMMODO SARMIENTO,SARMIENTO 998,GODOY CRUZ,Mendoza,1,1,1,0,Lun. a Vie. 08:00hs a 21:00hs ,Sáb. 08:00hs a 21:00hs ,Dom. 08:00hs a 21:00hs ,-32.939731,-68.834774
4030,8749155,PAGOS LUCERO,PRESIDENTE ILLIA 1389,GODOY CRUZ,Mendoza,0,1,1,0,Lun. a Vie. 09:00hs a 13:00hs y 16:00hs a 20:00hs,Sáb. 09:00hs a 13:00hs y 16:00hs a 20:00hs,Dom. 10:00hs a 13:00hs ,-32.936623,-68.869928
4197,90049044,COMMODO VEA DEMOCRACIA,SAN MARTIN 698 LOCAL 1 - SUPER VEA,GODOY CRUZ,Mendoza,0,1,1,0,Lun. a Vie. 08:30hs a 12:30hs y 17:00hs a 21:00hs,Sáb. 08:30hs a 12:30hs y 17:00hs a 21:00hs,Dom. 08:30hs a 21:00hs ,-32.917289,-68.846378
4210,11849230,FARMACIA NATAL VI,"SARMIENTO 997 PB, LOCAL 2",GODOY CRUZ,Mendoza,0,1,1,0,Lun. a Vie. 09:00hs a 13:00hs y 17:00hs a 21:00hs,,,-32.939886,-68.834634
4488,10949032,PET SHOP PATITAS,CERVANTES 424,GODOY CRUZ,Mendoza,0,1,1,0,Lun. a Vie. 08:00hs a 21:30hs ,Sáb. 08:00hs a 21:30hs ,,-32.930756,-68.838936
4250,90049052,COMMODO PALMARES,PANAMERICANA 2675,GODOY CRUZ,Mendoza,1,1,1,0,Lun. a Vie. 09:00hs a 21:00hs ,Sáb. 09:00hs a 15:00hs ,,-32.954314,-68.85665
4262,11849231,FARMACIA CRUZ DEL VALLE,JOAQUIN V. GONZALEZ 2182,GODOY CRUZ,Mendoza,0,1,1,0,Lun. a Vie. 09:30hs a 13:00hs y 17:00hs a 21:30hs,Sáb. 09:00hs a 13:00hs ,,-32.947757,-68.856232
5767,8159521,OCTANOS SEGUROS AGL,SAN MARTIN SUR 770,GODOY CRUZ,Mendoza,0,0,1,0,Lun. a Vie. 09:00hs a 13:30hs y 17:30hs a 20:30hs,,,-32.933613,-68.849591
5874,8749279,COMMODO FOECYT,CALINGASTA 1167,GODOY CRUZ,Mendoza,0,1,1,0,Lun. a Vie. 08:00hs a 13:00hs y 16:00hs a 20:00hs,Sáb. 09:00hs a 14:00hs ,,-32.937233,-68.87384
5903,90001255,C.S GODOY CRUZ,AV. SAN MARTIN SUR 35 LOCAL 1,GODOY CRUZ,Mendoza,1,1,1,0,Lun. a Vie. 08:00hs a 18:00hs ,Sáb. 09:00hs a 13:00hs ,,-32.92439,-68.84837
5924,12449383,COMMODO COVIMET,ARRECIFES 2293,GODOY CRUZ,Mendoza,1,1,1,0,Lun. a Vie. 09:00hs a 13:00hs y 17:00hs a 20:30hs,Sáb. 09:00hs a 13:00hs y 17:00hs a 20:30hs,,-32.946606,-68.821306
4946,10649020,PRESENCE 2,RIO JURAMENTO 2431,GODOY CRUZ,Mendoza,0,1,1,0,Lun. a Vie. 08:00hs a 12:30hs y 14:00hs a 19:00hs,,,-32.921603,-68.866415
