IDSUCURSAL,NRO_AGENTE_PF,NOMBRE,DIRECCION,LOCALIDAD,PROVINCIA,WESTERN_UNION,ENVIO_NACIONAL,PAGO_FACTURAS,RECARGA_FACIL,HS_LAV,HS_SABADO,HS_DOMINGO,LATITUD,LONGITUD
92,8902001,TELECENTRO BELGRANO CHICO,ECHEVERRIA 1340,BELGRANO,Capital Federal,0,0,1,0,Lun. a Vie. 09:00hs a 14:00hs y 16:00hs a 21:00hs,Sáb. 09:00hs a 16:00hs ,,-34.55644651,-58.44491767
110,90001012,C.S. BELGRANO,LA PAMPA 2451,BELGRANO,Capital Federal,1,1,1,0,Lun. a Vie. 09:00hs a 18:00hs ,Sáb. 09:00hs a 12:30hs ,,-34.56496267,-58.45477498
168,5207018,AXION CABILDO (951),AV. CABILDO 695,BELGRANO,Capital Federal,0,0,0,1,Lun. a Vie. 00:00hs a 24:00hs ,Sáb. 00:00hs a 24:00hs ,Dom. 00:00hs a 24:00hs ,-34.57015771,-58.44397386
66,6549034,CENTRO INTEGRAL DE OPTICA Y AUDIOLOGIA,JURAMENTO 1620,BELGRANO,Capital Federal,0,0,1,0,Lun. a Vie. 10:00hs a 16:00hs ,Sáb. 11:00hs a 13:00hs ,,-34.55742451,-58.44885443
69,6949084,LIBRERIA J.L.Z.,MONTANESES 2782,BELGRANO,Capital Federal,1,1,1,0,Lun. a Vie. 08:00hs a 12:00hs y 14:00hs a 19:00hs,Sáb. 08:00hs a 12:00hs ,,-34.55107627,-58.45415088
1404,11649187,LO DE PATO,LUIS MARIA CAMPOS 290,BELGRANO,Capital Federal,0,1,1,0,Lun. a Vie. 08:00hs a 20:00hs ,Sáb. 09:00hs a 14:00hs ,,-34.57364775,-58.43239375
1226,90017005,C.S. SHOPPING SOLAR DE LA ABADIA,ARCE 940,BELGRANO,Capital Federal,1,1,1,0,Lun. a Vie. 08:00hs a 21:00hs ,Sáb. 10:00hs a 21:00hs ,Dom. 10:00hs a 21:00hs ,-34.56717729,-58.43721576
1243,7049530,MAXIKIOSCO CANDY,AMENABAR 1537,BELGRANO,Capital Federal,0,1,1,0,Lun. a Vie. 09:00hs a 20:00hs ,,,-34.56784888,-58.45363804
2053,90001115,C.S. CARREFOUR BELGRANO,AV. MONROE 1655,BELGRANO,Capital Federal,1,1,1,0,Lun. a Vie. 10:00hs a 19:00hs ,Sáb. 10:00hs a 14:00hs ,Dom. 10:00hs a 14:00hs ,36.618338,-64.291268
1839,8749021,MONEY OLD SERVICIOS,CIUDAD DE LA PAZ 2467,BELGRANO,Capital Federal,0,1,1,0,Lun. a Vie. 09:00hs a 17:00hs ,Sáb. 10:00hs a 13:00hs ,,-34.55893051,-58.46043629
2314,11549005,ELECTROTOTAL,ARCOS 2433,BELGRANO,Capital Federal,0,1,1,0,Lun. a Vie. 10:00hs a 13:00hs y 14:00hs a 18:00hs,,,-34.557097,-58.456493
2563,5319087,CARREFOUR EXPRESS (0374),AV. ROMULO NAON 2401,BELGRANO,Capital Federal,0,0,1,0,Lun. a Vie. 08:00hs a 22:00hs ,Sáb. 08:00hs a 22:00hs ,Dom. 11:00hs a 20:00hs ,-34.5625,-58.458333
2605,5319125,CARREFOUR EXPRESS (0426),MONTANESES 2067,BELGRANO,Capital Federal,0,0,1,0,Lun. a Vie. 08:00hs a 22:00hs ,Sáb. 08:00hs a 22:00hs ,Dom. 11:00hs a 20:00hs ,-34.557709,-58.448617
2661,5319280,CARREFOUR EXPRESS (0613),AV. CONGRESO 2774,BELGRANO,Capital Federal,0,0,1,0,Lun. a Vie. 08:00hs a 22:00hs ,Sáb. 11:00hs a 20:00hs ,,-34.557262,-58.465937
2465,10249677,AGENCIA EL 22 II,MONROE 2347,BELGRANO,Capital Federal,1,1,1,0,Lun. a Vie. 09:00hs a 20:00hs ,Sáb. 09:00hs a 20:00hs ,,-34.557972,-58.459397
2491,5319239,CARREFOUR EXPRESS (0568),OLAZABAL 1898,BELGRANO,Capital Federal,0,0,1,0,Lun. a Vie. 08:00hs a 22:00hs ,Sáb. 08:00hs a 22:00hs ,Dom. 11:00hs a 20:00hs ,-34.557402,-58.453664
2518,5319262,CARREFOUR EXPRESS (0592),ECHEVERRIA 1420,BELGRANO,Capital Federal,0,0,1,0,Lun. a Vie. 08:00hs a 22:00hs ,Sáb. 08:00hs a 22:00hs ,Dom. 11:00hs a 20:00hs ,-34.557141,-58.446018
2801,5319050,CARREFOUR EXPRESS (0335),CUBA 2776,BELGRANO,Capital Federal,0,0,1,0,Lun. a Vie. 08:00hs a 22:00hs ,Sáb. 08:00hs a 22:00hs ,Dom. 11:00hs a 20:00hs ,-34.554533,-58.460269
2816,5319065,CARREFOUR EXPRESS (0351),ECHEVERRIA 2067,BELGRANO,Capital Federal,0,0,1,0,Lun. a Vie. 08:00hs a 22:00hs ,Sáb. 08:00hs a 22:00hs ,Dom. 11:00hs a 20:00hs ,-34.561142,-58.452737
2824,5319075,CARREFOUR EXPRESS (0361),MOLDES 1718,BELGRANO,Capital Federal,0,0,1,0,Lun. a Vie. 08:00hs a 22:00hs ,Sáb. 08:00hs a 22:00hs ,Dom. 11:00hs a 20:00hs ,-34.567168,-58.456407
2944,8049306,BULL-NET 2,JURAMENTO 1669 LOC 2,BELGRANO,Capital Federal,1,1,1,0,Lun. a Vie. 09:30hs a 18:00hs ,Sáb. 09:00hs a 13:00hs ,,-34.557717816327,-58.449513285714
2952,8749075,WEST BELGRANO 2,SUCRE 2357,BELGRANO,Capital Federal,1,1,1,0,Lun. a Vie. 10:00hs a 17:00hs ,,,-34.563658,-58.45463
2979,5319333,CARREFOUR EXPRESS (674),VIRREY DEL PINO 2527,BELGRANO,Capital Federal,0,0,1,0,Lun. a Vie. 08:00hs a 22:00hs ,Sáb. 08:00hs a 22:00hs ,Dom. 11:00hs a 20:00hs ,-34.567136,-58.454133
2982,5319336,CARREFOUR EXPRESS (683),CRAMER 2463,BELGRANO,Capital Federal,0,0,1,0,Lun. a Vie. 08:30hs a 22:00hs ,Sáb. 08:30hs a 22:00hs ,Dom. 11:00hs a 20:00hs ,-34.561361,-58.464204
2727,5319297,CARREFOUR EXPRESS (0632),AMENABAR 2710,BELGRANO,Capital Federal,0,0,1,0,Lun. a Vie. 08:00hs a 22:00hs ,Sáb. 08:00hs a 22:00hs ,Dom. 11:00hs a 20:00hs ,-34.557851,-58.463122
2774,5319027,CARREFOUR EXPRESS (0311),MONROE 2771,BELGRANO,Capital Federal,0,0,1,0,Lun. a Vie. 08:00hs a 22:00hs ,Sáb. 08:00hs a 22:00hs ,Dom. 11:00hs a 20:00hs ,-34.560298,-58.463337
2776,5319029,CARREFOUR EXPRESS (0313),MONTANESES 2267,BELGRANO,Capital Federal,0,0,1,0,Lun. a Vie. 08:00hs a 22:00hs ,Sáb. 08:00hs a 22:00hs ,Dom. 11:00hs a 20:00hs ,-34.555858,-58.450205
2783,5319036,CARREFOUR EXPRESS (0320),SUCRE 2480,BELGRANO,Capital Federal,0,0,1,0,Lun. a Vie. 08:00hs a 22:00hs ,Sáb. 08:00hs a 22:00hs ,Dom. 11:00hs a 20:00hs ,-34.564376,-58.455827
2789,5319041,CARREFOUR EXPRESS (0325),VIDAL 2357,BELGRANO,Capital Federal,0,0,1,0,Lun. a Vie. 08:00hs a 22:00hs ,Sáb. 08:00hs a 22:00hs ,Dom. 11:00hs a 20:00hs ,-34.561743,-58.462415
3001,5319363,CARREFOUR EXPRESS (671),SUCRE 2774,BELGRANO,Capital Federal,0,0,1,0,Lun. a Vie. 07:30hs a 22:00hs ,Sáb. 07:30hs a 22:00hs ,Dom. 11:00hs a 20:00hs ,-34.565971,-58.458457
3004,5319366,CARREFOUR EXPRESS (391),CABILDO 2865,BELGRANO,Capital Federal,0,0,1,0,Lun. a Vie. 08:30hs a 22:00hs ,Sáb. 08:30hs a 22:00hs ,Dom. 11:00hs a 20:00hs ,-34.555831,-58.462163
3478,5319374,CARREFOUR EXPRESS (582),AV. CONGRESO 4781,BELGRANO,Capital Federal,0,0,1,0,Lun. a Vie. 08:30hs a 22:00hs ,Sáb. 08:30hs a 22:00hs ,Dom. 11:00hs a 20:00hs ,-34.567742,-58.486401
3535,5319380,CARREFOUR EXPRESS (0716),CASTANEDA 1836-40,BELGRANO,Capital Federal,0,0,1,0,Lun. a Vie. 08:00hs a 22:00hs ,Sáb. 08:00hs a 22:00hs ,Dom. 11:00hs a 20:00hs ,-34.553895,-58.436665
3536,5319381,CARREFOUR EXPRESS (0715),AV. CORDOBA 4967,BELGRANO,Capital Federal,0,0,1,0,Lun. a Vie. 08:00hs a 22:00hs ,Sáb. 08:00hs a 22:00hs ,Dom. 11:00hs a 20:00hs ,-34.591688,-58.433986
3597,5319384,CARREFOUR EXPRESS (721),TRES DE FEBRERO 1380,BELGRANO,Capital Federal,0,0,1,0,Lun. a Vie. 08:00hs a 22:00hs ,Sáb. 08:00hs a 22:00hs ,Dom. 08:00hs a 22:00hs ,-34.56624,-58.44628
3380,10249798,PLENO BELGRANO 2,FRANKLIN D. ROOSEVELT 2416,BELGRANO,Capital Federal,0,1,1,0,Lun. a Vie. 09:00hs a 19:00hs ,Sáb. 09:00hs a 13:00hs ,,-34.557782,-58.460875
3827,6959007,AGL LIBRERIA CRONOPIOS,MENDOZA 2922,BELGRANO,Capital Federal,0,0,1,0,Lun. a Vie. 10:00hs a 14:00hs ,,,-34.563986,-58.462262
3675,5319389,CARREFOUR EXPRESS (739),FRANKLIN.D ROOSEVELT 3002,BELGRANO,Capital Federal,0,0,1,0,Lun. a Vie. 08:00hs a 22:00hs ,Sáb. 08:00hs a 22:00hs ,Dom. 11:00hs a 20:00hs ,-34.560798,-58.466183
3900,5207110,AXION LOS INCAS (972),AV. LOS INCAS 3550,BELGRANO,Capital Federal,0,0,0,1,Lun. a Vie. 00:00hs a 24:00hs ,Sáb. 00:00hs a 24:00hs ,Dom. 00:00hs a 24:00hs ,-34.57513,-58.463028
4502,90049078,SERVICIOS EXPRESS OLAZABAL,OLAZABAL 2193,BELGRANO,Capital Federal,1,1,1,0,Lun. a Vie. 09:30hs a 18:00hs ,Sáb. 09:30hs a 14:00hs ,,-34.558636285714,-58.456194612245
4318,12349048,LOCUTORIO ICARDI II,AV. OLAZABAL 1725,BELGRANO,Capital Federal,0,1,1,0,Lun. a Vie. 10:00hs a 18:00hs ,Sáb. 10:00hs a 18:00hs ,Dom. 10:00hs a 18:00hs ,-34.558975,-58.456386
5112,12449324,TOTAL PAYMENT OPEN SOLDADO DE LA INDEP.,SOLDADO DE LA INDEPENDENCIA 1179,BELGRANO,Capital Federal,1,1,1,0,Lun. a Vie. 10:00hs a 19:00hs ,,,-34.564602,-58.439172
5113,12449325,TOTAL PAYMENT OPEN CABILDO,AV.CABILDO 601,BELGRANO,Capital Federal,1,1,1,0,Lun. a Vie. 10:00hs a 19:00hs ,,,-34.570677,-58.442787
5923,12649034,AGENCIA LOS AZU,AV. CONGRESO 2516,BELGRANO,Capital Federal,0,1,1,0,Lun. a Vie. 09:00hs a 19:00hs ,Sáb. 09:00hs a 13:00hs ,,-34.556075,-58.463544
4956,12649008,AGENCIA MATRAFE,MOLDES 1809,BELGRANO,Capital Federal,0,1,1,0,Lun. a Vie. 08:00hs a 21:00hs ,Sáb. 08:00hs a 21:00hs ,Dom. 14:00hs a 20:00hs ,-34.566323,-58.457174
4960,90049108,SERVICIOS EXPRESS JURAMENTO,JURAMENTO 2588,BELGRANO,Capital Federal,1,1,1,0,Lun. a Vie. 09:00hs a 19:00hs ,Sáb. 09:00hs a 14:00hs ,,-34.563099,-58.458433
