IDSUCURSAL,NRO_AGENTE_PF,NOMBRE,DIRECCION,LOCALIDAD,PROVINCIA,WESTERN_UNION,ENVIO_NACIONAL,PAGO_FACTURAS,RECARGA_FACIL,HS_LAV,HS_SABADO,HS_DOMINGO,LATITUD,LONGITUD
101,10249112,AGENCIA EL TORREON,ARENALES 2702,RECOLETA,Capital Federal,1,1,1,0,Lun. a Vie. 09:00hs a 19:30hs ,Sáb. 09:00hs a 13:00hs ,,-34.592423,-58.404217
8,5149066,FARMACIA FRANCO SUIZA,AV. SANTA FE 2166,RECOLETA,Capital Federal,1,1,1,0,Lun. a Vie. 09:00hs a 19:00hs ,Sáb. 09:00hs a 14:00hs ,,-34.595456,-58.397776
230,9902003,CORREO BARRIO NORTE,AV. PUEYRREDON 1352,RECOLETA,Capital Federal,1,0,1,0,Lun. a Vie. 10:00hs a 18:00hs ,,,-34.59507843,-58.40237586
244,9902017,CORREO PLAZA VICENTE LOPEZ,MONTEVIDEO 1408,RECOLETA,Capital Federal,0,0,1,0,Lun. a Vie. 10:00hs a 18:00hs ,,,-34.59268292,-58.38984453
271,9902045,CORREO FACULTAD,PASTEUR 768,RECOLETA,Capital Federal,1,0,1,0,Lun. a Vie. 10:00hs a 18:00hs ,,,-34.59967296,-58.39607137
279,9902054,CORREO PLAZA R.PENA,URUGUAY 1069,RECOLETA,Capital Federal,1,0,1,0,Lun. a Vie. 10:00hs a 18:00hs ,,,-34.59603978,-58.3867112
280,9902055,CORREO RECOLETA,AV. CALLAO 1577,RECOLETA,Capital Federal,1,0,1,0,Lun. a Vie. 10:00hs a 18:00hs ,,,-34.59102776,-58.39112365
1501,6949282,LIBRERIA PMB,CHARCAS 3210,RECOLETA,Capital Federal,1,1,1,0,Lun. a Vie. 10:00hs a 13:00hs y 15:00hs a 18:00hs,,,-34.592593,-58.4110526747
2035,8749038,NEW MULTISERVICIOS TRIBUNALES,PARANA 848,RECOLETA,Capital Federal,1,1,1,0,Lun. a Vie. 09:00hs a 18:00hs ,,,-34.59876718,-58.38797335
1834,8149203,SERVICIOS EXPRESS RECOLETA,LAS HERAS 1692,RECOLETA,Capital Federal,1,1,1,0,Lun. a Vie. 09:00hs a 18:00hs ,Sáb. 09:30hs a 14:30hs ,,-34.59227773,-58.39086027
1908,90001063,C.S. MONTEVIDEO BP,AV. CORDOBA 1591,RECOLETA,Capital Federal,1,1,1,0,Lun. a Vie. 08:30hs a 18:30hs ,Sáb. 09:00hs a 12:30hs ,,-34.59926857,-58.38922937
1917,8749033,NEW MULTISERVICIOS RECOLETA,MONTEVIDEO 1726,RECOLETA,Capital Federal,0,1,1,0,Lun. a Vie. 09:00hs a 18:00hs ,,,-34.5903661,-58.38676284
2152,90001150,C.S. CARREFOUR BERUTI,BERUTI 2951,RECOLETA,Capital Federal,1,1,1,0,Lun. a Vie. 10:00hs a 20:00hs ,Sáb. 10:00hs a 20:00hs ,Dom. 10:00hs a 20:00hs ,-34.589974,-58.405823
2566,5319090,CARREFOUR EXPRESS (0378),BILLINGHURST 1872-6,RECOLETA,Capital Federal,0,0,1,0,Lun. a Vie. 08:00hs a 22:00hs ,Sáb. 08:00hs a 22:00hs ,Dom. 11:00hs a 20:00hs ,-34.588983,-58.409026
2681,5319286,CARREFOUR EXPRESS (0620),MARCELO T. DE ALVEAR 1626,RECOLETA,Capital Federal,0,0,1,0,Lun. a Vie. 08:00hs a 22:00hs ,Sáb. 08:00hs a 22:00hs ,Dom. 11:00hs a 20:00hs ,-34.597216,-58.390275
2492,5319240,CARREFOUR EXPRESS (0569),AV. DEL LIBERTADOR 1140,RECOLETA,Capital Federal,0,0,1,0,Lun. a Vie. 08:00hs a 22:00hs ,Sáb. 08:00hs a 22:00hs ,Dom. 11:00hs a 20:00hs ,-34.585536,-58.388159
2515,5319260,CARREFOUR EXPRESS (0590),PENA 2544,RECOLETA,Capital Federal,0,0,1,0,Lun. a Vie. 08:00hs a 22:00hs ,Sáb. 08:00hs a 22:00hs ,Dom. 11:00hs a 20:00hs ,-34.588864,-58.400292
2797,5319047,CARREFOUR EXPRESS (0331),CHARCAS 3171,RECOLETA,Capital Federal,0,0,1,0,Lun. a Vie. 08:00hs a 22:00hs ,Sáb. 08:00hs a 22:00hs ,Dom. 11:00hs a 20:00hs ,-34.59259,-58.410509
2798,5319048,CARREFOUR EXPRESS (0332),BILLINGHURST 1380,RECOLETA,Capital Federal,0,0,1,0,Lun. a Vie. 08:00hs a 22:00hs ,Sáb. 08:00hs a 22:00hs ,Dom. 11:00hs a 20:00hs ,-34.593862,-58.412912
2809,5319058,CARREFOUR EXPRESS (0344),MARCELO T. ALVEAR 2251,RECOLETA,Capital Federal,0,0,1,0,Lun. a Vie. 08:00hs a 22:00hs ,Sáb. 08:00hs a 22:00hs ,Dom. 11:00hs a 20:00hs ,-34.59683,-58.399608
2812,5319061,CARREFOUR EXPRESS (0347),PACHECO DE MELO 2648,RECOLETA,Capital Federal,0,0,1,0,Lun. a Vie. 08:00hs a 22:00hs ,Sáb. 08:00hs a 22:00hs ,Dom. 11:00hs a 20:00hs ,-34.586761,-58.401389
2819,5319068,CARREFOUR EXPRESS (0354),PARANA 1053,RECOLETA,Capital Federal,0,0,1,0,Lun. a Vie. 08:00hs a 22:00hs ,Sáb. 08:00hs a 22:00hs ,Dom. 11:00hs a 20:00hs ,-34.59637,-58.388321
2821,5319070,CARREFOUR EXPRESS (0356),CALLAO 1289,RECOLETA,Capital Federal,0,0,1,0,Lun. a Vie. 08:00hs a 22:00hs ,Sáb. 08:00hs a 22:00hs ,Dom. 11:00hs a 20:00hs ,-34.593915,-58.393042
2957,12049575,DE TODO 24 HS,AV. PUEYRREDON 1742,RECOLETA,Capital Federal,1,1,1,0,Lun. a Vie. 09:00hs a 18:00hs ,Sáb. 09:00hs a 13:00hs ,,-34.590979,-58.400762
2730,5319300,CARREFOUR EXPRESS (0636),AYACUCHO 1401,RECOLETA,Capital Federal,0,0,1,0,Lun. a Vie. 08:00hs a 22:00hs ,Sáb. 08:00hs a 22:00hs ,Dom. 11:00hs a 20:00hs ,-34.592676,-58.394893
2752,5319314,CARREFOUR EXPRESS (0652),LAS HERAS 2986,RECOLETA,Capital Federal,0,0,1,0,Lun. a Vie. 08:00hs a 22:00hs ,Sáb. 08:00hs a 22:00hs ,Dom. 11:00hs a 20:00hs ,-34.583457,-58.403722
2758,5319011,CARREFOUR EXPRESS (0260),LAS HERAS 2397,RECOLETA,Capital Federal,0,0,1,0,Lun. a Vie. 08:00hs a 22:00hs ,Sáb. 08:00hs a 22:00hs ,Dom. 11:00hs a 20:00hs ,-34.586531,-58.398213
2764,5319017,CARREFOUR EXPRESS (0301),PUEYRREDON 2464,RECOLETA,Capital Federal,0,0,1,0,Lun. a Vie. 08:00hs a 22:00hs ,Sáb. 08:00hs a 22:00hs ,Dom. 11:00hs a 20:00hs ,-34.585886,-58.394029
2770,5319023,CARREFOUR EXPRESS (0307),LAS HERAS 1936,RECOLETA,Capital Federal,0,0,1,0,Lun. a Vie. 08:00hs a 22:00hs ,Sáb. 08:00hs a 22:00hs ,Dom. 11:00hs a 20:00hs ,-34.590647,-58.3933
2780,5319033,CARREFOUR EXPRESS (0317),ANCHORENA 1253,RECOLETA,Capital Federal,0,0,1,0,Lun. a Vie. 08:00hs a 22:00hs ,Sáb. 08:00hs a 22:00hs ,Dom. 11:00hs a 22:00hs ,-34.594754,-58.406378
2792,5319043,CARREFOUR EXPRESS (0327),LAS HERAS 2643,RECOLETA,Capital Federal,0,0,1,0,Lun. a Vie. 08:00hs a 22:00hs ,Sáb. 08:00hs a 22:00hs ,Dom. 11:00hs a 20:00hs ,-34.584747,-58.400166
3274,12049730,DRUGSTORE PUERTA DE TAFI,AV. LAS HERAS 2930,RECOLETA,Capital Federal,0,1,1,0,Lun. a Vie. 07:30hs a 14:00hs ,,,-34.583453,-58.402721
3543,12049892,DRUGSTORE SAN MIGUEL DE MOYA,AV. SANTA FE 5237,RECOLETA,Capital Federal,0,1,1,0,Lun. a Vie. 08:00hs a 13:00hs y 14:00hs a 21:00hs,Sáb. 08:00hs a 14:00hs ,,-34.575994,-58.432743
3607,5319385,CARREFOUR EXPRESS (0735),AV. PUEYRREDON 2120,RECOLETA,Capital Federal,0,0,1,0,Lun. a Vie. 08:30hs a 22:00hs ,Sáb. 08:30hs a 22:00hs ,Dom. 11:00hs a 20:00hs ,-34.587781,-58.3979
4046,8749158,SERVICIOS ROFCHUC GUEMES,GUEMES 4030,RECOLETA,Capital Federal,1,1,1,0,Lun. a Vie. 08:30hs a 19:00hs ,Sáb. 09:00hs a 13:00hs ,,-34.585805,-58.417835
4180,90049043,SERVICIOS JANKA,AV.SANTA FE 1998,RECOLETA,Capital Federal,1,1,1,0,Lun. a Vie. 10:00hs a 18:00hs ,,,-34.595983,-58.395952
4207,90049046,TOTAL PAYMENT CORDOBA,AV.CORDOBA 1602,RECOLETA,Capital Federal,1,1,1,0,Lun. a Vie. 10:00hs a 19:00hs ,Sáb. 09:00hs a 12:30hs ,,-34.599437,-58.389718
4505,12449200,TOTAL PAYMENT OPEN ARENALES,ARENALES 1706,RECOLETA,Capital Federal,1,1,1,0,Lun. a Vie. 10:00hs a 19:00hs ,,,-34.594907,-58.392132
4618,12449236,TOTAL PAYMENT OPEN CALLAO,AV. CALLAO 1601,RECOLETA,Capital Federal,1,1,1,0,Lun. a Vie. 10:00hs a 19:00hs ,,,-34.590892,-58.390815
4619,12449237,TOTAL PAYMENT OPEN VIAMONTE,SANTA FE 2301,RECOLETA,Capital Federal,1,1,1,0,Lun. a Vie. 10:00hs a 19:00hs ,,,-34.594985,-58.399934
4620,12449237,TOTAL PAYMENT OPEN VIAMONTE,SANTA FE 2301,RECOLETA,Capital Federal,1,1,1,0,Lun. a Vie. 10:00hs a 19:00hs ,,,-34.594985,-58.399934
6749,,NSA AR RECOLETA SOBRE RUEDAS 2,BILLINGHUST  2277,RECOLETA,Capital Federal,1,0,0,0,Lun. a Vie. 1000 A 1800,Sáb. 0900 A 1300,,-34.585786,-58.405976
5109,12449321,TOTAL PAYMENT OPEN RIOBAMBA,RIOBAMBA 902,RECOLETA,Capital Federal,1,1,1,0,Lun. a Vie. 10:00hs a 19:00hs ,,,-34.598537,-58.394684
5886,5319411,CARREFOUR EXPRESS (743),CALLAO 1043,RECOLETA,Capital Federal,0,0,1,0,Lun. a Vie. 07:30hs a 21:30hs ,Sáb. 07:30hs a 21:30hs ,Dom. 07:30hs a 21:30hs ,-34.596711,-58.3931
5539,8749260,GIRARG GUIDO,GUIDO 1501,RECOLETA,Capital Federal,1,1,1,0,Lun. a Vie. 10:00hs a 18:00hs ,Sáb. 10:00hs a 14:00hs ,,-34.59274,-58.386508
5541,8749261,GIRARG SANTA FE,AV. SANTA FE 1556 LOC 16,RECOLETA,Capital Federal,1,1,1,0,Lun. a Vie. 10:00hs a 18:00hs ,Sáb. 10:00hs a 14:00hs ,,-34.595909,-58.389225
5655,8749270,DE TODO 24 PUEYRREDON 2,AV. PUEYRREDON 1357 L 66,RECOLETA,Capital Federal,0,1,1,0,Lun. a Vie. 09:00hs a 18:00hs ,,,-34.595056,-58.40241
