IDSUCURSAL,NRO_AGENTE_PF,NOMBRE,DIRECCION,LOCALIDAD,PROVINCIA,WESTERN_UNION,ENVIO_NACIONAL,PAGO_FACTURAS,RECARGA_FACIL,HS_LAV,HS_SABADO,HS_DOMINGO,LATITUD,LONGITUD
28,5149489,FARMACIA TIRONE,AV. H.YRIGOYEN 2961,JOSE CLEMENTE PAZ,Buenos Aires,1,1,1,0,Lun. a Vie. 08:30hs a 13:00hs y 15:30hs a 20:00hs,Sáb. 08:30hs a 13:00hs y 16:00hs a 20:00hs,,-34.52471629,-58.76298994
293,9902069,CORREO JOSE C.PAZ,ROQUE SAENZ PENA 5009,JOSE CLEMENTE PAZ,Buenos Aires,1,0,1,0,Lun. a Vie. 10:00hs a 18:00hs ,,,-34.52322322,-58.75229212
1772,11849076,FARMACIA VIEJA DEL PUEBLO,AV. H. YRIGOYEN 1861,JOSE CLEMENTE PAZ,Buenos Aires,0,1,1,0,Lun. a Vie. 09:00hs a 12:00hs y 16:00hs a 20:00hs,,,-34.52012052,-58.75288339
1832,10249565,AGENCIA EL REY DE LA SUERTE 5,PINERO 977,JOSE CLEMENTE PAZ,Buenos Aires,0,1,1,0,Lun. a Vie. 08:00hs a 20:00hs ,Sáb. 08:00hs a 20:00hs ,,-34.50754941,-58.74926233
2243,11849139,FARMACIA BERTINI,PUEYRREDON 2010,JOSE CLEMENTE PAZ,Buenos Aires,1,1,1,0,Lun. a Vie. 09:00hs a 13:00hs y 17:00hs a 20:00hs,,,-34.527147,-58.747802
2379,11449044,MULTIVENTAS JU I,AV. H. YRIGOYEN 2550 LOC 11,JOSE CLEMENTE PAZ,Buenos Aires,1,1,1,0,Lun. a Vie. 08:00hs a 13:00hs y 15:00hs a 19:00hs,Sáb. 08:00hs a 13:00hs y 15:00hs a 19:00hs,,-34.522693,-58.760849
2383,11449045,MULTIVENTAS  JU II,H. YRIGOYEN 3700,JOSE CLEMENTE PAZ,Buenos Aires,1,1,1,0,Lun. a Vie. 09:00hs a 17:00hs ,Sáb. 09:00hs a 13:00hs ,,-34.527241,-58.771422
2616,5319132,CARREFOUR MAXI (705),AV. H. YRIGOYEN 3750,JOSE CLEMENTE PAZ,Buenos Aires,0,0,1,0,Lun. a Vie. 06:00hs a 21:00hs ,Sáb. 06:00hs a 21:00hs ,Dom. 10:00hs a 20:00hs ,-34.527673,-58.772384
2429,6949415,LIBRERIA PRINCESA BONITA,MUNOZ 4301,JOSE CLEMENTE PAZ,Buenos Aires,1,1,1,0,Lun. a Vie. 09:00hs a 21:00hs ,Sáb. 08:00hs a 21:00hs ,,-34.519667,-58.737182
3192,12049678,EL TUNEL II,FLORIDA  1543,JOSE CLEMENTE PAZ,Buenos Aires,1,1,1,0,Lun. a Vie. 00:00hs a 23:55hs ,,,-34.506597,-58.76124
3057,10249729,AGENCIA EL REY DE LA SUERTE 17,H. YRIGOYEN 292,JOSE CLEMENTE PAZ,Buenos Aires,1,1,1,0,Lun. a Vie. 08:00hs a 20:00hs ,,,-34.511233,-58.733716
3088,10249737,AGENCIA EL REY DE LA SUERTE 19,AV. PTE PERON 4409,JOSE CLEMENTE PAZ,Buenos Aires,0,1,1,0,Lun. a Vie. 08:00hs a 20:00hs ,Sáb. 08:00hs a 20:00hs ,,-34.449651,-58.796936
3590,10249830,AGENCIA CROACIA,CROACIA 1854,JOSE CLEMENTE PAZ,Buenos Aires,0,1,1,0,Lun. a Vie. 09:00hs a 18:00hs ,Sáb. 09:00hs a 18:00hs ,,-34.515869,-58.793336
4218,8749176,CENTRO SERVICIO JOSE C PAZ,GELLY Y OBES 4896,JOSE CLEMENTE PAZ,Buenos Aires,1,1,1,0,Lun. a Vie. 09:00hs a 18:00hs ,,,-34.523401,-58.750999
3983,12449056,MAXIKIOSKO EL TUNEL III,GIRONDO 1715,JOSE CLEMENTE PAZ,Buenos Aires,1,1,1,0,Lun. a Vie. 08:00hs a 20:00hs ,Sáb. 08:00hs a 20:00hs ,,-34.517891,-58.752138
4731,12349053,TELECENTRO,GASPAR CAMPOS 5297,JOSE CLEMENTE PAZ,Buenos Aires,1,0,1,0,Lun. a Vie. 08:30hs a 13:00hs y 16:30hs a 19:00hs,,,-34.533764,-58.74591
4625,12449239,EL 32,IRIGOYEN 15,JOSE CLEMENTE PAZ,Buenos Aires,0,1,1,0,Lun. a Vie. 09:00hs a 20:00hs ,Sáb. 09:00hs a 20:00hs ,Dom. 09:00hs a 20:00hs ,-34.509272,-58.728553
5034,8149418,SEGUROS ZEPPE,AV. PTE PERON 4508,JOSE CLEMENTE PAZ,Buenos Aires,0,0,1,0,Lun. a Vie. 09:00hs a 12:00hs y 15:00hs a 18:00hs,,,-34.520324,-58.741816
5736,8149553,ORGANIZACION NOTO JCP,CROACIA 77,JOSE CLEMENTE PAZ,Buenos Aires,0,1,1,0,Lun. a Vie. 09:00hs a 19:00hs ,,,-34.529398,-58.780399
5744,8159520,AGL SEGUROS DRAGO,BRUGHETTI 1925,JOSE CLEMENTE PAZ,Buenos Aires,0,0,1,0,Lun. a Vie. 09:00hs a 18:00hs ,,,-34.508162,-58.774977
5122,8159267,AGL SEGUROS FILIPPELLI,AV. GASPAR CAMPOS 6493,JOSE CLEMENTE PAZ,Buenos Aires,0,0,1,0,Lun. a Vie. 08:30hs a 12:30hs y 15:00hs a 18:30hs,,,-34.523337,-58.755773
5275,8159334,AGL SEGUROS BORDA,PRESIDENTE PERON 5049,JOSE CLEMENTE PAZ,Buenos Aires,0,0,1,0,Lun. a Vie. 09:00hs a 18:00hs ,Sáb. 09:00hs a 13:00hs ,,-34.517036,-58.746574
5283,8159335,AGL SEGUROS AYALA,AV CROACIA 561 PB,JOSE CLEMENTE PAZ,Buenos Aires,0,0,1,0,Lun. a Vie. 09:00hs a 18:00hs ,,,-34.526214,-58.783537
5381,8159382,AGL SEGUROS MERLINO,JOSE C. PAZ 2130,JOSE CLEMENTE PAZ,Buenos Aires,0,0,1,0,Lun. a Vie. 09:00hs a 12:30hs y 15:00hs a 19:00hs,Sáb. 09:00hs a 12:30hs ,,-34.522645,-58.755107
