IDSUCURSAL,NRO_AGENTE_PF,NOMBRE,DIRECCION,LOCALIDAD,PROVINCIA,WESTERN_UNION,ENVIO_NACIONAL,PAGO_FACTURAS,RECARGA_FACIL,HS_LAV,HS_SABADO,HS_DOMINGO,LATITUD,LONGITUD
7,5149044,FARMACIA ORLOWSKI,AV. DEL LIBERTADOR Y CHILE,MORENO,Buenos Aires,0,1,1,0,Lun. a Vie. 09:00hs a 13:00hs y 16:30hs a 18:30hs,Sáb. 09:00hs a 13:00hs ,,-34.633259,-58.782379
36,5149518,FARMACIA ALTOS DE MORENO,AV. LIBERTADOR 299,MORENO,Buenos Aires,0,1,1,0,Lun. a Vie. 08:00hs a 20:00hs ,Sáb. 08:00hs a 20:00hs ,,-34.646946,-58.789634
294,9902070,CORREO MORENO,BARTOLOME MITRE 2402,MORENO,Buenos Aires,1,0,1,0,Lun. a Vie. 10:00hs a 18:00hs ,,,-34.650511,-58.784491
1460,90003035,CHANGO MAS MORENO (WAL MART),AV. ROCA Y SANTOS DUMONT LOC 4,MORENO,Buenos Aires,1,1,1,0,Lun. a Vie. 08:00hs a 22:00hs ,Sáb. 08:00hs a 22:00hs ,Dom. 08:00hs a 22:00hs ,-34.588879,-58.74297
1491,6749062,FERRETERIA VICTOR HUGO,RUTA 24 NRO 9377,MORENO,Buenos Aires,1,1,1,0,Lun. a Vie. 08:00hs a 13:00hs y 15:00hs a 20:00hs,Sáb. 08:00hs a 13:00hs y 15:00hs a 20:00hs,,-34.54831033,-58.81258933
1231,5149878,FARMACIA RONIFE,H. YRIGOYEN 1471,MORENO,Buenos Aires,0,1,1,0,Lun. a Vie. 08:30hs a 13:30hs y 16:00hs a 20:00hs,Sáb. 09:00hs a 14:00hs ,,-34.654608,-58.79926
1244,7049524,MAXIKIOSCO LOS 3 CHIFLADOS,CRISOLOGO LARRALDE 792,MORENO,Buenos Aires,0,1,1,0,Lun. a Vie. 09:30hs a 13:00hs y 17:00hs a 19:00hs,,,-34.64531233,-58.80198
1759,7849032,INDABURU PROPIEDADES,BELGRANO 243,MORENO,Buenos Aires,1,1,1,0,Lun. a Vie. 08:30hs a 20:00hs ,Sáb. 09:00hs a 13:00hs ,,-34.64828214,-58.78715171
2018,90001085,C.S. CARREFOUR MORENO,ALEJANDRO GRAHAM BELL 2350,MORENO,Buenos Aires,1,1,1,0,Lun. a Vie. 09:00hs a 21:00hs ,Sáb. 09:00hs a 21:00hs ,,-34.63398,-58.764809
1838,11849092,FARMACIA CENTRAL GAONA,AV. GAONA 5861,MORENO,Buenos Aires,0,1,1,0,Lun. a Vie. 09:00hs a 17:00hs ,Sáb. 09:00hs a 17:00hs ,,-34.634871,-58.786121
2528,5319164,CARREFOUR EXPRESS (0467),BOULEVARD A. ALCORTA 2854,MORENO,Buenos Aires,0,0,1,0,Lun. a Vie. 08:00hs a 22:00hs ,Sáb. 08:00hs a 22:00hs ,Dom. 11:00hs a 20:00hs ,-34.650417,-58.791145
2876,12049523,SUPERKIOSCO IBIZA,ESPANA 184,MORENO,Buenos Aires,1,1,1,0,Lun. a Vie. 09:00hs a 18:00hs ,Sáb. 08:30hs a 19:00hs ,,-34.648231,-58.789435
2943,5449423,LA CARLOTA DECO,RUTA 25 NRO 2515,MORENO,Buenos Aires,1,1,1,0,Lun. a Vie. 08:00hs a 12:00hs y 14:00hs a 18:00hs,Sáb. 08:00hs a 13:00hs ,,-34.610588,-58.813055
2946,12049564,MAXIKIOSCO PLAY I,JOLY 2716,MORENO,Buenos Aires,0,1,1,0,Lun. a Vie. 09:00hs a 19:00hs ,Sáb. 09:00hs a 19:00hs ,,-34.652036,-58.789738
2947,12049565,MAXIKIOSCO PLAY II,PIOVANO 2912,MORENO,Buenos Aires,0,1,1,0,Lun. a Vie. 09:00hs a 19:00hs ,Sáb. 09:00hs a 19:00hs ,,-34.650199,-58.791939
3500,5320015,SUPERMAYORISTA VITAL MORENO,ACCESO OESTE Y CRUCE GRAHAM BELL,MORENO,Buenos Aires,0,0,1,0,Lun. a Vie. 07:00hs a 20:00hs ,Sáb. 07:00hs a 20:00hs ,,-34.63401,-58.791382
3280,11649323,CYBER LUNAET,AV. BME. MITRE 3004,MORENO,Buenos Aires,0,1,1,0,Lun. a Vie. 09:00hs a 18:00hs ,Sáb. 09:00hs a 18:00hs ,,-34.648693,-58.791166
3662,8159005,AGL SIERRA CONSULTORES,JOLY 2879,MORENO,Buenos Aires,0,0,1,0,Lun. a Vie. 09:00hs a 13:00hs y 16:00hs a 19:00hs,,,-34.651275,-58.791935
6714,,NSA AR CRUCE CASTELAR,AV. DEL LIBERTADOR  7459,MORENO,Buenos Aires,1,0,0,0,Lun. a Vie. 0830 A 2030,Sáb. 0830 A 2030,Dom. 0830 A 2030,-34.585571591837,-58.748448918367
6738,,NSA AR MORENO,AV. GAONA  5949,MORENO,Buenos Aires,1,0,0,0,Lun. a Vie. 0730 A 2300,Sáb. 0730 A 2300,Dom. 0900 A 1300 1500 A 2300,-34.635226,-58.786359
6739,,NSA AR MORENO - LAS PIEDRAS,NEMENCIO ALVAREZ  5020,MORENO,Buenos Aires,1,0,0,0,Lun. a Vie. 0800 A 2300,Sáb. 0800 A 2300,Dom. 0800 A 2300,-34.640133,-58.858379
6740,,NSA AR MORENO LA PERTA,ESPANA  199,MORENO,Buenos Aires,1,0,0,0,Lun. a Vie. 0800 A 2000,,,-34.626696,-58.772143
5009,8149402,CAM MORENO,CORNELIO SAAVEDRA 107 - LOCAL 7,MORENO,Buenos Aires,0,0,1,0,Lun. a Vie. 10:00hs a 17:30hs ,Sáb. 10:00hs a 13:00hs ,,-34.650887,-58.793706
5705,8749275,TRANSBORDO MORENO,CENTRO DE TRANSBORDO L. A43 UNIDAD 1,MORENO,Buenos Aires,1,1,1,0,Lun. a Vie. 08:00hs a 20:00hs ,Sáb. 08:00hs a 16:00hs ,,-34.650475,-58.789801
5733,8149552,ORGANIZACION NOTO MORENO,LIBERTADOR 7366,MORENO,Buenos Aires,0,1,1,0,Lun. a Vie. 09:00hs a 19:00hs ,,,-34.585926,-58.750273
5757,90001242,C.S. MORENO,BME MITRE 2425,MORENO,Buenos Aires,1,1,1,0,Lun. a Vie. 09:00hs a 18:00hs ,Sáb. 09:00hs a 12:30hs ,,-34.650249,-58.785211
6000,8149614,CANDA MORENO,TUCUMAN 252,MORENO,Buenos Aires,0,1,1,0,Lun. a Vie. 09:00hs a 17:00hs ,,,-34.646736,-58.7941
5322,8159342,AGL SEGUROS BUSTOS ZOBRA,TUCUMAN 345,MORENO,Buenos Aires,0,0,1,0,Lun. a Vie. 09:00hs a 19:00hs ,,,-34.617678,-58.906595
6063,8149641,ORGANIZACION MENDOZA,DR ASCONAPE 333/327,MORENO,Buenos Aires,0,1,1,0,Lun. a Vie. 09:00hs a 18:00hs ,,,-34.654198,-58.792037
6070,8149642,ATM MORENO,JOLY 2689,MORENO,Buenos Aires,1,1,1,0,Lun. a Vie. 09:30hs a 13:00hs y 15:00hs a 19:00hs,Sáb. 10:00hs a 13:00hs ,,-34.652,-58.789364
4897,12449283,SUPERKIOSCO URUGUAY,URUGUAY 159,MORENO,Buenos Aires,0,1,1,0,Lun. a Vie. 09:00hs a 18:00hs ,,,-34.649174,-58.786851
5654,8149536,SEGUROS NOTO DANIELA,AV VICTORICA 591,MORENO,Buenos Aires,0,1,1,0,Lun. a Vie. 09:00hs a 13:00hs y 15:00hs a 19:00hs,,,-34.641642,-58.794316
