IDSUCURSAL,NRO_AGENTE_PF,NOMBRE,DIRECCION,LOCALIDAD,PROVINCIA,WESTERN_UNION,ENVIO_NACIONAL,PAGO_FACTURAS,RECARGA_FACIL,HS_LAV,HS_SABADO,HS_DOMINGO,LATITUD,LONGITUD
88,8104001,EL SURCO,AV. DE MAYO 701 PISO 19,MONSERRAT,Capital Federal,0,0,1,0,Lun. a Vie. 08:00hs a 18:00hs ,,,-34.608728,-58.376469
108,11149028,ESTUDIO POLICREDITO,PIEDRAS 77 PISO 11,MONSERRAT,Capital Federal,0,1,1,0,Lun. a Vie. 09:30hs a 18:00hs ,,,-34.60919517,-58.37787692
111,90001013,C.S. PERU,PERU 139,MONSERRAT,Capital Federal,1,1,1,0,Lun. a Vie. 09:00hs a 18:00hs ,Sáb. 09:00hs a 12:30hs ,,-34.60976129,-58.37500718
273,9902047,CORREO MONSERRAT,AV. ENTRE RIOS 452,MONSERRAT,Capital Federal,1,0,1,0,Lun. a Vie. 10:00hs a 18:00hs ,,,-34.61434259,-58.39153953
888,8949143,TELECENTRO LIMA,LIMA 625,MONSERRAT,Capital Federal,0,1,1,0,Lun. a Vie. 09:30hs a 19:30hs ,Sáb. 10:30hs a 19:00hs ,,-34.61559439,-58.38162745
1836,11849090,FARMACIA SOY MAGA SOY FARMA,AV. DE MAYO 892-900,MONSERRAT,Capital Federal,0,1,1,0,Lun. a Vie. 09:00hs a 18:00hs ,,,-34.60895596,-58.3791269
2649,5319183,CARREFOUR EXPRESS (0488),AV. BELGRANO 1562,MONSERRAT,Capital Federal,0,0,1,0,Lun. a Vie. 08:00hs a 22:00hs ,Sáb. 08:00hs a 22:00hs ,Dom. 11:00hs a 20:00hs ,-34.613622,-58.388392
2494,5319242,CARREFOUR EXPRESS (0571),TACUARI 89,MONSERRAT,Capital Federal,0,0,1,0,Lun. a Vie. 08:00hs a 22:00hs ,Sáb. 08:00hs a 22:00hs ,Dom. 11:00hs a 20:00hs ,-34.609384,-58.379173
2505,5319253,CARREFOUR EXPRESS (0583),AV. DE MAYO 1241,MONSERRAT,Capital Federal,0,0,1,0,Lun. a Vie. 08:00hs a 22:00hs ,Sáb. 08:00hs a 22:00hs ,Dom. 11:00hs a 20:00hs ,-34.609209,-58.384005
2514,5319259,CARREFOUR EXPRESS (0589),PERU 487,MONSERRAT,Capital Federal,0,0,1,0,Lun. a Vie. 08:00hs a 22:00hs ,Sáb. 08:00hs a 22:00hs ,Dom. 11:00hs a 20:00hs ,-34.613654,-58.374699
2519,5319263,CARREFOUR EXPRESS (0593),AV. ENTRE RIOS 1192,MONSERRAT,Capital Federal,0,0,1,0,Lun. a Vie. 08:00hs a 22:00hs ,Sáb. 08:00hs a 22:00hs ,Dom. 11:00hs a 20:00hs ,-34.622648,-58.391479
2826,5319077,CARREFOUR EXPRESS (0363),INDEPENDENCIA 1833,MONSERRAT,Capital Federal,0,0,1,0,Lun. a Vie. 08:00hs a 22:00hs ,Sáb. 08:00hs a 22:00hs ,Dom. 11:00hs a 20:00hs ,-34.618111,-58.392184
2969,5319324,CARREFOUR EXPRESS (663),ALSINA 725,MONSERRAT,Capital Federal,0,0,1,0,Lun. a Vie. 07:30hs a 21:30hs ,Sáb. 09:30hs a 21:30hs ,,-34.610428,-58.376564
2983,5319337,CARREFOUR EXPRESS (684),MEXICO 1530,MONSERRAT,Capital Federal,0,0,1,0,Lun. a Vie. 08:30hs a 22:00hs ,Sáb. 08:30hs a 22:00hs ,Dom. 11:00hs a 20:00hs ,-34.615549,-58.387935
2728,5319298,CARREFOUR EXPRESS (0633),BOLIVAR 270,MONSERRAT,Capital Federal,0,0,1,0,Lun. a Vie. 08:00hs a 22:00hs ,Sáb. 08:00hs a 22:00hs ,Dom. 11:00hs a 20:00hs ,-34.611072,-58.373385
2729,5319299,CARREFOUR EXPRESS (0634),MORENO 1401,MONSERRAT,Capital Federal,0,0,1,0,Lun. a Vie. 08:00hs a 22:00hs ,Sáb. 08:00hs a 22:00hs ,Dom. 11:00hs a 20:00hs ,-34.612261,-58.386196
2754,5319316,CARREFOUR EXPRESS (0654),H. YRIGOYEN 1790,MONSERRAT,Capital Federal,0,0,1,0,Lun. a Vie. 08:00hs a 22:00hs ,Sáb. 08:00hs a 22:00hs ,Dom. 11:00hs a 20:00hs ,-34.610307,-58.391714
2760,5319013,CARREFOUR EXPRESS (0291),PIEDRAS 383,MONSERRAT,Capital Federal,0,0,1,0,Lun. a Vie. 08:00hs a 22:00hs ,Sáb. 08:00hs a 22:00hs ,Dom. 11:00hs a 20:00hs ,-34.612654,-58.377571
3078,12049619,DRUGSTORE RK,MEXICO 1902,MONSERRAT,Capital Federal,1,1,1,0,Lun. a Vie. 09:00hs a 19:00hs ,,,-34.615826,-58.393201
3085,10249735,AGENCIA LA TABA,AV. DE MAYO 689,MONSERRAT,Capital Federal,1,1,1,0,Lun. a Vie. 09:00hs a 19:00hs ,Sáb. 09:00hs a 19:00hs ,,-34.608678,-58.376214
4172,8749173,ARGENTEL,AV. ENTRE RIOS 121,MONSERRAT,Capital Federal,1,1,1,0,Lun. a Vie. 09:00hs a 19:00hs ,Sáb. 09:00hs a 14:00hs ,,-34.610603,-58.391893
4387,11449074,INFO PARTES,MORENO 1127,MONSERRAT,Capital Federal,0,1,1,0,Lun. a Vie. 09:30hs a 18:30hs ,,,-34.611823,-58.382469
4507,12449202,TOTAL PAYMENT OPEN AV. DE MAYO,AV. DE MAYO 698,MONSERRAT,Capital Federal,1,1,1,0,Lun. a Vie. 10:00hs a 19:00hs ,,,-34.60881,-58.376271
6194,,CORREO CASA GOBIERNO  (SIN ATENCI¿ AL P¿LICO),BALCARCE 24,MONSERRAT,Capital Federal,1,0,0,0,Lun. a Vie. 1000 A 1800,,,-34.608285265306,-58.370855387755
6459,,CORREO MINISTERIO DE ECONOMIA (SIN ATENCI¿ AL P¿,HIPOLITO IRIGOYEN  250,MONSERRAT,Capital Federal,1,0,0,0,Lun. a Vie. 1000 A 1600,,,-34.609079346939,-58.370178755102
5013,7502004,PUERTO VIRTUAL ENTRE RIOS 1,AV ENTRE RIOS 1021,MONSERRAT,Capital Federal,1,1,1,0,Lun. a Vie. 09:00hs a 19:00hs ,Sáb. 08:30hs a 14:30hs ,,-34.620498,-58.391656
5706,8159505,AGL ATM IRIGOYEN,B.IRIGOYEN 162,MONSERRAT,Capital Federal,0,0,1,0,Lun. a Vie. 10:00hs a 17:00hs ,,,-34.637098,-58.505377
5329,8649087,MORENO EXPRESS,MORENO 952,MONSERRAT,Capital Federal,1,1,1,0,Lun. a Vie. 09:00hs a 17:00hs ,Sáb. 09:00hs a 16:00hs ,,-34.61181,-58.379776
4969,7504001,PUERTO VIRTUAL ENTRE RIOS 3,AV ENTRE RIOS 710,MONSERRAT,Capital Federal,1,1,1,0,Lun. a Vie. 10:00hs a 18:00hs ,Sáb. 08:00hs a 14:00hs ,,-34.616987,-58.391637
