IDSUCURSAL,NRO_AGENTE_PF,NOMBRE,DIRECCION,LOCALIDAD,PROVINCIA,WESTERN_UNION,ENVIO_NACIONAL,PAGO_FACTURAS,RECARGA_FACIL,HS_LAV,HS_SABADO,HS_DOMINGO,LATITUD,LONGITUD
387,9902172,CORREO CENTRAL ROSARIO,CORDOBA 721,ROSARIO,Santa Fe,1,0,1,0,Lun. a Vie. 08:00hs a 20:00hs ,,,-32.94757114,-60.63297951
478,9902274,CORREO ROSARIO - 2,CORDOBA 2401,ROSARIO,Santa Fe,1,0,1,0,Lun. a Vie. 09:00hs a 18:00hs ,,,-32.943284,-60.656034
481,9902277,CORREO ROSARIO - 15,PARAGUAY 818,ROSARIO,Santa Fe,1,0,1,0,Lun. a Vie. 09:00hs a 18:00hs ,,,-32.94566676,-60.64378512
483,9902279,CORREO ROSARIO - 9,AV. BAT.DE AYACUCHO 5516,ROSARIO,Santa Fe,1,0,1,0,Lun. a Vie. 09:00hs a 18:00hs ,,,-33.00075186,-60.63616586
484,9902280,CORREO ROSARIO - 12,MENDOZA 4588,ROSARIO,Santa Fe,1,0,1,0,Lun. a Vie. 09:00hs a 18:00hs ,,,-32.94302394,-60.6869471
485,9902281,CORREO ROSARIO - 16,AVELLANEDA 2215,ROSARIO,Santa Fe,1,0,1,0,Lun. a Vie. 09:00hs a 18:00hs ,,,-32.955907,-60.68324942
526,9902323,CORREO ROSARIO - 1,L. N. ALEM 1751,ROSARIO,Santa Fe,1,0,1,0,Lun. a Vie. 08:00hs a 18:00hs ,,,-32.95969912,-60.63108943
527,9902324,CORREO ROSARIO - 3,AV. CORRIENTES 1676,ROSARIO,Santa Fe,1,0,1,0,Lun. a Vie. 09:00hs a 18:00hs ,,,-32.95629978,-60.64502047
528,9902325,CORREO ROSARIO - 4,AV. OVIDIO LAGOS 182,ROSARIO,Santa Fe,1,0,1,0,Lun. a Vie. 09:00hs a 18:00hs ,,,-32.93500724,-60.65962261
529,9902326,CORREO ROSARIO - 5,AV. OVIDIO LAGOS 1199,ROSARIO,Santa Fe,1,0,1,0,Lun. a Vie. 09:00hs a 18:00hs ,,,-32.947189,-60.662597
530,9902327,CORREO ROSARIO - 6,AV. JUAN B. ALBERDI BIS 967,ROSARIO,Santa Fe,1,0,1,0,Lun. a Vie. 09:00hs a 18:00hs ,,,-32.91650962,-60.684634
531,9902328,CORREO ROSARIO - 8,GRAL.JOSE RONDEAU 1144,ROSARIO,Santa Fe,1,0,1,0,Lun. a Vie. 09:00hs a 18:00hs ,,,-32.90321271,-60.68951557
532,9902329,CORREO ROSARIO - 10,AV. MENDOZA 6365,ROSARIO,Santa Fe,1,0,1,0,Lun. a Vie. 09:00hs a 18:00hs ,,,-32.94013729,-60.70864002
533,9902330,CORREO ROSARIO - 11,ESPANA 898,ROSARIO,Santa Fe,1,0,1,0,Lun. a Vie. 09:00hs a 18:00hs ,,,-32.94602533,-60.64679553
534,9902331,CORREO ROSARIO - 13,BALCARCE 1651,ROSARIO,Santa Fe,1,0,1,0,Lun. a Vie. 07:15hs a 13:00hs ,,,-32.95433545,-60.65443084
535,9902332,CORREO ROSARIO - 14,ENTRE RIOS 3502,ROSARIO,Santa Fe,1,0,1,0,Lun. a Vie. 09:00hs a 18:00hs ,,,-32.977485,-60.648904
536,9902333,CORREO ROSARIO - 17,AV. EVA PERON 7003,ROSARIO,Santa Fe,1,0,1,0,Lun. a Vie. 09:00hs a 18:00hs ,,,-32.93246108,-60.71656455
537,9902334,CORREO ROSARIO - 18,AV. OVIDIO LAGOS 5501,ROSARIO,Santa Fe,1,0,1,0,Lun. a Vie. 09:00hs a 18:00hs ,,,-33.002092,-60.675421
220,5207078,AXION CAFFERATA (938),CAFFERATA 802,ROSARIO,Santa Fe,0,0,0,1,Lun. a Vie. 00:00hs a 24:00hs ,Sáb. 00:00hs a 24:00hs ,Dom. 00:00hs a 24:00hs ,-32.940624,-60.671102
221,5207079,AXION FISHERTON (428),AV. EVA PERON 8159,ROSARIO,Santa Fe,0,0,0,1,Lun. a Vie. 00:00hs a 24:00hs ,Sáb. 00:00hs a 24:00hs ,Dom. 00:00hs a 24:00hs ,-32.92859767,-60.73806067
223,5207082,AXION EL BOULEVARD (903),BOULEVARD AVELLANEDA 1698,ROSARIO,Santa Fe,0,0,0,1,Lun. a Vie. 00:00hs a 24:00hs ,Sáb. 00:00hs a 24:00hs ,Dom. 00:00hs a 24:00hs ,-32.94983712,-60.68175437
224,5207085,AXION OVIDIO LAGOS (908),CORDOBA 2790,ROSARIO,Santa Fe,0,0,0,1,Lun. a Vie. 00:00hs a 24:00hs ,Sáb. 00:00hs a 24:00hs ,Dom. 00:00hs a 24:00hs ,-32.94225947,-60.66120886
225,5207086,AXION ROSARIO SUR (914),BOULEVARD ORONO 6190,ROSARIO,Santa Fe,0,0,0,1,Lun. a Vie. 00:00hs a 24:00hs ,Sáb. 00:00hs a 24:00hs ,Dom. 00:00hs a 24:00hs ,-33.00927988,-60.66490053
886,7049171,MINISHOP FLORIDA,RICARDO NUNEZ 516,ROSARIO,Santa Fe,1,1,1,0,Lun. a Vie. 09:00hs a 13:00hs y 16:30hs a 20:00hs,Sáb. 09:30hs a 13:00hs y 16:30hs a 20:00hs,Dom. 10:30hs a 12:30hs ,-32.88459429,-60.69320371
1078,90017004,C.S. SHOPPING PALACE GARDEN ROSARIO,CORDOBA 1358-64,ROSARIO,Santa Fe,1,1,1,0,Lun. a Vie. 09:00hs a 20:30hs ,Sáb. 09:00hs a 20:00hs ,,-32.94576586,-60.64169243
1190,5349148,MINIMERCADO CASAPUEBLO,CORRIENTES 1292,ROSARIO,Santa Fe,0,1,1,0,Lun. a Vie. 08:00hs a 21:00hs ,Sáb. 08:30hs a 11:00hs ,,-32.95190051,-60.64391014
1205,5349159,MINIMERCADO MULTISERVICIOS,DIAZ VELEZ 155 BIS,ROSARIO,Santa Fe,1,1,1,0,Lun. a Vie. 09:00hs a 13:00hs y 16:00hs a 18:00hs,Sáb. 09:00hs a 13:00hs ,,-32.92750017,-60.6845965
913,10249181,AGENCIA DANI,CORRIENTES 3401,ROSARIO,Santa Fe,0,0,1,0,Lun. a Vie. 08:00hs a 13:00hs y 16:30hs a 20:30hs,,,-32.976114,-60.6499
985,5449301,ARTICULOS DEL HOGAR PROVEEDURIA TOTAL,OVIDIO LAGOS 4865,ROSARIO,Santa Fe,0,1,1,0,Lun. a Vie. 08:30hs a 13:00hs y 17:00hs a 20:30hs,Sáb. 09:00hs a 13:00hs ,,-32.99446225,-60.67391833
1011,5207100,AXION LA BANDERA (964),SAN MARTIN 1983,ROSARIO,Santa Fe,0,0,0,1,Lun. a Vie. 00:00hs a 24:00hs ,Sáb. 00:00hs a 24:00hs ,Dom. 00:00hs a 24:00hs ,-32.96084094,-60.63993727
1352,6149211,AUTOSERVICIO CACHO,ITUZAINGO 5376,ROSARIO,Santa Fe,1,1,1,0,Lun. a Vie. 08:30hs a 13:00hs y 17:30hs a 20:00hs,Sáb. 08:30hs a 13:00hs y 17:30hs a 20:00hs,,-32.95175,-60.696441
1234,8949333,TELECENTRO 27,AV. SAN MARTIN 2647,ROSARIO,Santa Fe,1,1,1,0,Lun. a Vie. 08:00hs a 18:30hs ,,,-32.96846712,-60.64193376
1266,8949353,TRIBECA,MENDOZA 985,ROSARIO,Santa Fe,0,1,1,0,Lun. a Vie. 08:00hs a 20:30hs ,,,-32.9518046,-60.6376584
1278,6401004,CAJA MUTUAL SAN CRISTOBAL IV,MENDOZA 4001,ROSARIO,Santa Fe,0,0,1,0,Lun. a Vie. 08:00hs a 13:00hs ,,,-32.944525,-60.679093
1342,8949397,TELECENTRO MAYORCA,MONTEVIDE0 1707 PB,ROSARIO,Santa Fe,0,1,1,0,Lun. a Vie. 08:00hs a 22:00hs ,Sáb. 08:00hs a 22:00hs ,,-32.95469141,-60.6490499
1699,7049971,DRUGSTORE JUNIN,JUNIN 1971,ROSARIO,Santa Fe,0,1,1,0,Lun. a Vie. 09:00hs a 20:00hs ,Sáb. 09:00hs a 20:00hs ,,-32.92705271,-60.69080486
1755,9449018,VIRTUAL IMPRESIONES,CORDOBA 3160,ROSARIO,Santa Fe,1,1,1,0,Lun. a Vie. 09:00hs a 18:00hs ,,,-32.94135724,-60.66627559
1783,7549780,EL GAUCHITO,BOULEVARD SEGUI 1273,ROSARIO,Santa Fe,0,1,1,0,Lun. a Vie. 09:00hs a 13:00hs y 16:00hs a 20:30hs,Sáb. 09:00hs a 13:00hs y 16:00hs a 20:30hs,,-32.978513,-60.648719
1564,8949452,ANSICO CENTER,PARAGUAY 1441,ROSARIO,Santa Fe,1,1,1,0,Lun. a Vie. 10:00hs a 17:30hs ,Sáb. 09:00hs a 12:30hs ,,-32.953252,-60.645688
1569,8949453,TELECENTRO ARIJON,ARIJON 1686,ROSARIO,Santa Fe,1,1,1,0,Lun. a Vie. 08:00hs a 13:00hs y 15:00hs a 20:00hs,Sáb. 08:00hs a 13:00hs ,,-33.00329729,-60.65736314
1570,8949454,TELECENTRO SEGUI,BOULEVARD SEGUI 1902,ROSARIO,Santa Fe,1,1,1,0,Lun. a Vie. 08:00hs a 13:00hs y 15:00hs a 20:00hs,Sáb. 08:00hs a 13:00hs ,,-32.977167,-60.657461
1571,8949455,TELECENTRO GODOY,PTE. PERON 3635,ROSARIO,Santa Fe,1,1,1,0,Lun. a Vie. 08:00hs a 13:00hs y 15:30hs a 20:30hs,Sáb. 09:00hs a 13:00hs ,,-32.95694829,-60.67695822
1989,8149219,SEGURO METAL,EVA PERON 4861,ROSARIO,Santa Fe,1,1,1,0,Lun. a Vie. 08:00hs a 13:00hs y 15:00hs a 19:00hs,Sáb. 08:00hs a 14:00hs ,,-32.93729908,-60.68944198
2007,10249611,REC012 AGENCIA GENOVA,AV. GENOVA 1001,ROSARIO,Santa Fe,0,1,1,0,Lun. a Vie. 09:00hs a 13:00hs y 15:00hs a 18:00hs,Sáb. 09:00hs a 13:00hs ,,-32.915056,-60.677842
2059,90001104,C.S. CARREFOUR ROSARIO CENTRO,AV. PELLEGRINI 3250,ROSARIO,Santa Fe,1,1,1,0,Lun. a Vie. 10:00hs a 19:00hs ,Sáb. 10:00hs a 13:00hs ,,-32.95192237,-60.6702262
2061,90001106,C.S. CARREFOUR ROSARIO FISHERTON,AV. CIRCUNVALACION 1977 BIS,ROSARIO,Santa Fe,1,1,1,0,Lun. a Vie. 09:00hs a 20:30hs ,Sáb. 09:00hs a 17:00hs ,,-32.908601,-60.726103
2062,90001107,C.S. CARREFOUR ROSARIO PUEYRREDON,PUEYRREDON 747,ROSARIO,Santa Fe,1,1,1,0,Lun. a Vie. 09:00hs a 20:00hs ,Sáb. 09:00hs a 17:00hs ,,-32.9423,-60.6571
2063,90001108,C.S. CARREFOUR ROSARIO SUR,NECOCHEA 2579,ROSARIO,Santa Fe,1,1,1,0,Lun. a Vie. 10:00hs a 15:30hs y 16:30hs a 19:00hs,Sáb. 10:00hs a 14:00hs ,,-32.96985439,-60.6293339
1813,6449236,MUTUAL 23 DE JULIO,SAN MARTIN 2383,ROSARIO,Santa Fe,0,1,1,0,Lun. a Vie. 08:00hs a 17:00hs ,Sáb. 09:00hs a 13:00hs ,,-32.96543329,-60.64106896
2298,90001180,C.S. CARREFOUR ROSARIO VILLAGE,EVA PERON 5856,ROSARIO,Santa Fe,1,1,1,0,Lun. a Vie. 10:00hs a 19:00hs ,Sáb. 10:00hs a 14:00hs ,,-32.9348,-60.7031
2367,11649304,CIBERESPACIO,JUAN JOSE PASO 5518,ROSARIO,Santa Fe,0,1,1,0,Lun. a Vie. 10:00hs a 20:00hs ,Sáb. 10:00hs a 20:00hs ,,-32.919758,-60.6993303
2407,8021002,VITACOM MI RECARGA MCM (002),CORDOBA 2035,ROSARIO,Santa Fe,0,0,1,0,Lun. a Vie. 09:00hs a 18:00hs ,Sáb. 09:00hs a 18:00hs ,,-32.94414,-60.651145
2210,8118029,COREFIN (ROSARIO),CORDOBA 1120,ROSARIO,Santa Fe,0,0,1,0,Lun. a Vie. 09:00hs a 19:30hs ,Sáb. 09:30hs a 13:00hs ,,-32.94636761,-60.63841969
2425,8118040,COREFIN (ROSARIO II),AV. SAN MARTIN 5224,ROSARIO,Santa Fe,0,0,1,0,Lun. a Vie. 09:00hs a 13:00hs y 16:00hs a 20:00hs,Sáb. 09:00hs a 13:00hs ,,-32.997851,-60.648235
2439,12049453,MAXIKIOSCO MARTINEZ,SAN JUAN 788,ROSARIO,Santa Fe,0,1,1,0,Lun. a Vie. 08:30hs a 18:00hs ,Sáb. 08:30hs a 18:00hs ,,-32.950902,-60.634826
2479,8949536,TELECENTRO FLORIDA,IRIGOYEN 801,ROSARIO,Santa Fe,0,1,1,0,Lun. a Vie. 08:30hs a 13:00hs y 16:00hs a 20:00hs,Sáb. 09:00hs a 13:00hs y 16:30hs a 20:30hs,,-32.884408,-60.695783
2483,10249682,AGENCIA LOTERIA MAGO,ENTRE RIOS 2290,ROSARIO,Santa Fe,1,1,1,0,Lun. a Vie. 08:30hs a 20:30hs ,Sáb. 08:30hs a 20:30hs ,,-32.963464,-60.645332
2509,9849114,MINIMARKET DANDIE,BV. SEGUI 895-897,ROSARIO,Santa Fe,1,1,1,0,Lun. a Vie. 08:30hs a 20:30hs ,Sáb. 09:00hs a 17:00hs ,,-32.979746,-60.643591
2865,12049522,AGENCIA DE LOTERIA PALENA,WILDE 844 LOC 419,ROSARIO,Santa Fe,0,1,1,0,Lun. a Vie. 06:00hs a 13:30hs ,,,-32.93813,-60.738582
2887,10249700,AGENCIA DUQUE,ANDRADE 1024,ROSARIO,Santa Fe,0,1,1,0,Lun. a Vie. 10:00hs a 12:00hs y 17:00hs a 19:00hs,,,-32.995597,-60.648101
2918,10249704,AGENCIA BONINO,ITALIA 2904,ROSARIO,Santa Fe,0,1,1,0,Lun. a Vie. 08:00hs a 12:00hs y 16:00hs a 19:00hs,,,-32.969521,-60.654255
2958,7149026,COPY.AR,PJE ARAYA 981,ROSARIO,Santa Fe,1,1,1,0,Lun. a Vie. 09:00hs a 17:45hs ,,,-32.950741,-60.6665
3142,10249751,KUSIKUSKA,BOLIVIA 658,ROSARIO,Santa Fe,0,1,1,0,Lun. a Vie. 09:00hs a 13:00hs y 16:30hs a 20:00hs,Sáb. 09:00hs a 13:00hs y 17:00hs a 20:00hs,,-32.935318,-60.714079
3146,12049662,EL PLANETA DE LOS SIMIOS,27 DE FEBRERO Y ALEM,ROSARIO,Santa Fe,1,1,1,0,Lun. a Vie. 09:00hs a 17:00hs ,,,-32.969215,-60.633549
3213,8149294,SEGUROS FRANCIA,AV. FRANCIA 3339,ROSARIO,Santa Fe,0,1,1,0,Lun. a Vie. 09:00hs a 13:00hs y 16:00hs a 20:00hs,Sáb. 09:00hs a 13:00hs ,,-32.971126,-60.673063
3216,10249767,JOKER,RIOJA 1930,ROSARIO,Santa Fe,0,1,1,0,Lun. a Vie. 09:00hs a 14:00hs ,,,-32.945466,-60.649992
3061,6449284,ASOC.MUT.INDEPENDENCIA FILIAL ROSARIO,URQUIZA 1362,ROSARIO,Santa Fe,0,1,1,0,Lun. a Vie. 00:00hs a 15:00hs ,,,-32.9423,-60.641015
3450,8021006,VITACOM ROSARIO MCM (006),AV. PELLEGRINI 440,ROSARIO,Santa Fe,0,0,1,0,Lun. a Vie. 09:30hs a 19:30hs ,,,-32.95894,-60.63135
3558,10249822,AGENCIA BEATRIZ,PUEYRREDON 45,ROSARIO,Santa Fe,0,1,1,0,Lun. a Vie. 09:00hs a 13:00hs y 16:00hs a 18:30hs,Sáb. 09:00hs a 12:00hs ,,-32.934257,-61.65509
3305,11649326,SKYN3T,PJE. TOMAS GUIDO 1585,ROSARIO,Santa Fe,0,1,1,0,Lun. a Vie. 09:00hs a 13:00hs y 14:00hs a 19:00hs,,,-32.946814,-60.698828
3340,6449298,MUT. DE INTEGRANTES DEL POD. JUDICIAL RO,MORENO 1442,ROSARIO,Santa Fe,0,0,1,0,Lun. a Vie. 08:00hs a 13:00hs ,,,-32.952128,-60.652568
3815,7149030,SERVICIOS INTEGRALES,RUEDA 1010,ROSARIO,Santa Fe,1,1,1,0,Lun. a Vie. 09:00hs a 14:00hs y 16:00hs a 19:00hs,Sáb. 09:00hs a 13:00hs ,,-32.971141,-60.643138
3819,6449319,ASOC.MUTUAL REGIONAL 5 DE SEPTIEMBRE,SAN LORENZO 916,ROSARIO,Santa Fe,0,1,1,0,Lun. a Vie. 09:00hs a 16:00hs ,,,-32.945212,-60.634983
3829,11949381,TODO SUELTO,CENTENO 1770,ROSARIO,Santa Fe,0,1,1,0,Lun. a Vie. 09:00hs a 13:00hs y 17:00hs a 19:30hs,Sáb. 09:00hs a 13:00hs ,,-32.983061,-60.657085
3620,8021007,VITACOM MCM - VICTORIA MALL (007),CORDOBA 1015 LOC 00-12,ROSARIO,Santa Fe,0,0,1,0,Lun. a Vie. 09:00hs a 18:00hs ,,,-32.946714,-60.636948
3621,8021008,VITACOM MCM - SHOPPONG PASEO (008),CORDOBA 1641 LOCAL 210,ROSARIO,Santa Fe,0,0,1,0,Lun. a Vie. 09:00hs a 18:00hs ,,,-32.945132,-60.645532
3622,8021009,VITACOM MCM - JUAN P MUIA (009),AV. DE LA PAZ 2679 LOC 01,ROSARIO,Santa Fe,0,0,1,0,Lun. a Vie. 09:00hs a 18:00hs ,,,-32.933973,-60.89424
3688,12049969,DUO MINIMARKET,3 DE FEBRERO 3564,ROSARIO,Santa Fe,0,1,1,0,Lun. a Vie. 12:00hs a 20:00hs ,Sáb. 09:00hs a 12:00hs ,,-32.946763,-60.673363
3691,11949346,LOS GRINGOS,JUNIN 5531,ROSARIO,Santa Fe,1,1,1,0,Lun. a Vie. 09:00hs a 13:00hs y 16:30hs a 20:30hs,Sáb. 09:00hs a 13:00hs y 16:30hs a 20:30hs,,-32.927238,-60.699459
3719,6449315,PAGUE TODO,SARMIENTO 750,ROSARIO,Santa Fe,1,1,1,0,Lun. a Vie. 09:00hs a 13:00hs y 16:00hs a 19:00hs,Sáb. 09:00hs a 13:00hs ,,-32.945793,-60.638094
4093,8749170,EMPALME LEE,GENOVA 6471,ROSARIO,Santa Fe,0,1,1,0,Lun. a Vie. 09:00hs a 19:00hs ,,,-32.916008,-60.711126
4227,12449130,GENESIS,VIRASORO 1308,ROSARIO,Santa Fe,0,1,1,0,Lun. a Vie. 08:30hs a 13:00hs y 15:30hs a 20:00hs,Sáb. 09:00hs a 13:00hs ,,-32.96936,-60.647054
3938,8149333,SEGUROS GENERALES AHUMADA,COCHABAMBA 6699,ROSARIO,Santa Fe,0,1,1,0,Lun. a Vie. 09:00hs a 13:00hs y 16:00hs a 20:00hs,Sáb. 09:00hs a 12:30hs ,,-32.949832,-60.7121
4395,12449182,INDUSTRIAS STARK,PTE.ROCA 1095,ROSARIO,Santa Fe,1,1,1,0,Lun. a Vie. 09:00hs a 17:00hs ,,,-32.9488,-60.645955
4443,8149365,GRUPO DV,CAFFERATA 1501,ROSARIO,Santa Fe,1,1,1,0,Lun. a Vie. 08:00hs a 12:00hs y 16:00hs a 20:00hs,Sáb. 08:00hs a 13:00hs ,,-32.949325,-60.673073
4240,6449338,PAGUE TODO II,SAN MARTIN 876 LOC 5,ROSARIO,Santa Fe,1,1,1,0,Lun. a Vie. 09:00hs a 12:00hs y 16:00hs a 19:00hs,,,-32.947555,-60.636909
4294,5949072,CASA FIUMARA AGENCIA DE LOTERIA,ARIJON 2102,ROSARIO,Santa Fe,1,1,1,0,Lun. a Vie. 08:00hs a 13:30hs y 16:00hs a 20:00hs,Sáb. 08:00hs a 13:30hs y 16:00hs a 20:00hs,,-33.003463,-60.663338
4297,12449145,TSUNAMI,ALSINA 1337,ROSARIO,Santa Fe,1,1,1,0,Lun. a Vie. 09:00hs a 13:00hs y 16:00hs a 19:00hs,,,-32.946389,-60.67809
4301,10249935,ANTO,AV. URIBURU 2679,ROSARIO,Santa Fe,1,1,1,0,Lun. a Vie. 08:00hs a 14:00hs y 16:00hs a 20:30hs,Sáb. 08:30hs a 20:30hs ,,-32.991656,-60.672053
4316,10249936,AGENCIA ORONO,BV.ORONO 5823,ROSARIO,Santa Fe,0,1,1,0,Lun. a Vie. 09:00hs a 13:00hs y 15:00hs a 19:00hs,,,-33.004829,-60.664605
4661,7649025,MARIA LA CONDENADA,MENDOZA 6034,ROSARIO,Santa Fe,0,1,1,0,Lun. a Vie. 08:00hs a 13:00hs y 16:30hs a 20:30hs,,,-32.939985,-60.705
4778,12449269,TEMSA,SOLIS 1671,ROSARIO,Santa Fe,1,1,1,0,Lun. a Vie. 08:00hs a 16:00hs ,,,-32.94799,-60.703029
4790,12449271,OLON,BARRA 1077,ROSARIO,Santa Fe,0,1,1,0,Lun. a Vie. 09:00hs a 13:00hs y 15:30hs a 19:30hs,,,-32.916137,-60.708125
4566,10349109,SERENDIPIA,MONTEVIDEO 2028,ROSARIO,Santa Fe,1,1,1,0,Lun. a Vie. 07:00hs a 17:00hs ,,,-32.953675,-60.65368
4635,12449242,DRUGSTORE SENTIR,ALGARROBO Y SAUCE,ROSARIO,Santa Fe,0,1,1,0,Lun. a Vie. 09:00hs a 19:00hs ,,,-32.958133,-60.645485
6752,,NSA AR ROSARIO - BOLETERIA 30,CAFERATTA  702 BOLETERIA 30,ROSARIO,Santa Fe,1,0,0,0,Lun. a Vie. 0830 A 2130,Sáb. 0830 A 2130,Dom. 0830 A 2130,-33.029449,-60.641144
5015,12649010,RICHI LOTERIAS,TUCUMAN 1794,ROSARIO,Santa Fe,1,1,1,0,Lun. a Vie. 08:30hs a 13:30hs y 17:30hs a 20:30hs,Sáb. 09:30hs a 14:00hs ,,-32.940019,-60.646684
5689,8159508,AGL GRUPO RIB SEGUROS,MITRE 845 PISO 1 OF 1,ROSARIO,Santa Fe,0,0,1,0,Lun. a Vie. 09:00hs a 13:00hs y 16:00hs a 19:00hs,,,-32.946719,-60.639658
5694,12449367,KIOSCO GENOVA I,AV GENOVA 2497,ROSARIO,Santa Fe,0,1,1,0,Lun. a Vie. 08:00hs a 19:00hs ,,,-32.915504,-60.69643
5049,8149427,MEDIN JOSE LUIS,AV.PROVINCIAS UNIDAS 2480,ROSARIO,Santa Fe,0,1,1,0,Lun. a Vie. 09:00hs a 12:30hs y 16:30hs a 19:30hs,,,-32.957788,-60.712053
5753,12649027,KIOSCO COCA III,VUELTA DE OBLIGADO 4765 LOCAL 2,ROSARIO,Santa Fe,0,1,1,0,Lun. a Vie. 09:00hs a 13:00hs y 16:00hs a 20:00hs,,,-32.992611,-60.662379
5794,8159531,AGL SEGUROS RUGGIERO,PARAGUAY 2086,ROSARIO,Santa Fe,0,0,1,0,Lun. a Vie. 09:00hs a 13:00hs y 16:00hs a 19:00hs,,,-32.960636,-60.647656
5836,8159568,AGL SEGUROS DEL GRANDE,AV EVA PERON 7794,ROSARIO,Santa Fe,0,0,1,0,Lun. a Vie. 08:30hs a 17:30hs ,,,-32.929724,-60.729565
5177,8159300,AGL SEGUROS ORGANIZACION CELIBERTI,OV. LAGOS 5717,ROSARIO,Santa Fe,0,0,1,0,Lun. a Vie. 08:00hs a 16:00hs ,,,-33.004085,-60.675979
5855,6449361,ASOCIACION MUTUAL ARGENTINA II,SARMIENTO 456,ROSARIO,Santa Fe,0,1,1,0,Lun. a Vie. 09:00hs a 17:00hs ,,,-32.942512,-60.637282
5884,8149582,ORGANIZACION COSENZA,LARREA 2898,ROSARIO,Santa Fe,1,1,1,0,Lun. a Vie. 10:00hs a 18:00hs ,,,-32.962402,-60.696389
5199,11949592,LA ISLA DE LA LIMPIEZA,3 DE FEBRERO 259,ROSARIO,Santa Fe,0,1,1,0,Lun. a Vie. 09:00hs a 13:30hs y 16:30hs a 19:00hs,,,-32.95489,-60.627924
5236,8159316,AGL SEGUROS GUALTIERI FABIANA,BV. RONDEAU 1497,ROSARIO,Santa Fe,0,0,1,0,Lun. a Vie. 09:00hs a 18:00hs ,,,-32.8992889,-60.691256
5941,11949625,TODO SUELTO LAGOS,OVIDIO LAGOS 3440,ROSARIO,Santa Fe,1,1,1,0,Lun. a Vie. 09:00hs a 13:30hs y 16:30hs a 20:00hs,Sáb. 09:00hs a 13:30hs y 16:30hs a 20:00hs,,-32.973119,-60.669194
5948,8149600,SAVATTINI SEGUROS 2,VILLA DEL PARQUE 3035,ROSARIO,Santa Fe,1,1,1,0,Lun. a Vie. 09:00hs a 12:30hs y 17:00hs a 20:00hs,,,-32.886545,-60.728082
5963,6449362,GESTION INTEGRAL DE COBRANZAS S.A.,TUCUMAN 1088,ROSARIO,Santa Fe,0,1,1,0,Lun. a Vie. 09:00hs a 12:00hs y 16:00hs a 20:00hs,,,-32.941864,-60.636777
6007,8159609,AGL PRODUCTOR TRIBUZI,PASCO 1531,ROSARIO,Santa Fe,0,0,1,0,Lun. a Vie. 09:00hs a 13:00hs y 16:00hs a 19:00hs,,,-32.958587,-60.647559
5351,8149474,ICONO S.R.L,ALBERTO J PAZ 1065 BIS,ROSARIO,Santa Fe,1,1,1,0,Lun. a Vie. 10:00hs a 18:00hs ,,,-32.918434,-60.77795
6029,8149627,ORGANIZACION GUTIERREZ,BV. RONDEAU 2007,ROSARIO,Santa Fe,1,1,1,0,Lun. a Vie. 09:00hs a 13:00hs y 17:00hs a 19:00hs,,,-32.894043,-60.693071
6068,12449399,GRANJA REFINERIA,VELEZ SARSFIELD 258,ROSARIO,Santa Fe,0,1,1,0,Lun. a Vie. 09:00hs a 18:00hs y 09:00hs a 18:00hs,,,-32.924586,-60.666597
6082,12449401,VIR Y LIO,URQUIZA 3532,ROSARIO,Santa Fe,0,1,1,0,Lun. a Vie. 09:00hs a 17:00hs ,Sáb. 09:00hs a 12:00hs ,,-32.937004,-60.670484
5504,8149493,M&M SEGUROS,24 DE SETIEMBRE 1389,ROSARIO,Santa Fe,1,1,1,0,Lun. a Vie. 09:30hs a 13:00hs y 15:30hs a 19:00hs,,,-32.9796,-60.650717
4881,6949561,JESED,JUAN MANUEL DE ROSAS 1062,ROSARIO,Santa Fe,1,1,1,0,Lun. a Vie. 09:00hs a 19:00hs ,,,-32.951126,-60.632135
4911,8149381,SAVATTINI SEGUROS,POLLEDO 2471,ROSARIO,Santa Fe,0,1,1,0,Lun. a Vie. 08:30hs a 12:30hs y 16:00hs a 19:00hs,Sáb. 09:30hs a 12:30hs ,,-32.892595,-60.720405
4938,6449348,ASOCIACION MUTUAL ARGENTINA,SAN LORENZO 1266 PB,ROSARIO,Santa Fe,1,0,1,0,Lun. a Vie. 09:00hs a 17:00hs ,,,-32.943649,-60.639873
