IDSUCURSAL,NRO_AGENTE_PF,NOMBRE,DIRECCION,LOCALIDAD,PROVINCIA,WESTERN_UNION,ENVIO_NACIONAL,PAGO_FACTURAS,RECARGA_FACIL,HS_LAV,HS_SABADO,HS_DOMINGO,LATITUD,LONGITUD
557,9902354,CORREO MAR DEL PLATA - 5,SARMIENTO 2702,MAR DEL PLATA,Buenos Aires,1,0,1,0,Lun. a Vie. 09:00hs a 17:00hs ,,,-38.012972,-57.542802
563,9902360,CORREO MAR DEL PLATA,LURO 2460,MAR DEL PLATA,Buenos Aires,1,0,1,0,Lun. a Vie. 08:00hs a 19:45hs ,,,-37.99970057,-57.54426994
203,5207061,AXION EL GAUCHO (918),AV.JUAN B. JUSTO 6065,MAR DEL PLATA,Buenos Aires,0,0,0,1,Lun. a Vie. 00:00hs a 24:00hs ,Sáb. 00:00hs a 24:00hs ,Dom. 00:00hs a 24:00hs ,-38.00042586,-57.59552745
204,5207063,AXION JARA (941),AV. COLON 5002,MAR DEL PLATA,Buenos Aires,0,0,0,1,Lun. a Vie. 00:00hs a 24:00hs ,Sáb. 00:00hs a 24:00hs ,Dom. 00:00hs a 24:00hs ,-37.991594,-57.573798
209,5207065,AXION MORENO (934),MORENO 3151,MAR DEL PLATA,Buenos Aires,0,0,0,1,Lun. a Vie. 00:00hs a 24:00hs ,Sáb. 00:00hs a 24:00hs ,Dom. 00:00hs a 24:00hs ,-37.99930343,-57.55373396
210,5207066,AXION PARQUE (940),AV. CONSTITUCION 4703,MAR DEL PLATA,Buenos Aires,0,0,0,1,Lun. a Vie. 00:00hs a 24:00hs ,Sáb. 00:00hs a 24:00hs ,Dom. 00:00hs a 24:00hs ,-37.96727878,-57.54991504
595,9902394,CORREO MAR DEL PLATA - 1,COLON 5556,MAR DEL PLATA,Buenos Aires,1,0,1,0,Lun. a Vie. 09:00hs a 17:00hs ,,,-37.98879494,-57.57939163
596,9902395,CORREO MAR DEL PLATA SUC. 2,GRAL. MARIANO ACHA 350,MAR DEL PLATA,Buenos Aires,1,0,1,0,Lun. a Vie. 09:00hs a 17:00hs ,,,-38.04233494,-57.54626573
678,9902493,CORREO GUEMES,GRAL. GUEMES 2714,MAR DEL PLATA,Buenos Aires,0,0,1,0,Lun. a Vie. 09:00hs a 18:00hs ,,,-38.01458188,-57.53988424
712,9902538,CORREO MAR DEL PLATA SHOPPING,H. YRIGOYEN 1333,MAR DEL PLATA,Buenos Aires,1,0,1,0,Lun. a Vie. 09:00hs a 17:00hs ,,,-37.99525714,-57.54691773
1053,5149742,FARMACIA DEL BOSQUE,MARIO BRAVO 2674,MAR DEL PLATA,Buenos Aires,0,1,1,0,Lun. a Vie. 09:00hs a 13:00hs y 16:00hs a 20:00hs,Sáb. 09:00hs a 20:00hs ,,-38.06636369,-57.56347055
1135,11649100,CYBER ADELMAR,DON BOSCO 2410,MAR DEL PLATA,Buenos Aires,0,1,1,0,Lun. a Vie. 10:00hs a 22:00hs ,Sáb. 10:00hs a 22:00hs ,,-37.99436029,-57.57302018
1175,7049791,LLASTAY,CHILE 1919,MAR DEL PLATA,Buenos Aires,1,1,1,0,Lun. a Vie. 10:00hs a 21:00hs ,Sáb. 10:00hs a 21:00hs ,,-37.98723882,-57.57600637
894,90001033,C.S. MAR DEL PLATA,AV. INDEPENDENCIA 2035,MAR DEL PLATA,Buenos Aires,1,1,1,0,Lun. a Vie. 09:00hs a 18:00hs ,Sáb. 09:00hs a 13:00hs ,,-37.99936171,-57.55456953
1021,6149124,AUTOSERVICIO MARIA,TUCUMAN 3186,MAR DEL PLATA,Buenos Aires,0,1,1,0,Lun. a Vie. 09:00hs a 14:00hs y 17:00hs a 21:00hs,Sáb. 09:00hs a 14:00hs y 17:00hs a 21:00hs,Dom. 09:00hs a 14:00hs y 17:00hs a 21:00hs,-38.01474257,-57.549877
1474,7549559,POLIRUBRO Y REGALERIA MARTINA,CERRITO 208,MAR DEL PLATA,Buenos Aires,0,1,1,0,Lun. a Vie. 08:00hs a 20:00hs ,Sáb. 08:00hs a 20:00hs ,,-38.03289098,-57.5563912
1327,7549366,POLIRUBRO PASE Y VEA,MAGALLANES 3612,MAR DEL PLATA,Buenos Aires,1,1,1,0,Lun. a Vie. 08:30hs a 21:00hs ,,,-38.04187202,-57.54956837
1518,11949011,EL ANGEL,CATAMARCA 3896,MAR DEL PLATA,Buenos Aires,1,1,1,0,Lun. a Vie. 08:30hs a 18:00hs ,,,-38.01476645,-57.56533833
1976,11949055,EL ANGEL DORADO,AV. COLON 1341,MAR DEL PLATA,Buenos Aires,0,1,1,0,Lun. a Vie. 09:30hs a 13:00hs y 15:30hs a 18:00hs,Sáb. 09:30hs a 13:00hs ,,-38.01016924,-57.53696782
2058,90001103,C.S. CARREFOUR MAR DEL PLATA,AV. CONSTITUCION 7570,MAR DEL PLATA,Buenos Aires,1,1,1,0,Lun. a Vie. 10:00hs a 19:00hs ,Sáb. 10:00hs a 14:00hs ,Dom. 10:00hs a 14:00hs ,-37.96521,-57.54535
1880,11949021,BLASSAP 9 DE JULIO,CATAMARCA 1399,MAR DEL PLATA,Buenos Aires,1,1,1,0,Lun. a Vie. 08:00hs a 20:00hs ,Sáb. 08:00hs a 20:00hs ,,-37.99431,-57.549855
1890,11949025,LO DE MAJO,CORRIENTES 2359 LOC 3,MAR DEL PLATA,Buenos Aires,1,1,1,0,Lun. a Vie. 08:00hs a 20:00hs ,Sáb. 08:00hs a 20:00hs ,,-38.00660657,-57.54768108
1894,6349331,SERVICIOS ALSINA,ALSINA 2268,MAR DEL PLATA,Buenos Aires,1,1,1,0,Lun. a Vie. 09:00hs a 18:00hs ,Sáb. 09:00hs a 13:00hs ,,-38.00998327,-57.53897594
2278,7549874,MAS X MENOS,JARA 419-420,MAR DEL PLATA,Buenos Aires,0,1,1,0,Lun. a Vie. 08:00hs a 22:30hs ,Sáb. 08:00hs a 22:30hs ,Dom. 08:00hs a 22:30hs ,-37.97714698,-57.56225453
2290,7549887,FRAN TAHY,SAN JUAN 2129 LOC 1,MAR DEL PLATA,Buenos Aires,1,1,1,0,Lun. a Vie. 07:30hs a 20:00hs ,Sáb. 07:30hs a 20:00hs ,,-37.994695,-57.565817
2296,7549890,BLASSAP BELGRANO,BELGRANO 3456,MAR DEL PLATA,Buenos Aires,1,1,1,0,Lun. a Vie. 09:00hs a 20:00hs ,,,-37.99701504,-57.55631059
2328,11349011,EL ALAMO DOS,SAN JUAN 1255,MAR DEL PLATA,Buenos Aires,0,1,1,0,Lun. a Vie. 09:00hs a 13:00hs y 17:00hs a 20:00hs,Sáb. 09:00hs a 13:00hs y 17:00hs a 20:00hs,,-37.98793396,-57.55953859
2330,8749067,INTERSERVICE I,EDISON 785,MAR DEL PLATA,Buenos Aires,1,1,1,0,Lun. a Vie. 10:00hs a 18:00hs ,Sáb. 10:00hs a 18:00hs ,,-38.04450686,-57.55080457
2341,8149255,GRUPOASSIL,GASCON 1967,MAR DEL PLATA,Buenos Aires,0,1,1,0,Lun. a Vie. 08:00hs a 17:00hs ,,,-38.009052,-57.545749
2368,8049274,CYBER TITAN III,AV. COLON 9601,MAR DEL PLATA,Buenos Aires,1,1,1,0,Lun. a Vie. 09:00hs a 13:00hs y 16:00hs a 21:00hs,Sáb. 09:00hs a 13:00hs y 16:00hs a 21:00hs,,-37.968202,-57.619351
2438,8049285,ANKER SERVICIOS,AV. POLONIA 503,MAR DEL PLATA,Buenos Aires,0,1,1,0,Lun. a Vie. 06:00hs a 24:00hs ,Sáb. 06:00hs a 24:00hs ,Dom. 06:00hs a 24:00hs ,-38.010414,-57.591378
2448,11949126,POLIRUBRO OTTO,BOLIVAR 2620,MAR DEL PLATA,Buenos Aires,1,1,1,0,Lun. a Vie. 09:00hs a 20:00hs ,,,-38.00254,-57.549619
2842,10449022,PASEO DE COMPRAS AVELLANEDA CRS,ARTURO ALIO 3092 LOC 3,MAR DEL PLATA,Buenos Aires,1,1,1,0,Lun. a Vie. 08:00hs a 13:00hs y 17:00hs a 21:00hs,Sáb. 08:00hs a 13:00hs y 17:00hs a 21:00hs,,-37.986219,-57.604183
2864,6949435,LIBRERIA LA MARTINA,SANTA MARIA DE ORO 4352 LOCAL 16,MAR DEL PLATA,Buenos Aires,0,1,1,0,Lun. a Vie. 09:00hs a 13:00hs y 17:00hs a 19:00hs,,,-38.091953,-57.556375
2940,12049561,MAXIKIOSCO CERRITO,CERRITO 343,MAR DEL PLATA,Buenos Aires,1,1,1,0,Lun. a Vie. 07:00hs a 21:00hs ,Sáb. 07:00hs a 21:00hs ,Dom. 07:00hs a 21:00hs ,-38.033364,-57.55808
2963,11949200,POLIRUBRO PICHI,JUJUY 1620,MAR DEL PLATA,Buenos Aires,0,1,1,0,Lun. a Vie. 09:00hs a 13:00hs y 14:00hs a 18:30hs,Sáb. 09:00hs a 13:00hs y 14:00hs a 18:30hs,,-37.994653,-57.554471
3168,8249063,CENTRAL DE PASAJES WEB MAR DEL PLATA,CORRIENTES 1702,MAR DEL PLATA,Buenos Aires,1,1,1,0,Lun. a Vie. 09:00hs a 21:30hs ,Sáb. 09:00hs a 21:30hs ,Dom. 09:00hs a 21:30hs ,-38.000996,-57.543859
3036,11649316,TITAN FERIA 180,AV. ARTUTO ALIO 1932,MAR DEL PLATA,Buenos Aires,1,1,1,0,Lun. a Vie. 11:00hs a 23:59hs ,Sáb. 11:00hs a 23:59hs ,,-37.976891,-57.596586
3113,9149027,MDP SERVICIOS GLOBALES 2,SANTIAGO DEL ESTERO 1767,MAR DEL PLATA,Buenos Aires,0,1,1,0,Lun. a Vie. 10:00hs a 20:00hs ,,,-38.000497,-57.546275
3412,7949045,CYBER TITAN LURO,LURO 7606,MAR DEL PLATA,Buenos Aires,1,1,1,0,Lun. a Vie. 10:00hs a 20:00hs ,Sáb. 10:00hs a 20:00hs ,Dom. 10:00hs a 20:00hs ,-37.972708,-57.597643
3530,12049887,POLIRUBRO MALVINAS ARGENTINAS,AV. MARIO BRAVO 3345,MAR DEL PLATA,Buenos Aires,0,1,1,0,Lun. a Vie. 09:00hs a 18:00hs ,,,-38.061516,-57.56966
3596,11949332,POLIRUBRO MANANTIALES DE ORO,SAN JUAN 375,MAR DEL PLATA,Buenos Aires,1,1,1,0,Lun. a Vie. 10:00hs a 13:00hs y 17:00hs a 20:00hs,,,-37.980554,-57.554396
3303,5320009,SUPERMAYORISTA VITAL MAR DEL PLATA,RUTA 88 KM 5,MAR DEL PLATA,Buenos Aires,0,0,1,0,Lun. a Vie. 08:00hs a 19:00hs ,,,-37.965504,-57.577791
3334,8118046,COREFIN (MAR DEL PLATA),AV. PEDRO LURO 3060,MAR DEL PLATA,Buenos Aires,0,0,1,0,Lun. a Vie. 09:00hs a 13:00hs y 17:00hs a 20:00hs,Sáb. 09:00hs a 12:00hs ,,-37.996057,-57.551249
3348,12049779,LO DE WALTER,AV. FORTUNATO DE LA PLAZA 3534,MAR DEL PLATA,Buenos Aires,0,1,1,0,Lun. a Vie. 07:00hs a 13:30hs y 16:00hs a 19:00hs,Sáb. 07:00hs a 13:30hs y 16:00hs a 19:00hs,,-38.052233,-57.561722
3390,11949278,POLIRUBRO MORITO,CORDOBA 3801,MAR DEL PLATA,Buenos Aires,0,1,1,0,Lun. a Vie. 09:00hs a 13:00hs y 17:30hs a 20:00hs,Sáb. 09:00hs a 13:00hs ,,-38.01621,-57.560452
3752,11749016,STAR TICKET,GRAL ROCA 1244 DPTO 1,MAR DEL PLATA,Buenos Aires,1,1,1,0,Lun. a Vie. 10:00hs a 14:00hs y 17:00hs a 20:00hs,,,-38.018943,-57.543852
3783,11949359,CENTRO DE COPIADO,AVELLANEDA 3301,MAR DEL PLATA,Buenos Aires,0,1,1,0,Lun. a Vie. 08:00hs a 12:00hs y 16:00hs a 20:00hs,,,-38.006999,-57.563081
3879,11949397,BLASSAP GENOVA,GENOVA 5702,MAR DEL PLATA,Buenos Aires,0,1,1,0,Lun. a Vie. 08:00hs a 13:00hs y 17:00hs a 20:00hs,Sáb. 08:00hs a 13:00hs y 17:00hs a 20:00hs,,-38.040685,-57.584046
3690,12049970,CANDY CRS,LA RIOJA 1829,MAR DEL PLATA,Buenos Aires,0,1,1,0,Lun. a Vie. 08:00hs a 15:00hs ,,,-37.998479,-57.551766
4079,11949451,CANDY II,SAN LUIS 1985,MAR DEL PLATA,Buenos Aires,0,1,1,0,Lun. a Vie. 09:00hs a 17:00hs ,,,-38.001186,-57.549743
3907,8749140,BLASSAP FERIA,SAN LUIS 1855 LOC. 27,MAR DEL PLATA,Buenos Aires,1,1,1,0,Lun. a Vie. 09:00hs a 19:00hs ,Sáb. 09:00hs a 19:00hs ,,-38.000195,-57.548925
3929,12449026,MAXIKIOSCO AMORES,SAN JUAN 1428,MAR DEL PLATA,Buenos Aires,1,1,1,0,Lun. a Vie. 09:00hs a 19:00hs ,Sáb. 09:00hs a 19:00hs ,,-37.989049,-57.561215
3930,6149335,AUTOSERVICIO BARRILETE COSMICO,SAN JUAN 799,MAR DEL PLATA,Buenos Aires,0,1,1,0,Lun. a Vie. 09:30hs a 13:30hs y 17:00hs a 20:00hs,,,-37.983923,-57.557044
3940,6249092,PRISMA,TALCAHUANO 94,MAR DEL PLATA,Buenos Aires,1,1,1,0,Lun. a Vie. 09:00hs a 13:00hs y 16:00hs a 21:30hs,Sáb. 09:00hs a 13:00hs y 16:00hs a 21:30hs,,-38.023673,-57.566714
3981,11949426,DEBRA BELLA,AV. JACINTO PERALTA RAMOS 1013,MAR DEL PLATA,Buenos Aires,1,1,1,0,Lun. a Vie. 09:00hs a 14:00hs y 16:00hs a 21:00hs,Sáb. 09:00hs a 14:00hs y 16:00hs a 21:00hs,,-38.025851,-57.579794
4422,11949495,POLIRUBRO PATO LUCAS,CARLOS TEJEDOR 532,MAR DEL PLATA,Buenos Aires,1,1,1,0,Lun. a Vie. 06:30hs a 20:30hs ,Sáb. 06:30hs a 20:30hs ,,-37.969599,-57.556584
4853,11949545,DA-SALTA,AV LURO 3293,MAR DEL PLATA,Buenos Aires,1,1,1,0,Lun. a Vie. 09:00hs a 18:00hs ,,,-37.99478,-57.55294
4854,11949546,DA-SAN MARTIN,SAN MARTIN 2120,MAR DEL PLATA,Buenos Aires,0,1,1,0,Lun. a Vie. 09:00hs a 16:00hs ,Sáb. 09:00hs a 16:00hs ,,-38.001781,-57.542487
4855,11949547,DA-LURO,LURO 3226,MAR DEL PLATA,Buenos Aires,1,1,1,0,Lun. a Vie. 09:00hs a 18:00hs ,,,-37.99564,-57.55277
4640,11949512,POLIRUBRO NAYLA,TERMAS DE RIO HONDO 3120,MAR DEL PLATA,Buenos Aires,0,1,1,0,Lun. a Vie. 09:00hs a 13:30hs y 17:00hs a 21:30hs,Sáb. 09:00hs a 13:30hs y 17:00hs a 21:30hs,,-37.985298,-57.606439
6437,,CORREO MAR DEL PLATA - 4,AV. JACINTO PERALTA RAMOS  865 LOC 48,MAR DEL PLATA,Buenos Aires,1,0,0,0,Lun. a Vie. 0830 A 1300 1630 A 2000,,,-38.025152979592,-57.577734571429
6438,,CORREO MAR DEL PLATA - GUEMES,GUEMES  2714,MAR DEL PLATA,Buenos Aires,1,0,0,0,Lun. a Vie. 0900 A 1700,,,-38.014581877551,-57.539884244898
5668,8749272,SERCOB CARLOS GARDEL,AV CARLOS GARDEL 1530,MAR DEL PLATA,Buenos Aires,0,1,1,0,Lun. a Vie. 08:00hs a 13:00hs y 17:00hs a 19:00hs,Sáb. 08:00hs a 13:00hs y 17:00hs a 19:00hs,,-38.001496,-57.620732
5671,9749350,SERCOB BERUTTI,BERUTTI 7805,MAR DEL PLATA,Buenos Aires,0,1,1,0,Lun. a Vie. 08:00hs a 13:00hs y 17:00hs a 19:00hs,Sáb. 08:00hs a 13:00hs y 17:00hs a 19:00hs,,-37.96063,-57.58948
5672,9749351,SERCOB LIBERTAD,AV LIBERTAD 8721,MAR DEL PLATA,Buenos Aires,0,1,1,0,Lun. a Vie. 08:00hs a 13:00hs y 17:00hs a 19:00hs,Sáb. 08:00hs a 13:00hs y 17:00hs a 19:00hs,,-37.956005,-57.616841
5677,12449364,SERCOB BOLIVAR,BOLIVAR 2196,MAR DEL PLATA,Buenos Aires,0,1,1,0,Lun. a Vie. 00:01hs a 23:59hs ,Sáb. 00:01hs a 23:59hs ,Dom. 00:01hs a 23:59hs ,-38.00476,-57.545486
5026,11949578,PONIENDO ESTABA LA GANSA,SAN SALVADOR 5559,MAR DEL PLATA,Buenos Aires,1,1,1,0,Lun. a Vie. 09:00hs a 12:30hs y 18:00hs a 20:30hs,Sáb. 09:00hs a 12:30hs y 18:00hs a 20:30hs,,-38.003705,-57.610421
5069,7449141,SERCOB MDP,CORDOBA 4072,MAR DEL PLATA,Buenos Aires,0,1,1,0,Lun. a Vie. 09:00hs a 18:00hs ,,,-38.018392,-57.562058
5096,11949585,DESPENSA LA NONA,CALLE 16 BIS 3731,MAR DEL PLATA,Buenos Aires,0,1,1,0,Lun. a Vie. 08:30hs a 13:00hs y 16:30hs a 21:00hs,Sáb. 08:30hs a 13:00hs y 16:30hs a 21:00hs,,-38.082719,-57.554406
5115,11949589,SERCOB COLON MDP,AV COLON 2985,MAR DEL PLATA,Buenos Aires,1,1,1,0,Lun. a Vie. 08:00hs a 19:00hs ,Sáb. 09:00hs a 13:00hs ,,-38.001412,-57.553858
5116,11949590,SERCOB ALBERTI MDP,ALBERTI 2234 LOC 2,MAR DEL PLATA,Buenos Aires,0,1,1,0,Lun. a Vie. 08:00hs a 19:00hs ,Sáb. 08:00hs a 19:00hs ,,-38.008521,-57.549161
5151,11949586,DA-JUJUY,AV LURO 3359,MAR DEL PLATA,Buenos Aires,0,1,1,0,Lun. a Vie. 08:00hs a 15:00hs ,,,-37.994569,-57.553845
5175,8159299,AGL ORGANIZACION PASO,JUAN J PASO 3189,MAR DEL PLATA,Buenos Aires,0,0,1,0,Lun. a Vie. 09:00hs a 16:00hs ,,,-38.016408,-57.568972
5176,10349139,GRUPO UNION,AV. PEDRO LURO 6564,MAR DEL PLATA,Buenos Aires,1,1,1,0,Lun. a Vie. 09:00hs a 13:00hs y 15:00hs a 18:00hs,,,-37.978345,-57.585831
5215,11949597,KANDY,JUAN B JUSTO 805,MAR DEL PLATA,Buenos Aires,1,1,1,0,Lun. a Vie. 08:30hs a 19:00hs ,Sáb. 08:30hs a 19:00hs ,,-38.03461,-57.550149
5216,90049116,KEJ SERVICIOS,12 DE OCTUBRE 3502,MAR DEL PLATA,Buenos Aires,1,1,1,0,Lun. a Vie. 09:00hs a 18:00hs ,Sáb. 09:00hs a 13:00hs ,,-38.041449,-57.548394
5927,11949624,DE TODO UN POCO,SAAVEDRA 2939,MAR DEL PLATA,Buenos Aires,1,1,1,0,Lun. a Vie. 08:00hs a 18:00hs ,Sáb. 08:00hs a 18:00hs ,,-38.012817,-57.562504
5966,90049136,SERVICIOS TORTI,AV.JARA 102,MAR DEL PLATA,Buenos Aires,0,1,1,0,Lun. a Vie. 09:00hs a 18:00hs ,Sáb. 09:00hs a 18:00hs ,,-37.974269,-57.560435
5996,8159606,AGL SEGUROS NARIO,CATAMARCA 3114,MAR DEL PLATA,Buenos Aires,0,0,1,0,Lun. a Vie. 09:00hs a 15:00hs ,,,-38.008327,-57.560985
5358,11949604,DA-SARMIENTO,SARMIENTO ESQ GARAY,MAR DEL PLATA,Buenos Aires,0,1,1,0,Lun. a Vie. 10:00hs a 19:00hs ,Sáb. 10:00hs a 19:00hs ,,-38.012939,-57.544039
5360,8159359,AGL - CHC SEGUROS,PRIMERO DE MAYO 2173,MAR DEL PLATA,Buenos Aires,0,0,1,0,Lun. a Vie. 09:00hs a 15:00hs ,,,-37.990311,-57.57522
5363,8149476,SERCOB CHAMPAGNAT,TRES ARROYOS 302,MAR DEL PLATA,Buenos Aires,0,1,1,0,Lun. a Vie. 08:00hs a 20:00hs ,Sáb. 08:00hs a 20:00hs ,,-37.967858,-57.577898
6039,8159618,AGL SEGUROS FUINSTRA,FALUCHO 2540 2 E,MAR DEL PLATA,Buenos Aires,0,0,1,0,Lun. a Vie. 08:00hs a 14:00hs ,,,-33.078025,-63.276086
5366,6249100,SERCOB TEJEDOR,TEJEDOR 1626,MAR DEL PLATA,Buenos Aires,0,1,1,0,Lun. a Vie. 09:00hs a 18:00hs ,,,-37.960546,-57.549621
5414,10359078,AGL SEGUROS JR,AV. LURO 6914,MAR DEL PLATA,Buenos Aires,0,0,1,0,Lun. a Vie. 08:00hs a 13:00hs y 15:30hs a 18:00hs,Sáb. 09:00hs a 13:00hs ,,-37.976747,-57.58965
5417,10359080,AGL SEGUROS BOLLINI ASESOR,3 DE FEBRERO 3611,MAR DEL PLATA,Buenos Aires,0,0,1,0,Lun. a Vie. 08:30hs a 14:30hs ,,,-37.990893,-57.554538
5438,10359082,AGL BROKER MDQ,SAN LUIS 1203,MAR DEL PLATA,Buenos Aires,0,0,1,0,Lun. a Vie. 09:00hs a 15:00hs ,Sáb. 09:00hs a 13:00hs ,,-37.994913,-57.544628
5536,8749258,BLASSAP CONSTITUCION,AV. CONSTITUCI¿ 5669,MAR DEL PLATA,Buenos Aires,1,1,1,0,Lun. a Vie. 08:30hs a 17:30hs ,,,-37.962154,-57.560355
5537,8159436,AGL SEGUROS TORRES GARCIA,AV COLON 3445 8 B,MAR DEL PLATA,Buenos Aires,0,0,1,0,Lun. a Vie. 09:00hs a 16:00hs ,,,-37.998964,-57.55849
4857,11949548,DA-SAN LORENZO,GUEMES 3166,MAR DEL PLATA,Buenos Aires,0,1,1,0,Lun. a Vie. 09:00hs a 16:00hs ,Sáb. 09:00hs a 16:00hs ,,-38.017728,-57.543243
4858,11949549,DA-ESQUINA,INDEPENDENCIA 1802,MAR DEL PLATA,Buenos Aires,1,1,1,0,Lun. a Vie. 09:00hs a 18:00hs ,Sáb. 10:00hs a 13:00hs ,,-37.99744,-57.55339
4859,11949550,DA-RIVADAVIA,RIVADAVIA 2280,MAR DEL PLATA,Buenos Aires,0,1,1,0,Lun. a Vie. 08:00hs a 17:00hs ,Sáb. 08:00hs a 17:00hs ,,-38.002046,-57.544252
4861,11949551,DA-SANTIAGO,SANTIAGO DEL ESTERO 1785,MAR DEL PLATA,Buenos Aires,0,1,1,0,Lun. a Vie. 09:00hs a 16:00hs ,Sáb. 09:00hs a 16:00hs ,,-38.00053,-57.54656
4862,11949552,DA-GUEMES,GUEMES 3231,MAR DEL PLATA,Buenos Aires,0,1,1,0,Lun. a Vie. 09:00hs a 17:00hs ,Sáb. 09:00hs a 17:00hs ,,-38.018373,-57.544034
4863,11949553,DA-SANTA FE,SANTA FE 1721,MAR DEL PLATA,Buenos Aires,0,1,1,0,Lun. a Vie. 08:30hs a 16:30hs ,,,-38.000618,-57.545188
4864,11949554,DA-BELGRANO,BELGRANO 2347,MAR DEL PLATA,Buenos Aires,0,1,1,0,Lun. a Vie. 09:00hs a 17:00hs ,Sáb. 09:00hs a 17:00hs ,,-38.002302,-57.54558
4866,11949556,DA-DIAGONAL,INDEPENDENCIA 2052,MAR DEL PLATA,Buenos Aires,1,1,1,0,Lun. a Vie. 08:00hs a 17:00hs ,Sáb. 09:00hs a 13:00hs ,,-37.99899,-57.555295
4869,11949559,DA-AVENIDA,LURO 3182,MAR DEL PLATA,Buenos Aires,0,1,1,0,Lun. a Vie. 09:00hs a 18:00hs ,Sáb. 10:00hs a 13:00hs ,,-37.995799,-57.552048
5568,10359086,AGL SEGUROS GASTON GASIPI,AV. LIBERTAD 4888,MAR DEL PLATA,Buenos Aires,0,0,1,0,Lun. a Vie. 09:00hs a 16:00hs ,,,-37.9861,-57.557401
5578,11949611,POLIRUBRO FORTALEZA,AV. JARA 167,MAR DEL PLATA,Buenos Aires,1,1,1,0,Lun. a Vie. 08:30hs a 20:00hs ,Sáb. 08:30hs a 14:00hs ,,-37.974841,-57.561204
4933,11949565,LARGUIRUCHO,O HIGGINS 1999,MAR DEL PLATA,Buenos Aires,1,1,1,0,Lun. a Vie. 09:00hs a 20:00hs ,Sáb. 09:00hs a 14:00hs ,,-38.026394,-57.560071
5590,8159458,AGL SEGUROS FENIX,SAN LORENZO 1965,MAR DEL PLATA,Buenos Aires,0,0,1,0,Lun. a Vie. 10:00hs a 16:00hs ,,,-38.014587,-57.550225
4939,6949564,LIBRERIA PRINT,HIPOLITO YRIGOYEN 1496,MAR DEL PLATA,Buenos Aires,1,1,1,0,Lun. a Vie. 09:00hs a 12:00hs y 13:30hs a 20:00hs,Sáb. 09:00hs a 13:00hs ,,-37.996231,-57.548269
