IDSUCURSAL,NRO_AGENTE_PF,NOMBRE,DIRECCION,LOCALIDAD,PROVINCIA,WESTERN_UNION,ENVIO_NACIONAL,PAGO_FACTURAS,RECARGA_FACIL,HS_LAV,HS_SABADO,HS_DOMINGO,LATITUD,LONGITUD
118,90003004,WAL MART LA PLATA,CNO. CENTENARIO 1879,LA PLATA,Buenos Aires,1,1,1,0,Lun. a Vie. 08:00hs a 22:00hs ,Sáb. 08:00hs a 22:00hs ,Dom. 00:00hs a 00:00hs ,-34.8512398,-58.08862894
152,10249161,AGENCIA MARIO,AV. 66 NRO 2504,LA PLATA,Buenos Aires,1,1,1,0,Lun. a Vie. 08:30hs a 13:00hs y 16:30hs a 20:45hs,Sáb. 08:30hs a 14:00hs y 16:30hs a 20:45hs,,-34.962185,-57.974241
377,9902162,CORREO LA PLATA,AV. 51 NRO 456,LA PLATA,Buenos Aires,1,0,1,0,Lun. a Vie. 08:00hs a 19:45hs ,,,-34.91315417,-57.945334
407,9902201,CORREO LA PLATA 2,DIAGONAL 74 NRO 1342,LA PLATA,Buenos Aires,1,0,1,0,Lun. a Vie. 09:00hs a 17:00hs ,,,-34.91370845,-57.95445473
408,9902203,CORREO LA PLATA 4,AV. 7 NRO 1921,LA PLATA,Buenos Aires,1,0,1,0,Lun. a Vie. 09:00hs a 17:00hs ,,,-34.930644,-57.928758
409,9902204,CORREO LA PLATA 5,CALLE 12 NRO 1493,LA PLATA,Buenos Aires,1,0,1,0,Lun. a Vie. 09:00hs a 17:00hs ,,,-34.928439,-57.942875
410,9902205,CORREO LA PLATA 6,CALLE 63 NRO 2115,LA PLATA,Buenos Aires,1,0,1,0,Lun. a Vie. 09:00hs a 17:00hs ,,,-34.952561,-57.969276
411,9902206,CORREO LA PLATA 7,CALLE 520 NRO 1422,LA PLATA,Buenos Aires,1,0,1,0,Lun. a Vie. 09:00hs a 17:00hs ,,,-34.892959,-57.984246
826,9902672,CORREO AGENCIA 1 RENTAS,AV. 7 NRO 670,LA PLATA,Buenos Aires,1,0,1,0,Lun. a Vie. 08:00hs a 16:00hs ,,,-34.902577,-57.966004
1093,8849561,TELE LA PLATA,CALLE 12 NRO 758,LA PLATA,Buenos Aires,1,1,1,0,Lun. a Vie. 08:00hs a 19:00hs ,Sáb. 09:00hs a 18:00hs ,,-34.921634,-57.951198
1095,7549190,POLIRUBRO CHIMANGO,CALLE 62 NRO 357,LA PLATA,Buenos Aires,1,1,1,0,Lun. a Vie. 10:00hs a 19:00hs ,,,-34.9185105,-57.933783
1211,9902791,CORREO TERMINAL DE OMNIBUS,CALLE 42 NRO 443,LA PLATA,Buenos Aires,1,0,1,0,Lun. a Vie. 09:00hs a 17:00hs ,,,-34.906469,-57.953765
1014,7049231,KIOSCO SUSANA,CALLE 40 NRO 365,LA PLATA,Buenos Aires,0,1,1,0,Lun. a Vie. 08:00hs a 12:00hs y 14:00hs a 18:00hs,Sáb. 08:00hs a 12:00hs y 14:00hs a 18:00hs,,-34.90336917,-57.954451
1260,10249330,AGENCIA ISIDORO,AV. 7 NRO 1158,LA PLATA,Buenos Aires,1,1,1,0,Lun. a Vie. 08:00hs a 20:00hs ,Sáb. 09:00hs a 17:00hs ,,-34.918413,-57.944768
1891,8049210,MMS BROKERS,CALLE 11 NRO 468,LA PLATA,Buenos Aires,0,1,1,0,Lun. a Vie. 08:30hs a 16:30hs ,Sáb. 09:00hs a 13:00hs ,,-34.912141,-57.962299
2336,8249039,NSA HORIZONTE INTERNACIONAL TERMINAL LA,CALLE 41 Y CALLE 3 VENTANILLA 3,LA PLATA,Buenos Aires,0,0,1,0,Lun. a Vie. 09:00hs a 18:00hs ,,,-34.90488,-57.95398
2099,90001127,C.S. CARREFOUR LA PLATA,CAMINO GRAL. BELGRANO  Y CALLE 517,LA PLATA,Buenos Aires,1,1,1,0,Lun. a Vie. 10:00hs a 19:00hs ,Sáb. 10:00hs a 14:00hs ,Dom. 10:00hs a 14:00hs ,-34.89597,-57.99377
2208,8118027,COREFIN (LA PLATA),CALLE 8  NRO 735,LA PLATA,Buenos Aires,0,0,1,0,Lun. a Vie. 09:00hs a 18:00hs ,Sáb. 09:00hs a 18:00hs ,,-34.9142705,-57.95288367
3098,5320002,SUPERMAYORISTA VITAL LA PLATA,AV. 520 Y CALLE 21,LA PLATA,Buenos Aires,0,0,1,0,Lun. a Vie. 07:00hs a 20:00hs ,Sáb. 07:00hs a 20:00hs ,,-34.879398,-57.970491
3746,11949347,LA 44,CALLE 44  1615,LA PLATA,Buenos Aires,1,1,1,0,Lun. a Vie. 09:00hs a 18:00hs ,,,-34.930539,-57.976763
4039,12449070,NO STOP 3,CALLE 6 Nro  778,LA PLATA,Buenos Aires,0,1,1,0,Lun. a Vie. 10:00hs a 18:00hs ,,,-34.912472,-57.950528
4310,8149357,CREDNOW CENTRAL,CALLE 44 N 329,LA PLATA,Buenos Aires,0,0,1,0,Lun. a Vie. 10:00hs a 18:00hs ,,,-34.905597,-57.949734
4345,12449161,KIOSCO MORENA,CALLE PLAZA PASO N 109,LA PLATA,Buenos Aires,0,1,1,0,Lun. a Vie. 10:00hs a 18:00hs ,,,-34.9159719,-57.9608393
4696,9529001,ABSA LA PLATA,AV. 7 NRO 1236,LA PLATA,Buenos Aires,0,0,1,0,Lun. a Vie. 08:00hs a 15:00hs ,,,-34.918938,-57.944086
4543,11449078,MUNDO TECNO,CALLE 61 NRO 1440,LA PLATA,Buenos Aires,1,1,1,0,Lun. a Vie. 10:00hs a 18:00hs ,,,-34.937444,-57.957592
6730,,NSA AR LA PLATA HORIZONTE 2,CALLE 42  448,LA PLATA,Buenos Aires,1,0,0,0,Lun. a Vie. 0900 A 1800,Sáb. 0900 A 1800,,-34.906601,-57.953762
6384,,CORREO LA PLATA - 1,CALLE 48  915,LA PLATA,Buenos Aires,1,0,0,0,Lun. a Vie. 0800 A 1500,,,-34.92009,-57.957175
6385,,CORREO LA PLATA - 3,AV. 44  1871,LA PLATA,Buenos Aires,1,0,0,0,Lun. a Vie. 0900 A 1700,,,-34.934771,-57.981941
5126,8159266,AGL SEGUROS MENGONI,13 N 527,LA PLATA,Buenos Aires,0,0,1,0,Lun. a Vie. 09:00hs a 13:00hs y 15:00hs a 18:00hs,,,-34.915215,-57.963292
5147,8159294,AGL SEGUROS TREMOUILLES,CALLE 38 N 699,LA PLATA,Buenos Aires,0,0,1,0,Lun. a Vie. 08:00hs a 17:00hs ,,,-34.907579,-57.964112
5162,8159296,AGL SEGUROS KELIS,CALLE 66 N 3895,LA PLATA,Buenos Aires,0,0,1,0,Lun. a Vie. 10:00hs a 12:00hs y 16:00hs a 18:00hs,,,-34.987805,-58.002843
5286,8159339,AGL SEGUROS GUERRERO,CALLE 64 N 232,LA PLATA,Buenos Aires,0,0,1,0,Lun. a Vie. 10:00hs a 12:00hs y 16:00hs a 18:00hs,,,-34.917416,-57.929355
5288,8159341,AGL SEGUROS ORGANIZACION FUENTES,CALLE 32 N 1837,LA PLATA,Buenos Aires,0,0,1,0,Lun. a Vie. 10:00hs a 12:00hs ,,,-34.920761,-57.992031
5998,12449388,DRUGSTORE AGUS,PLAZA ITALIA 10/12,LA PLATA,Buenos Aires,1,1,1,0,Lun. a Vie. 09:00hs a 18:00hs ,,,-34.911428,-57.955455
5422,90001224,C.S. LA PLATA,CALLE 56 836,LA PLATA,Buenos Aires,1,1,1,0,Lun. a Vie. 09:00hs a 19:00hs ,Sáb. 09:00hs a 12:00hs ,,-34.921805,-57.94987
6103,8149677,OFICINA 31,AVENIDA 31 NRO.328,LA PLATA,Buenos Aires,0,1,1,0,Lun. a Vie. 09:00hs a 20:00hs ,,,-34.928546,-57.986126
6105,8149679,OFICINA 38,CALLE 18 N 308,LA PLATA,Buenos Aires,0,1,1,0,Lun. a Vie. 09:00hs a 18:00hs ,,,-34.916046,-57.973046
5463,8159422,AGL SEGUROS VALENTI,CALLE 60 N 1934,LA PLATA,Buenos Aires,0,0,1,0,Lun. a Vie. 09:00hs a 18:00hs ,,,-34.946376,-57.96928
5503,8159434,AGL SEGUROS VALENTI VICENTE,CALLE 13 N 163,LA PLATA,Buenos Aires,0,0,1,0,Lun. a Vie. 10:00hs a 12:00hs y 16:00hs a 18:00hs,,,-34.909059,-57.971481
4896,11949563,POLIRUBRO HUGO,CALLE 143 N 1563,LA PLATA,Buenos Aires,1,1,1,0,Lun. a Vie. 09:00hs a 18:00hs ,,,-34.943511,-57.994404
