IDSUCURSAL,NRO_AGENTE_PF,NOMBRE,DIRECCION,LOCALIDAD,PROVINCIA,WESTERN_UNION,ENVIO_NACIONAL,PAGO_FACTURAS,RECARGA_FACIL,HS_LAV,HS_SABADO,HS_DOMINGO,LATITUD,LONGITUD
460,9902256,CORREO JUJUY - C,GRAL. MANUEL BELGRANO 1136,SAN SALVADOR DE JUJUY,Jujuy,1,0,1,0,Lun. a Vie. 08:00hs a 13:00hs y 17:00hs a 20:00hs,,,-24.18523918,-65.30519745
1092,11649073,CIBER DOBLE CLICK,URDININEA 168,SAN SALVADOR DE JUJUY,Jujuy,0,1,1,0,Lun. a Vie. 09:00hs a 13:00hs y 17:00hs a 21:00hs,Sáb. 09:00hs a 13:00hs ,,-24.190912,-65.301113
1400,5349203,DESPENSA LIBERTADOR,AV. LIBERTADOR 556,SAN SALVADOR DE JUJUY,Jujuy,0,1,1,0,Lun. a Vie. 08:00hs a 13:30hs y 17:00hs a 21:30hs,Sáb. 08:00hs a 14:00hs y 17:00hs a 20:00hs,Dom. 09:00hs a 13:00hs ,-24.198642,-65.280195
1409,8149161,SUCREDITO JUJUY,BALCARCE 385,SAN SALVADOR DE JUJUY,Jujuy,0,1,1,0,Lun. a Vie. 08:00hs a 13:00hs ,Sáb. 09:00hs a 13:00hs ,,-24.184282,-65.305554
1254,6149189,DESPENSA PUCA,REPUBLICA DOMINICANA 595,SAN SALVADOR DE JUJUY,Jujuy,0,1,1,0,Lun. a Vie. 09:00hs a 16:00hs y 18:00hs a 23:30hs,Sáb. 09:00hs a 16:00hs y 18:00hs a 23:30hs,Dom. 09:00hs a 16:00hs y 18:00hs a 23:30hs,-24.197809,-65.307076
1332,7549362,DESPENSA GABRIELA,VELEZ SARSFIELD 505,SAN SALVADOR DE JUJUY,Jujuy,0,1,1,0,Lun. a Vie. 09:00hs a 13:00hs y 17:00hs a 22:00hs,,,-24.194772,-65.31698
1521,7549600,COTILLON ISIDORITO,AV. JOSE DE LA IGLESIA 1069,SAN SALVADOR DE JUJUY,Jujuy,1,1,1,0,Lun. a Vie. 09:00hs a 13:00hs y 17:00hs a 21:00hs,Sáb. 09:00hs a 13:00hs y 17:00hs a 21:00hs,,-24.19076363,-65.30331692
1584,8949458,TELECABINAS TUKY,VESPUCIO 2478,SAN SALVADOR DE JUJUY,Jujuy,0,1,1,0,Lun. a Vie. 08:00hs a 14:00hs y 17:00hs a 20:00hs,,,-24.210064,-65.270301
1612,8118019,COREFIN (SAN SALVADOR),LAVALLE 208,SAN SALVADOR DE JUJUY,Jujuy,0,0,1,0,Lun. a Vie. 08:30hs a 13:00hs y 17:00hs a 21:00hs,Sáb. 09:00hs a 13:00hs ,,-24.18634431,-65.30286635
2078,6349346,TELECENTRO DANA,SENADOR PEREZ 1090,SAN SALVADOR DE JUJUY,Jujuy,1,1,1,0,Lun. a Vie. 07:00hs a 22:00hs ,,,-24.181516,-65.308496
1879,12049130,P S D,ANTARTIDA Y ALTE BROWN,SAN SALVADOR DE JUJUY,Jujuy,0,1,1,0,Lun. a Vie. 08:00hs a 14:00hs y 16:00hs a 24:00hs,Sáb. 08:00hs a 14:00hs y 16:00hs a 24:00hs,,-24.198976,-65.286386
2289,12049363,MEGA KIOSCO BIG MALL,AV. EXODO 950 LOC 33 Y 34,SAN SALVADOR DE JUJUY,Jujuy,0,1,1,0,Lun. a Vie. 09:00hs a 22:00hs ,,,-24.1931238,-65.30201116
2302,8002001,SICOM ALEM 2,LEANDRO N. ALEM 657,SAN SALVADOR DE JUJUY,Jujuy,0,0,1,0,Lun. a Vie. 09:00hs a 13:00hs y 17:00hs a 21:00hs,Sáb. 09:00hs a 13:00hs ,,-24.192314,-65.29854
2303,8002002,SICOM BROWN,ALTE. BROWN 430,SAN SALVADOR DE JUJUY,Jujuy,0,0,1,0,Lun. a Vie. 09:00hs a 13:00hs y 17:00hs a 21:00hs,Sáb. 09:00hs a 13:00hs ,,-24.194023,-65.289711
2304,8002004,SICOM MEJIAS,MEJIAS 171,SAN SALVADOR DE JUJUY,Jujuy,0,0,1,0,Lun. a Vie. 09:00hs a 13:00hs y 17:00hs a 21:00hs,Sáb. 09:00hs a 13:00hs ,,-24.210985,-65.267024
2305,8002005,SICOM NECOCHEA,NECOCHEA 474,SAN SALVADOR DE JUJUY,Jujuy,0,0,1,0,Lun. a Vie. 08:30hs a 13:00hs y 16:30hs a 21:00hs,Sáb. 09:00hs a 13:00hs ,,-24.1831509,-65.30430082
2311,8002011,SICOM ZEGADA,ESCOLASTICO ZEGADA 1052,SAN SALVADOR DE JUJUY,Jujuy,0,0,1,0,Lun. a Vie. 09:00hs a 13:00hs y 17:00hs a 21:00hs,Sáb. 09:00hs a 13:00hs ,,-24.191797,-65.30302
2113,6349348,INFORMATICA LAN,CNEL DAVILA  1018,SAN SALVADOR DE JUJUY,Jujuy,0,1,1,0,Lun. a Vie. 09:00hs a 12:00hs y 16:00hs a 19:00hs,,,-24.184265,-65.320487
2883,9902881,CORREO ALTO COMEDERO,AV. VALLE GRANDE Y LAS PIRCAS,SAN SALVADOR DE JUJUY,Jujuy,1,0,1,0,Lun. a Vie. 08:00hs a 13:00hs y 17:00hs a 20:00hs,,,-24.250995,-65.264883
3413,12049815,PSD II,LAVALLE 23 LOC 6,SAN SALVADOR DE JUJUY,Jujuy,0,1,1,0,Lun. a Vie. 08:00hs a 13:00hs y 17:00hs a 21:00hs,Sáb. 08:00hs a 13:00hs ,,-24.188638,-65.302639
3507,6959003,AGL LIBRERIA Y ANEXOS,PANAMA 214,SAN SALVADOR DE JUJUY,Jujuy,0,0,1,0,Lun. a Vie. 09:30hs a 15:00hs y 19:00hs a 22:00hs,Sáb. 09:30hs a 15:00hs y 19:00hs a 22:00hs,,-24.194815,-65.302841
3638,6949494,LIBRERIA BRISA,EJERCITO DEL NORTE 1023,SAN SALVADOR DE JUJUY,Jujuy,1,1,1,0,Lun. a Vie. 09:00hs a 13:00hs y 17:00hs a 21:00hs,Sáb. 09:00hs a 13:00hs y 17:00hs a 21:00hs,,-24.201176,-65.302201
4704,10649019,CIB SILVIA,ALTE BROWN 1380,SAN SALVADOR DE JUJUY,Jujuy,0,1,1,0,Lun. a Vie. 08:00hs a 13:00hs y 17:00hs a 20:00hs,Sáb. 08:00hs a 13:00hs ,,-24.204232,-65.282967
4732,8949557,TELECENTRO TERMINAL,RUTA 66 INTERSECC RUTA 9 LOC 18/19,SAN SALVADOR DE JUJUY,Jujuy,0,1,1,0,Lun. a Vie. 07:00hs a 22:00hs ,Sáb. 08:00hs a 22:00hs ,,-24.208422,-65.29858
4808,10049035,DINERO FULL - ELECTROMAS,SENADOR PEREZ 398,SAN SALVADOR DE JUJUY,Jujuy,1,1,1,0,Lun. a Vie. 09:00hs a 14:00hs ,,,-24.184407,-65.308322
5679,8759061,AGL SEGUROS A&V,AV.ALTE BROWN 156,SAN SALVADOR DE JUJUY,Jujuy,0,0,1,0,Lun. a Vie. 08:00hs a 13:00hs y 16:00hs a 21:00hs,Sáb. 08:00hs a 13:00hs ,,-24.191684,-65.290973
5681,8002017,SICOM DRUGSTORE GABY,68 VIV. MZA AP4 LOTE 5,SAN SALVADOR DE JUJUY,Jujuy,0,0,1,0,Lun. a Vie. 09:00hs a 14:00hs ,Sáb. 17:00hs a 22:00hs ,,-24.179491,-65.333507
5747,11649355,KRONOS,AV FLOR DEL PAGO 1034-CAMPO VERDE,SAN SALVADOR DE JUJUY,Jujuy,1,1,1,0,Lun. a Vie. 09:00hs a 13:00hs y 15:00hs a 22:00hs,Sáb. 09:00hs a 13:00hs y 15:00hs a 22:00hs,Dom. 10:00hs a 13:00hs y 15:00hs a 22:00hs,-24.16471,-65.290906
5093,9749334,SARTEN DE ESTHER II,AV.ILLIA 474,SAN SALVADOR DE JUJUY,Jujuy,0,1,1,0,Lun. a Vie. 08:00hs a 20:00hs ,,,-24.168846,-65.319991
5196,9749338,SARTEN DE ESTHER,SENADOR PEREZ 215,SAN SALVADOR DE JUJUY,Jujuy,1,1,1,0,Lun. a Vie. 08:00hs a 13:00hs y 16:00hs a 20:00hs,Sáb. 08:00hs a 13:00hs ,,-24.186621,-65.307971
5889,11949614,FOTOCOPIAS MORE,CABO 1¿BRASICH 450 (281 VIV),SAN SALVADOR DE JUJUY,Jujuy,1,1,1,0,Lun. a Vie. 08:00hs a 12:00hs y 17:00hs a 21:00hs,Sáb. 08:00hs a 12:00hs y 17:00hs a 21:00hs,Dom. 08:00hs a 12:00hs y 17:00hs a 21:00hs,-24.232687,-65.268714
5389,90049121,VENTA DE PASAJES JUJUY,LEANDRO ALEM 974-LOC17 GALERIA MIDAS,SAN SALVADOR DE JUJUY,Jujuy,1,0,1,0,Lun. a Vie. 08:00hs a 14:00hs y 16:00hs a 22:00hs,Sáb. 08:00hs a 14:00hs ,,-24.191963,-65.301953
6065,8749309,LAS YUNGAS,JOSE DE LA IGLESIA  1940,SAN SALVADOR DE JUJUY,Jujuy,1,1,1,0,Lun. a Vie. 08:00hs a 13:00hs y 16:00hs a 21:00hs,Sáb. 09:00hs a 13:00hs ,,-24.190858,-65.314654
4877,11149065,ESTUDIO ARTAZA,MARCONI 151,SAN SALVADOR DE JUJUY,Jujuy,1,1,1,0,Lun. a Vie. 08:00hs a 20:00hs ,Sáb. 08:00hs a 13:00hs ,,-24.1911,-65.310867
5601,8749265,SERVICIOS SAN GABRIEL,LISANDRO DE LA TORRE 924,SAN SALVADOR DE JUJUY,Jujuy,1,1,1,0,Lun. a Vie. 08:00hs a 13:00hs y 17:00hs a 22:00hs,Sáb. 08:00hs a 13:00hs ,,-24.192886,-65.301693
