IDSUCURSAL,NRO_AGENTE_PF,NOMBRE,DIRECCION,LOCALIDAD,PROVINCIA,WESTERN_UNION,ENVIO_NACIONAL,PAGO_FACTURAS,RECARGA_FACIL,HS_LAV,HS_SABADO,HS_DOMINGO,LATITUD,LONGITUD
94,10249005,AGENCIA VERONESI,LISANDRO DE LA TORRE 2201,MATADEROS,Capital Federal,0,1,1,0,Lun. a Vie. 08:00hs a 21:00hs ,Sáb. 08:00hs a 19:00hs ,,-34.660464,-58.503032
241,9902014,CORREO MATADEROS,JUAN B. ALBERDI 5924,MATADEROS,Capital Federal,1,0,1,0,Lun. a Vie. 10:00hs a 18:00hs ,,,-34.65280584,-58.50336708
1373,10249399,AGENCIA LA QUINIELA,AV. JUAN B. ALBERDI 5669,MATADEROS,Capital Federal,1,1,1,0,Lun. a Vie. 08:30hs a 17:00hs ,,,-34.65030171,-58.50101271
2068,90001113,C.S. CARREFOUR MATADEROS,AV. GRAL PAZ 12950,MATADEROS,Capital Federal,1,1,1,0,Lun. a Vie. 10:00hs a 19:00hs ,Sáb. 10:00hs a 14:00hs ,Dom. 10:00hs a 14:00hs ,-34.6644,-58.5142
2354,9749176,MEGAKIOSCO JOACO,MONTIEL 3173,MATADEROS,Capital Federal,0,1,1,0,Lun. a Vie. 09:00hs a 18:00hs ,Sáb. 09:00hs a 18:00hs ,,-34.67159327,-58.50075202
2553,5319273,CARREFOUR EXPRESS (0605),J. B. ALBERDI 7071,MATADEROS,Capital Federal,0,0,1,0,Lun. a Vie. 08:00hs a 22:00hs ,Sáb. 08:00hs a 22:00hs ,Dom. 11:00hs a 20:00hs ,-34.659406,-58.512995
2588,5319105,CARREFOUR EXPRESS (0405),J. B. ALBERDI 5719-23,MATADEROS,Capital Federal,0,0,1,0,Lun. a Vie. 08:00hs a 22:00hs ,Sáb. 08:00hs a 22:00hs ,Dom. 11:00hs a 20:00hs ,-34.650642,-58.501486
2680,5319205,CARREFOUR EXPRESS (0534),MARTINIANO LEGUIZAMON 1576,MATADEROS,Capital Federal,0,0,1,0,Lun. a Vie. 08:00hs a 22:00hs ,Sáb. 08:00hs a 22:00hs ,Dom. 11:00hs a 20:00hs ,-34.653398,-58.50714
2973,5319328,CARREFOUR EXPRESS (667),DIRECTORIO 4989,MATADEROS,Capital Federal,0,0,1,0,Lun. a Vie. 08:30hs a 22:00hs ,Sáb. 08:30hs a 22:00hs ,Dom. 11:00hs a 20:00hs ,-34.650742,-58.490912
2991,5319351,CARREFOUR EXPRESS (680),CARHUE 1427,MATADEROS,Capital Federal,0,0,1,0,Lun. a Vie. 07:30hs a 21:00hs ,Sáb. 07:30hs a 21:00hs ,Dom. 11:00hs a 20:30hs ,-34.653948,-58.518926
2750,5319312,CARREFOUR EXPRESS (0649),EMILIO CASTRO 6817,MATADEROS,Capital Federal,0,0,1,0,Lun. a Vie. 08:00hs a 22:00hs ,Sáb. 08:00hs a 22:00hs ,Dom. 11:00hs a 20:00hs ,-34.652006,-58.51553
2756,5319318,CARREFOUR EXPRESS (0657),MONTIEL 1718,MATADEROS,Capital Federal,0,0,1,0,Lun. a Vie. 08:00hs a 22:00hs ,Sáb. 08:00hs a 22:00hs ,Dom. 11:00hs a 20:00hs ,-34.657109,-58.518177
3426,11559001,AGL ELECTRICIDAD EL GAUCHITO,AV. JUAN B. ALBERDI 5388,MATADEROS,Capital Federal,0,0,1,0,Lun. a Vie. 09:00hs a 12:00hs y 15:00hs a 20:00hs,Sáb. 09:00hs a 13:00hs y 15:00hs a 20:00hs,,-34.648215,-58.498664
3475,11949302,MAFALDA,ALBARINO 2100,MATADEROS,Capital Federal,0,1,1,0,Lun. a Vie. 08:30hs a 17:00hs ,,,-34.657091,-58.487854
3479,5319375,CARREFOUR EXPRESS (722),EMILIO CASTRO 6178,MATADEROS,Capital Federal,0,0,1,0,Lun. a Vie. 08:00hs a 22:00hs ,Sáb. 08:00hs a 22:00hs ,Dom. 11:00hs a 20:00hs ,-34.648777,-58.508565
3576,12349028,EMILIO CASTRO,EMILIO CASTRO 7405,MATADEROS,Capital Federal,1,1,1,0,Lun. a Vie. 09:00hs a 20:00hs ,,,-34.654677,-58.521373
3853,8149328,FINANCAL SRL,JUAN B PRIMOLI 7469 PISO 1,MATADEROS,Capital Federal,1,1,1,0,Lun. a Vie. 10:00hs a 18:00hs ,,,-34.662812,-58.515648
3670,5319386,CARREFOUR EXPRESS (742),JUAN B. ALBERDI 5494,MATADEROS,Capital Federal,0,0,1,0,Lun. a Vie. 08:00hs a 22:00hs ,Sáb. 08:00hs a 22:00hs ,Dom. 08:00hs a 22:00hs ,-34.648985,-58.49965
4501,9049051,PANALERA LARRAZABAL,AV. LARRAZABAL 1122,MATADEROS,Capital Federal,0,1,1,0,Lun. a Vie. 09:00hs a 13:00hs y 16:00hs a 19:30hs,,,-34.64962,-58.504201
4786,11949530,NORMIS,AV. LISANDRO DE LA TORRE 1529,MATADEROS,Capital Federal,1,1,1,0,Lun. a Vie. 09:00hs a 21:00hs ,Sáb. 09:00hs a 21:00hs ,,-34.654155,-58.510837
4812,10249995,TRES REINAS,AV. DIRECTORIO 5787,MATADEROS,Capital Federal,1,1,1,0,Lun. a Vie. 15:00hs a 21:00hs ,Sáb. 11:30hs a 14:00hs y 16:00hs a 20:00hs,,-34.655792,-58.497153
4846,11949541,PAGO MARTA,JOSE ENRIQUE RODO 7122,MATADEROS,Capital Federal,0,1,1,0,Lun. a Vie. 10:00hs a 19:00hs ,,,-34.663122,-58.509463
5302,11949599,AYLIN,AV. REMEDIOS 4912,MATADEROS,Capital Federal,1,1,1,0,Lun. a Vie. 08:30hs a 19:30hs ,Sáb. 08:30hs a 19:30hs ,,-34.651755,-58.488341
5599,8159468,AGL-SEGUROS GAETANO,POLA 1117,MATADEROS,Capital Federal,0,0,1,0,Lun. a Vie. 14:00hs a 19:00hs ,,,-34.649157,-58.501599
