IDSUCURSAL,NRO_AGENTE_PF,NOMBRE,DIRECCION,LOCALIDAD,PROVINCIA,WESTERN_UNION,ENVIO_NACIONAL,PAGO_FACTURAS,RECARGA_FACIL,HS_LAV,HS_SABADO,HS_DOMINGO,LATITUD,LONGITUD
449,9902245,CORREO SALTA - C,DEAN FUNES GREGORIO 160,SALTA,Salta,1,0,1,0,Lun. a Vie. 08:00hs a 20:00hs ,,,-24.78809722,-65.40805463
1049,11649050,CYBER CONEXION,ALVARADO 1373,SALTA,Salta,1,1,1,0,Lun. a Vie. 09:00hs a 13:00hs y 15:00hs a 21:00hs,Sáb. 09:30hs a 13:00hs ,,-24.79041,-65.420375
1215,10249313,AGENCIA TOMBOLA NUNEZ,SAN MARTIN 1706,SALTA,Salta,0,1,1,0,Lun. a Vie. 09:00hs a 13:00hs y 18:00hs a 20:00hs,,,-24.79237724,-65.42658508
919,9902741,CORREO AGENCIA POSTAL 2,GRAL. JUSTO JOSE DE URQUIZA 998,SALTA,Salta,1,0,1,0,Lun. a Vie. 08:00hs a 16:00hs ,,,-24.79185955,-65.4166221
971,90015013,C.S. LIBERTAD SALTA,MONS. TAVELLA Y EX COMB DE MALVINAS,SALTA,Salta,1,1,1,0,Lun. a Vie. 08:00hs a 22:00hs ,Sáb. 08:00hs a 22:00hs ,,-24.830427,-65.429915
984,9902774,CORREO CENTRO CIVICO GRAND BOURG,AV.DE LOS INCAS S/N,SALTA,Salta,1,0,1,0,Lun. a Vie. 08:00hs a 15:00hs ,,,-24.779101,-65.444384
1403,7449030,YEMINA MODA,LA RIOJA 2137,SALTA,Salta,0,1,1,0,Lun. a Vie. 09:30hs a 13:30hs y 18:30hs a 22:00hs,Sáb. 10:30hs a 13:30hs y 18:30hs a 22:00hs,Dom. 10:30hs a 13:30hs ,-24.79697771,-65.43280414
1407,8149159,SUCREDITO SALTA,BME. MITRE 296,SALTA,Salta,0,1,1,0,Lun. a Vie. 08:30hs a 13:00hs y 16:30hs a 21:00hs,Sáb. 09:00hs a 13:00hs ,,-24.78643647,-65.41065035
1247,90003022,CHANGO MAS SALTA (WAL MART),AV. PARAGUAY 1450,SALTA,Salta,1,1,1,0,Lun. a Vie. 08:00hs a 22:00hs ,Sáb. 08:00hs a 22:00hs ,Dom. 08:00hs a 22:00hs ,-24.8044281,-65.418623
1251,9902800,CORREO AGENCIA CIUDAD JUDICIAL SALTA,AV. DR. BERNARDO HOUSSAY Y RIVADAVIA,SALTA,Salta,1,0,1,0,Lun. a Vie. 08:00hs a 13:00hs ,,,-24.782977,-65.411801
1622,5349233,DAMESCO I,AV. PARAGUAY 2550,SALTA,Salta,0,1,1,0,Lun. a Vie. 08:00hs a 13:00hs y 16:30hs a 22:00hs,Sáb. 08:00hs a 13:00hs y 16:30hs a 22:00hs,Dom. 09:00hs a 12:30hs ,-24.821075,-65.426588
1623,5349234,DAMESCO II,AV. BOLIVIA 2550,SALTA,Salta,0,1,1,0,Lun. a Vie. 08:00hs a 13:00hs y 16:30hs a 22:00hs,Sáb. 08:00hs a 13:00hs y 16:30hs a 22:00hs,Dom. 09:00hs a 12:30hs ,-24.755326,-65.411463
1624,5349235,DAMESCO III,AV. PARAGUAY 1250,SALTA,Salta,0,1,1,0,Lun. a Vie. 08:00hs a 13:00hs y 16:30hs a 22:00hs,Sáb. 08:00hs a 13:00hs y 16:30hs a 22:00hs,Dom. 09:00hs a 12:30hs ,-24.8044292,-65.418612
1717,10249537,AGENCIA RAQUEL,FELIPE VARELA 690-698,SALTA,Salta,0,1,1,0,Lun. a Vie. 09:00hs a 14:00hs y 17:30hs a 22:30hs,Sáb. 10:00hs a 14:30hs y 17:30hs a 22:30hs,,-24.82862863,-65.3954278
1718,11649251,CYBER CONEXION II,AV. CONTRERAS JOSE EVARISTO 1400,SALTA,Salta,0,1,1,0,Lun. a Vie. 09:30hs a 13:30hs y 17:30hs a 21:00hs,Sáb. 09:30hs a 13:30hs y 17:30hs a 21:00hs,,-24.812092,-65.425224
1723,9749091,ARJONA VIRGINIA GLADYS GRACIELA,RADIO GRAL.PICO 2772,SALTA,Salta,0,1,1,0,Lun. a Vie. 09:00hs a 14:30hs y 17:30hs a 23:00hs,Sáb. 09:00hs a 15:00hs y 17:30hs a 20:30hs,Dom. 09:30hs a 14:30hs ,-24.854959,-65.441853
1765,10249551,AGENCIA RULY,ARMADA ARGENTINA 309,SALTA,Salta,0,1,1,0,Lun. a Vie. 09:00hs a 13:00hs y 17:00hs a 22:00hs,Sáb. 09:00hs a 13:00hs y 17:00hs a 22:00hs,,-24.72083828,-65.4036631
1795,7549788,MARY Y MARY,LOS MIRLOS 4486,SALTA,Salta,0,1,1,0,Lun. a Vie. 09:00hs a 15:30hs y 18:00hs a 24:00hs,Sáb. 09:00hs a 15:30hs y 18:00hs a 24:00hs,,-24.851124,-65.433739
1796,12049081,DRUGTORE  MATIAS,ALVARADO 960,SALTA,Salta,1,1,1,0,Lun. a Vie. 09:00hs a 21:00hs ,Sáb. 09:00hs a 21:00hs ,,-24.79070265,-65.41460731
1610,8118017,COREFIN (SALTA),SAN MARTIN 522,SALTA,Salta,0,0,1,0,Lun. a Vie. 08:30hs a 13:00hs y 17:00hs a 21:00hs,Sáb. 09:00hs a 13:00hs ,,-24.793758,-65.410348
1942,5349290,DAMESCO IV,AV. REYES CATOLICOS 1583,SALTA,Salta,0,1,1,0,Lun. a Vie. 08:30hs a 13:30hs y 16:30hs a 22:00hs,Sáb. 08:30hs a 13:30hs y 16:30hs a 22:00hs,,-24.758898,-65.398377
2308,8002008,SICOM SALTA,CASEROS 730,SALTA,Salta,0,0,1,0,Lun. a Vie. 09:00hs a 13:00hs y 17:00hs a 21:00hs,Sáb. 09:00hs a 13:00hs ,,-24.78969,-65.412832
2347,9749175,SAN.TO.RO,PJE AGUSTIN DE CASTANARES 591,SALTA,Salta,0,1,1,0,Lun. a Vie. 09:00hs a 23:00hs ,,,-24.811239,-65.412483
2358,11449042,INI COMPUTACION,25 DE MAYO 147,SALTA,Salta,0,1,1,0,Lun. a Vie. 08:00hs a 23:00hs ,,,-24.78762159,-65.41499794
2369,5349322,DAMESCO V,AV. JUAN DOMINGO PERON NRO 3170,SALTA,Salta,0,1,1,0,Lun. a Vie. 08:00hs a 22:00hs ,,,-24.778443,-65.432096
2389,12049420,DRUGSTORE SAN JOSE,MARIANO MORENO 2070,SALTA,Salta,0,1,1,0,Lun. a Vie. 09:00hs a 13:00hs y 18:00hs a 22:00hs,Sáb. 09:00hs a 13:00hs y 18:00hs a 22:00hs,,-24.802872,-65.433469
2444,12149029,DON RAUL,RETAMOZO DE INIGUEZ 4794,SALTA,Salta,0,1,1,0,Lun. a Vie. 09:00hs a 22:00hs ,Sáb. 09:00hs a 22:00hs ,,-24.5059424,-65.25576798
2800,90001185,C.S. CARREFOUR SALTA,20 DE FEBRERO 37,SALTA,Salta,1,1,1,0,Lun. a Vie. 09:00hs a 22:00hs ,Sáb. 09:00hs a 17:00hs ,,-24.789144,-65.413697
2913,12049545,DRUGSTORE MATIAS II,BALCARCE 39 LOC 1,SALTA,Salta,1,1,1,0,Lun. a Vie. 09:00hs a 14:00hs y 16:30hs a 21:00hs,,,-24.789222,-65.412349
2977,12049580,OTI,BLOCK 36 PB DPTO 1 BARRIO JUAN PABLO II,SALTA,Salta,0,1,1,0,Lun. a Vie. 09:00hs a 12:00hs y 16:00hs a 21:00hs,Sáb. 09:00hs a 12:00hs ,,-24.727369,-65.397626
3221,6949462,LIBRERIA KUKY,PUEYRREDON 1365,SALTA,Salta,1,1,1,0,Lun. a Vie. 09:00hs a 13:30hs y 17:00hs a 22:30hs,Sáb. 09:00hs a 13:30hs y 17:00hs a 22:30hs,,-24.773165,-65.405208
3277,6649026,SAN CAYETANO LACTEOS,PASAJE GONZALO ABREU 2012,SALTA,Salta,0,1,1,0,Lun. a Vie. 09:00hs a 14:30hs y 18:00hs a 24:00hs,Sáb. 08:30hs a 14:30hs y 18:00hs a 24:00hs,Dom. 10:00hs a 14:00hs ,-24.781775,-65.429981
3083,9749215,EL GAUCHO,BALCARCE 1999,SALTA,Salta,0,1,1,0,Lun. a Vie. 09:00hs a 14:00hs y 18:00hs a 21:00hs,Sáb. 09:00hs a 14:00hs y 18:00hs a 21:00hs,Dom. 09:00hs a 14:00hs ,-24.764972,-65.41003
3097,10249740,LOS TRES PIBES,RICARDO BALBIN 75,SALTA,Salta,0,1,1,0,Lun. a Vie. 10:00hs a 13:00hs y 18:00hs a 21:00hs,Sáb. 10:00hs a 13:00hs ,,-24.861689,-65.473434
3104,12149039,MERCADITO FER MAR,APENINOS MZNA 179 L1 BARRIO R. ROMERO,SALTA,Salta,0,1,1,0,Lun. a Vie. 08:00hs a 15:00hs y 18:00hs a 21:00hs,,,-24.788639,-65.448813
3414,11949289,MAXI KIOSKO LA 20,20 DE FEBRERO 105,SALTA,Salta,0,1,1,0,Lun. a Vie. 08:00hs a 22:00hs ,Sáb. 09:30hs a 14:00hs y 18:00hs a 21:00hs,,-24.788264,-65.413635
3481,11949304,POLIRRUBRO BELGICA,AV. BELGICA  1405,SALTA,Salta,1,1,1,0,Lun. a Vie. 09:00hs a 22:00hs ,,,-24.804782,-65.42443
3546,8049341,EMPRESA DE SERVICIOS SAN MARTIN,SAN MARTIN 822,SALTA,Salta,1,1,1,0,Lun. a Vie. 09:00hs a 13:00hs y 17:00hs a 22:00hs,,,-24.79321,-65.414417
3555,8249071,EL NAZARENO,MZNA 38 CASA 18 BARRIO SAN CARLOS,SALTA,Salta,1,1,1,0,Lun. a Vie. 09:00hs a 13:00hs y 17:00hs a 21:00hs,Sáb. 09:00hs a 13:00hs ,,-25.891923,-65.928325
3579,7059042,AGL MAXI KIOSKO LA 20,20 DE FEBRERO 105,SALTA,Salta,0,0,1,0,Lun. a Vie. 08:00hs a 22:00hs ,Sáb. 09:30hs a 14:00hs y 18:00hs a 21:00hs,,-24.788252,-65.413698
3335,8118047,COREFIN (SALTA II),CASEROS 720,SALTA,Salta,0,0,1,0,Lun. a Vie. 09:00hs a 13:00hs y 17:00hs a 20:00hs,,,-24.789671,-65.412678
3385,12049795,DRUGSTORE RAFA,PEDRO ARIAS VELAZQUEZ 330,SALTA,Salta,1,1,1,0,Lun. a Vie. 08:30hs a 14:30hs y 17:00hs a 23:00hs,Sáb. 08:30hs a 14:30hs y 17:00hs a 23:00hs,Dom. 08:30hs a 14:30hs y 17:00hs a 23:00hs,-24.761799,-65.41187
3841,12349037,DRUGSTORE MITRE,MITRE 341,SALTA,Salta,0,1,1,0,Lun. a Vie. 08:30hs a 13:00hs y 17:00hs a 21:00hs,,,-24.9067,-65.491529
3661,9749259,DESPENSA LILIANA,CASEROS 1602,SALTA,Salta,1,1,1,0,Lun. a Vie. 09:00hs a 14:00hs y 18:00hs a 24:00hs,Sáb. 11:00hs a 14:00hs y 19:00hs a 24:00hs,Dom. 11:00hs a 14:00hs y 19:00hs a 24:00hs,-24.788724,-65.424963
3957,11949420,MULTIRRUBROS EL REY SALOMON,JUAN GALVEZ 16,SALTA,Salta,1,1,1,0,Lun. a Vie. 07:30hs a 12:30hs y 13:30hs a 19:30hs,Sáb. 09:00hs a 13:00hs ,Dom. 09:00hs a 13:00hs ,-24.797837,-65.377241
4414,11149064,ESTUDIO MIMESSI & ASOC,ENTRE RIOS 1155,SALTA,Salta,0,1,1,0,Lun. a Vie. 08:30hs a 13:30hs y 16:30hs a 19:00hs,,,-24.78086,-65.417957
4418,12449184,NUEVO T-KILA,SAN MARTIN 1337,SALTA,Salta,0,1,1,0,Lun. a Vie. 08:00hs a 00:00hs ,,,-27.465907,-58.99436
4760,12449263,DRUGSTORE THIAGUITO,SARMIENTO 6,SALTA,Salta,1,1,1,0,Lun. a Vie. 09:30hs a 14:00hs y 17:00hs a 23:00hs,Sáb. 15:30hs a 22:00hs ,,-24.789326,-65.416352
4824,12449279,DRUGSTORE- MEN STORE,ESPANA 743,SALTA,Salta,1,1,1,0,Lun. a Vie. 09:00hs a 13:00hs y 17:00hs a 21:00hs,Sáb. 09:00hs a 13:00hs ,,-24.7885,-65.412987
4527,10049030,DINERO FULL - ELECTROMAS,AV. BELGRANO 461,SALTA,Salta,1,1,1,0,Lun. a Vie. 08:00hs a 18:00hs ,,,-24.787742,-65.409114
4568,10349110,TERMINAL SALTA,AV. HIPOLITO IRIGOYEN 339 GONDOLA G7,SALTA,Salta,1,1,1,0,Lun. a Vie. 09:00hs a 22:00hs ,Sáb. 09:00hs a 22:00hs ,,-24.795358,-65.398569
6689,,EL PREMIO MAYOR,GORRITI  352,SALTA,Salta,1,0,0,0,Lun. a Vie. 0900 A 1330 1630 A 2030,Sáb. 0900 A 1330 1800 A 2030,,-24.793711,-65.419695
6694,,MASVENTAS SALTA,ESPANA  610,SALTA,Salta,1,0,0,0,Lun. a Vie. 0830 A 1400,,,-24.788503,-65.4111
6695,,MASVENTAS SALTA ANEXO BELGRANO,AV.BELGRANO  693,SALTA,Salta,1,0,0,0,Lun. a Vie. 0830 A 1400,,,-24.787757,-65.411963
4996,5349388,TOP MARKET III,LOS EUCALIPTUS 398,SALTA,Salta,0,1,1,0,Lun. a Vie. 08:30hs a 14:00hs y 18:00hs a 22:00hs,Sáb. 08:30hs a 14:00hs y 18:00hs a 22:00hs,Dom. 09:00hs a 14:00hs ,-24.770449,-65.390809
5000,5349389,TOP MARKET I,LAS RETAMAS 290,SALTA,Salta,0,1,1,0,Lun. a Vie. 08:30hs a 14:00hs y 18:00hs a 22:00hs,Sáb. 08:30hs a 14:00hs y 18:00hs a 22:00hs,Dom. 09:00hs a 14:00hs ,-24.77584,-65.392442
5002,5349390,TOP MARKET II,LOS EUCALIPTUS 233,SALTA,Salta,0,1,1,0,Lun. a Vie. 08:30hs a 14:00hs y 18:00hs a 22:00hs,Sáb. 08:30hs a 14:00hs y 18:00hs a 22:00hs,Dom. 09:00hs a 14:00hs ,-24.770827,-65.394446
5024,12449307,PECA¿S DRUGSTORE,AV H IRIGOYEN 52,SALTA,Salta,1,1,1,0,Lun. a Vie. 07:00hs a 24:00hs ,Sáb. 07:00hs a 24:00hs ,,-24.791031,-65.402034
5777,12649031,REIR ES MAGIA,MZA 522 C CASA 18 B.HUAICO,SALTA,Salta,0,1,1,0,Lun. a Vie. 08:00hs a 21:00hs ,Sáb. 08:00hs a 21:00hs ,,-24.720536,-65.414014
5842,8159569,AGL SEGUROS MM,CATAMARCA 506,SALTA,Salta,0,0,1,0,Lun. a Vie. 08:00hs a 13:30hs y 16:00hs a 21:00hs,Sáb. 09:00hs a 13:30hs ,,-24.796773,65.406162
5847,12449380,EL PORTAL,20 DE FEBRERO 1437 LOCAL 1009,SALTA,Salta,0,1,1,0,Lun. a Vie. 08:30hs a 22:30hs ,Sáb. 08:30hs a 22:30hs ,Dom. 08:30hs a 22:30hs ,-24.771162,-65.41226
5876,8049404,BIBLIOTECA VIRTUAL,MANZANA 426C LOTE 14 BARRIO PALERMO I,SALTA,Salta,1,1,1,0,Lun. a Vie. 09:00hs a 13:00hs y 16:00hs a 20:00hs,Sáb. 09:30hs a 13:00hs y 16:00hs a 20:00hs,,-24.790366,-65.46101
5226,9749339,DESPENSA ABUS,MZA.485D CASA 18 BRIO MIRASOLES,SALTA,Salta,0,1,1,0,Lun. a Vie. 09:00hs a 13:30hs y 18:30hs a 22:00hs,Sáb. 09:00hs a 15:00hs y 18:00hs a 22:00hs,Dom. 09:00hs a 15:00hs y 18:00hs a 22:00hs,-24.724212,-65.415414
5892,12449381,CUATRO ESTACIONES,ALTE. BROWN 301,SALTA,Salta,0,1,1,0,Lun. a Vie. 09:00hs a 14:00hs y 18:00hs a 23:00hs,Sáb. 09:00hs a 14:00hs y 18:00hs a 23:00hs,Dom. 10:00hs a 14:00hs y 18:00hs a 22:00hs,-24.785156,-65.421873
5958,90001257,C.S.SALTA,LEGUIZAMON 949,SALTA,Salta,1,1,1,0,Lun. a Vie. 09:00hs a 18:00hs ,Sáb. 09:00hs a 12:30hs ,,-24.783515,-65.415136
5310,12349057,LOCUTORIO SAN BERNARDO,JOSE TOBIAS 52,SALTA,Salta,0,1,1,0,Lun. a Vie. .8:00hs a 22:00hs ,Sáb. 08:00hs a 21:00hs ,Dom. 08:00hs a 13:00hs ,-24.791249,-65.399828
5367,8149478,ANDRES ZOTTOS SEGUROS,AV. VIRREY TOLEDO 442,SALTA,Salta,0,1,1,0,Lun. a Vie. 08:30hs a 20:00hs ,,,-24.785007,-65.402565
5376,8149479,CEO,BELGRANO 755,SALTA,Salta,0,1,1,0,Lun. a Vie. 08:30hs a 13:30hs y 17:00hs a 19:00hs,,,-24.787481,-65.412777
5379,8149480,JORGE ZOTTOS SEGUROS,NECOCHEA 398,SALTA,Salta,0,1,1,0,Lun. a Vie. 08:30hs a 14:00hs y 17:00hs a 20:00hs,,,-24.778838,-65.406998
