IDSUCURSAL,NRO_AGENTE_PF,NOMBRE,DIRECCION,LOCALIDAD,PROVINCIA,WESTERN_UNION,ENVIO_NACIONAL,PAGO_FACTURAS,RECARGA_FACIL,HS_LAV,HS_SABADO,HS_DOMINGO,LATITUD,LONGITUD
302,9902079,CORREO GONZALEZ CATAN,DR. JOSE EQUIZA 4491,GONZALEZ CATAN,Buenos Aires,1,0,1,0,Lun. a Vie. 10:00hs a 18:00hs ,,,-34.77216,-58.644251
2171,12249039,LOCUTORIO RUTA,JOSE MARIA MORENO 575,GONZALEZ CATAN,Buenos Aires,0,1,1,0,Lun. a Vie. 08:30hs a 14:00hs y 15:00hs a 18:00hs,Sáb. 08:30hs a 13:00hs ,,-34.770535,-58.64685
2174,12249042,LOCUTORIO AVENIDA,AV. SIMON PEREZ 4925,GONZALEZ CATAN,Buenos Aires,0,1,1,0,Lun. a Vie. 08:30hs a 14:00hs y 15:00hs a 20:00hs,Sáb. 09:00hs a 13:00hs ,,-34.776137,-58.641576
2185,12249046,LOCUTORIO PUENTE,JUAN MANUEL DE ROSAS 13908,GONZALEZ CATAN,Buenos Aires,0,1,1,0,Lun. a Vie. 08:30hs a 14:00hs y 15:00hs a 18:00hs,Sáb. 08:30hs a 13:00hs ,,-34.7601815,-58.6150095
2187,12249048,LOCUTORIO LARRE,JOSE LEON LARRE 679,GONZALEZ CATAN,Buenos Aires,0,1,1,0,Lun. a Vie. 08:30hs a 14:00hs y 15:00hs a 18:00hs,Sáb. 08:30hs a 13:00hs ,,-34.77064451,-58.64785698
3140,6959001,AGL CASA ELISU,SAN BLAS 44,GONZALEZ CATAN,Buenos Aires,0,0,1,0,Lun. a Vie. 08:00hs a 21:00hs ,Sáb. 08:00hs a 21:00hs ,,-34.777393,-58.629218
3200,8749086,CATAN,BRIG. J.M. DE ROSAS 14457,GONZALEZ CATAN,Buenos Aires,1,1,1,0,Lun. a Vie. 10:00hs a 20:00hs ,Sáb. 10:00hs a 20:00hs ,,-34.761076,-58.615814
3240,8249065,ARPY TURISMO,BALBOA 7071,GONZALEZ CATAN,Buenos Aires,0,1,1,0,Lun. a Vie. 09:00hs a 14:00hs y 16:00hs a 21:00hs,Sáb. 09:00hs a 14:00hs y 16:00hs a 21:00hs,,-34.781934,-58.610587
3265,6349393,DANILA,ZELADA 6630,GONZALEZ CATAN,Buenos Aires,1,1,1,0,Lun. a Vie. 09:00hs a 21:00hs ,Sáb. 09:00hs a 21:00hs ,Dom. 09:00hs a 13:00hs ,-34.780911,-58.605516
3015,5319347,CARREFOUR EXPRESS (477),E. PEREZ 4566¿,GONZALEZ CATAN,Buenos Aires,0,0,1,0,Lun. a Vie. 08:00hs a 21:30hs ,Sáb. 08:00hs a 21:30hs ,Dom. 11:00hs a 20:00hs ,-34.773185,-58.645129
3068,12149037,LA RUBIA,CAYENA 6472,GONZALEZ CATAN,Buenos Aires,0,1,1,0,Lun. a Vie. 09:00hs a 19:00hs ,Sáb. 09:00hs a 19:00hs ,,-34.760738,-58.625975
3076,6149308,EBENEZEL,BARRIENTOS 5701,GONZALEZ CATAN,Buenos Aires,0,1,1,0,Lun. a Vie. 09:00hs a 13:00hs y 16:00hs a 20:30hs,,,-34.776177,-58.627611
3768,12049989,CHE QUYQUYHO,INT. RUSSO 1587,GONZALEZ CATAN,Buenos Aires,1,1,1,0,Lun. a Vie. 08:00hs a 22:00hs ,Sáb. 08:00hs a 22:00hs ,Dom. 08:00hs a 22:00hs ,-34.731679,-58.643114
4698,12449250,BURBUJAS,LARRE 394,GONZALEZ CATAN,Buenos Aires,0,1,1,0,Lun. a Vie. 07:00hs a 18:00hs ,Sáb. 07:00hs a 14:00hs ,,-34.768387,-58.646199
4598,8249093,NSA  AGENCIA A Y L,INT PEDRO RUSSO 4424,GONZALEZ CATAN,Buenos Aires,0,1,1,0,Lun. a Vie. 09:00hs a 13:00hs y 16:00hs a 19:00hs,Sáb. 09:00hs a 13:00hs y 16:00hs a 19:00hs,Dom. 09:00hs a 13:00hs ,-34.750279,-58.619496
6722,,NSA AR GONZALEZ CATAN SILED KM 29,AV. SENGEL  5400 LOC. 19,GONZALEZ CATAN,Buenos Aires,1,0,0,0,Lun. a Vie. 0800 A 2000,Sáb. 0800 A 2000,,-34.762139,-58.630113
5079,9149029,MARCELO BATAGLIA,LASALLE 3888,GONZALEZ CATAN,Buenos Aires,1,1,1,0,Lun. a Vie. 09:00hs a 13:00hs y 16:00hs a 19:30hs,Sáb. 09:00hs a 13:00hs ,,-34.769146,-58.652401
5964,8149606,OFICINA SEGUROS A&L,TUNUYAN 883,GONZALEZ CATAN,Buenos Aires,0,1,1,0,Lun. a Vie. 10:00hs a 18:00hs ,,,-34.778053,-58.644362
5350,10349144,CAP G CATAN,J M MORENO 202,GONZALEZ CATAN,Buenos Aires,1,1,1,0,Lun. a Vie. 09:00hs a 19:00hs ,Sáb. 09:00hs a 13:00hs ,,-34.768296,-58.643632
5399,8249104,ARTY TURISMO II,ACHUPALLAS 6778,GONZALEZ CATAN,Buenos Aires,1,1,1,0,Lun. a Vie. 09:00hs a 13:00hs y 15:00hs a 20:00hs,Sáb. 09:00hs a 13:00hs y 15:00hs a 20:00hs,,-34.777381,-58.609078
6110,8149681,AYB SEGUROS,MATIENZO 5839,GONZALEZ CATAN,Buenos Aires,0,1,1,0,Lun. a Vie. 09:00hs a 13:00hs y 16:00hs a 20:00hs,Sáb. 09:00hs a 13:00hs ,,-34.77459,-58.622845
6111,8149682,AYB SEGUROS II,CARAFFA 7296,GONZALEZ CATAN,Buenos Aires,0,1,1,0,Lun. a Vie. 09:00hs a 13:00hs y 16:00hs a 20:00hs,Sáb. 09:00hs a 13:00hs ,,-34.772243,-58.629619
