IDSUCURSAL,NRO_AGENTE_PF,NOMBRE,DIRECCION,LOCALIDAD,PROVINCIA,WESTERN_UNION,ENVIO_NACIONAL,PAGO_FACTURAS,RECARGA_FACIL,HS_LAV,HS_SABADO,HS_DOMINGO,LATITUD,LONGITUD
99,10249073,AGENCIA CHAMIGO,ACEVEDO 507,VILLA CRESPO,Capital Federal,0,1,1,0,Lun. a Vie. 10:00hs a 19:30hs ,Sáb. 10:00hs a 14:00hs ,,-34.59691014,-58.43930545
163,5207012,AXION LUIS VIALE (419),SAN MARTIN 1521,VILLA CRESPO,Capital Federal,0,0,0,1,Lun. a Vie. 00:00hs a 24:00hs ,Sáb. 00:00hs a 24:00hs ,Dom. 00:00hs a 24:00hs ,-34.60597383,-58.45211417
76,7049143,DRUGSTORE HOMERO,FRIAS 232,VILLA CRESPO,Capital Federal,1,1,1,0,Lun. a Vie. 09:00hs a 20:30hs ,Sáb. 09:00hs a 16:30hs ,,-34.60251394,-58.43544553
249,9902022,CORREO VILLA CRESPO,AV. SCALABRINI ORTIZ 176,VILLA CRESPO,Capital Federal,1,0,1,0,Lun. a Vie. 10:00hs a 18:00hs ,,,-34.60059104,-58.44021606
1176,5449326,ARTICULOS DEL HOGAR DICK,AV. CORRIENTES 6076,VILLA CRESPO,Capital Federal,1,1,1,0,Lun. a Vie. 09:00hs a 12:00hs y 15:00hs a 19:00hs,Sáb. 09:00hs a 13:00hs ,,-34.59253439,-58.44627253
1180,7049418,POLIRUBRO EL BOCHA,TRES ARROYOS 198,VILLA CRESPO,Capital Federal,1,1,1,0,Lun. a Vie. 07:30hs a 20:30hs ,Sáb. 07:30hs a 19:00hs ,,-34.60092561,-58.44634745
2552,5319272,CARREFOUR EXPRESS (0604),AV. ESTADO DE ISRAEL 4684,VILLA CRESPO,Capital Federal,0,0,1,0,Lun. a Vie. 08:00hs a 22:00hs ,Sáb. 08:00hs a 22:00hs ,Dom. 11:00hs a 20:00hs ,-34.600589,-58.430877
2558,5319276,CARREFOUR EXPRESS (0608),SERRANO 280,VILLA CRESPO,Capital Federal,0,0,1,0,Lun. a Vie. 08:00hs a 22:00hs ,Sáb. 08:00hs a 22:00hs ,Dom. 11:00hs a 20:00hs ,-34.598206,-58.444916
2577,5319098,CARREFOUR EXPRESS (0397),CORRIENTES 5980,VILLA CRESPO,Capital Federal,0,0,1,0,Lun. a Vie. 08:00hs a 22:00hs ,Sáb. 08:00hs a 22:00hs ,Dom. 11:00hs a 20:00hs ,-34.59349,-58.445665
2674,5319199,CARREFOUR EXPRESS (0528),AGUIRRE 236,VILLA CRESPO,Capital Federal,0,0,1,0,Lun. a Vie. 08:00hs a 22:00hs ,Sáb. 08:00hs a 22:00hs ,Dom. 11:00hs a 20:00hs ,-34.599589,-58.43358
2466,12049465,MAXIKIOSCO VALENTINO,SCALABRINI ORTIZ 333,VILLA CRESPO,Capital Federal,1,1,1,0,Lun. a Vie. 08:30hs a 20:30hs ,Sáb. 08:30hs a 20:30hs ,,-34.599662,-58.438386
2488,5319080,CARREFOUR EXPRESS (0367),ESTADO DE ISRAEL 4309,VILLA CRESPO,Capital Federal,0,0,1,0,Lun. a Vie. 08:00hs a 22:00hs ,Sáb. 08:00hs a 22:00hs ,Dom. 11:00hs a 20:00hs ,-34.597914,-58.426693
2975,5319330,CARREFOUR EXPRESS (661),ARAOZ 1140,VILLA CRESPO,Capital Federal,0,0,1,0,Lun. a Vie. 08:30hs a 22:00hs ,Sáb. 08:30hs a 22:00hs ,Dom. 11:00hs a 20:00hs ,-34.594587,-58.428788
2700,5319218,CARREFOUR EXPRESS (0547),AV. DORREGO 851,VILLA CRESPO,Capital Federal,0,0,1,0,Lun. a Vie. 08:00hs a 22:00hs ,Sáb. 08:00hs a 22:00hs ,Dom. 11:00hs a 20:00hs ,-34.59134,-58.447194
2747,5319308,CARREFOUR EXPRESS (0645),DRAGO 285,VILLA CRESPO,Capital Federal,0,0,1,0,Lun. a Vie. 08:00hs a 22:00hs ,Sáb. 08:00hs a 22:00hs ,Dom. 11:00hs a 20:00hs ,-34.601533,-58.437163
2751,5319313,CARREFOUR EXPRESS (0651),APOLINARIO FIGUEROA 39,VILLA CRESPO,Capital Federal,0,0,1,0,Lun. a Vie. 08:00hs a 22:00hs ,Sáb. 08:00hs a 22:00hs ,Dom. 11:00hs a 20:00hs ,-34.602448,-58.442844
3441,8749123,AGENCIA GURRUCHAGA,JUAN RAMIREZ DE VELASCO 790,VILLA CRESPO,Capital Federal,1,1,1,0,Lun. a Vie. 10:00hs a 19:00hs ,Sáb. 10:00hs a 16:00hs ,,-34.595912,-58.439164
4178,12449112,EL ABUELO PEPINO (EX COBRO EXPRESS),AV. CORDOBA 5971,VILLA CRESPO,Capital Federal,0,1,1,0,Lun. a Vie. 09:00hs a 17:00hs ,,,-34.584705,-58.44417
4242,90049050,NEW MULTISERVICIOS VEA CORDOBA,AV.CORDOBA 6103,VILLA CRESPO,Capital Federal,1,1,1,0,Lun. a Vie. 09:00hs a 20:00hs ,Sáb. 09:00hs a 13:00hs ,,-34.583646,-58.446484
4254,5319402,CARREFOUR EXPRESS (748),MALABIA 494,VILLA CRESPO,Capital Federal,0,0,1,0,Lun. a Vie. 08:30hs a 22:00hs ,Sáb. 08:30hs a 22:00hs ,Dom. 11:00hs a 20:00hs ,-34.598111,-58.438761
4599,12449230,KIOSCO ALMACEN JOSEFITA Y CONAN,AV. JUAN B. JUSTO 2991,VILLA CRESPO,Capital Federal,0,1,1,0,Lun. a Vie. 09:00hs a 19:00hs ,,,-34.597616,-58.448739
5676,8759060,AGL DSOLUCIONES,AV. WARNES 963,VILLA CRESPO,Capital Federal,0,0,1,0,Lun. a Vie. 09:00hs a 19:00hs ,Sáb. 09:00hs a 13:00hs ,,-34.599364,-58.44991
5766,8159528,AGL SEGUROS ATM VILLA CRESPO,JUAN RAMIREZ DE VELASCO 580,VILLA CRESPO,Capital Federal,0,0,1,0,Lun. a Vie. 10:00hs a 18:00hs ,,,-34.597778,-58.437534
6014,8159610,AGL SEGUROS MANZOTTI,AVENIDA ESTADO DE ISRAEL 4253,VILLA CRESPO,Capital Federal,0,0,1,0,Lun. a Vie. 09:00hs a 18:00hs ,,,-34.597527,-58.425669
4895,7849057,VENTURA & ASOCIADOS,GALICIA 461,VILLA CRESPO,Capital Federal,0,1,1,0,Lun. a Vie. 10:00hs a 17:00hs ,,,-34.60364,-58.448286
