IDSUCURSAL,NRO_AGENTE_PF,NOMBRE,DIRECCION,LOCALIDAD,PROVINCIA,WESTERN_UNION,ENVIO_NACIONAL,PAGO_FACTURAS,RECARGA_FACIL,HS_LAV,HS_SABADO,HS_DOMINGO,LATITUD,LONGITUD
114,90001028,C.S. PRIMERA JUNTA,AV. RIVADAVIA 5481,CABALLITO,Capital Federal,1,1,1,0,Lun. a Vie. 09:00hs a 18:00hs ,Sáb. 09:00hs a 12:30hs ,,-34.62064386,-58.44248155
245,9902018,CORREO PARQUE CENTENARIO,AV. ANGEL GALLARDO 756,CABALLITO,Capital Federal,1,0,1,0,Lun. a Vie. 10:00hs a 18:00hs ,,,-34.60587766,-58.44088262
305,9902082,CORREO FLORES,JOSE ARTIGAS 40,CABALLITO,Capital Federal,1,0,1,0,Lun. a Vie. 10:00hs a 18:00hs ,,,-34.62870458,-58.46424997
1022,8949201,TELECENTRO CABALLITO NORTE,AV. SAN MARTIN 1294,CABALLITO,Capital Federal,1,1,1,0,Lun. a Vie. 09:00hs a 20:00hs ,Sáb. 10:00hs a 13:00hs ,,-34.6068465,-58.448741
2019,90001082,C.S. CARREFOUR CABALLITO,AV. DONATO ALVAREZ 1351,CABALLITO,Capital Federal,1,1,1,0,Lun. a Vie. 10:00hs a 19:00hs ,Sáb. 10:00hs a 14:00hs ,Dom. 10:00hs a 14:00hs ,-34.61090384,-58.46070861
2378,12049414,LOCUTORIO RIO,RIO DE JANEIRO 922,CABALLITO,Capital Federal,0,1,1,0,Lun. a Vie. 08:00hs a 19:00hs ,Sáb. 09:00hs a 13:00hs ,,-34.604742,-58.431708
2543,5319083,CARREFOUR EXPRESS (0370),JUAN B. ALBERDI 371,CABALLITO,Capital Federal,0,0,1,0,Lun. a Vie. 08:00hs a 22:00hs ,Sáb. 08:00hs a 22:00hs ,Dom. 11:00hs a 20:00hs ,-34.622849,-58.433062
2568,5319092,CARREFOUR EXPRESS (0380),OTAMENDI 454,CABALLITO,Capital Federal,0,0,1,0,Lun. a Vie. 08:00hs a 22:00hs ,Sáb. 08:00hs a 22:00hs ,Dom. 11:00hs a 20:00hs ,-34.61157,-58.433431
2579,5319100,CARREFOUR EXPRESS (0400),CENTENERA 177,CABALLITO,Capital Federal,0,0,1,0,Lun. a Vie. 08:00hs a 22:00hs ,Sáb. 08:00hs a 22:00hs ,Dom. 11:00hs a 20:00hs ,-34.621767,-58.440987
2602,5319119,CARREFOUR EXPRESS (0420),AV. GAONA 1384,CABALLITO,Capital Federal,0,0,1,0,Lun. a Vie. 08:00hs a 22:00hs ,Sáb. 08:00hs a 22:00hs ,Dom. 11:00hs a 20:00hs ,-34.608761,-58.448706
2662,5319281,CARREFOUR EXPRESS (0615),AV. RIVADAVIA 4702,CABALLITO,Capital Federal,0,0,1,0,Lun. a Vie. 08:00hs a 22:00hs ,Sáb. 11:00hs a 20:00hs ,,-34.616246,-58.431826
2663,5319282,CARREFOUR EXPRESS (0616),RIO DE JANEIRO 71,CABALLITO,Capital Federal,0,0,1,0,Lun. a Vie. 08:00hs a 22:00hs ,Sáb. 11:00hs a 20:00hs ,,-34.614433,-58.430049
2667,5319285,CARREFOUR EXPRESS (0619),RAMOS MEJIA 1019,CABALLITO,Capital Federal,0,0,1,0,Lun. a Vie. 08:00hs a 22:00hs ,Sáb. 08:00hs a 22:00hs ,Dom. 11:00hs a 20:00hs ,-34.604033,-58.433346
2672,5319197,CARREFOUR EXPRESS (0526),HONORIO PUEYRREDON 925,CABALLITO,Capital Federal,0,0,1,0,Lun. a Vie. 08:00hs a 22:00hs ,Sáb. 08:00hs a 22:00hs ,Dom. 11:00hs a 20:00hs ,-34.609732,-58.443849
2676,5319201,CARREFOUR EXPRESS (0530),RIVADAVIA 6074,CABALLITO,Capital Federal,0,0,1,0,Lun. a Vie. 08:00hs a 22:00hs ,Sáb. 08:00hs a 22:00hs ,Dom. 11:00hs a 20:00hs ,-34.624611,-58.451361
2679,5319204,CARREFOUR EXPRESS (0533),ROSARIO 85,CABALLITO,Capital Federal,0,0,1,0,Lun. a Vie. 08:00hs a 22:00hs ,Sáb. 08:00hs a 22:00hs ,Dom. 11:00hs a 20:00hs ,-34.618448,-58.429754
2512,5319257,CARREFOUR EXPRESS (0587),ROJAS 16-18,CABALLITO,Capital Federal,0,0,1,0,Lun. a Vie. 08:00hs a 22:00hs ,Sáb. 08:00hs a 22:00hs ,Dom. 11:00hs a 20:00hs ,-34.620347,-58.44157
2825,5319076,CARREFOUR EXPRESS (0362),DIRECTORIO 1063,CABALLITO,Capital Federal,0,0,1,0,Lun. a Vie. 08:00hs a 22:00hs ,Sáb. 08:00hs a 22:00hs ,Dom. 11:00hs a 20:00hs ,-34.629253,-58.442459
2961,10249721,AGENCIA EL TREBOL,EL MAESTRO 98,CABALLITO,Capital Federal,1,1,1,0,Lun. a Vie. 09:00hs a 14:30hs y 15:30hs a 20:00hs,,,-34.617378,-58.430864
2691,5319210,CARREFOUR EXPRESS (0539),DONATO ALVAREZ 837,CABALLITO,Capital Federal,0,0,1,0,Lun. a Vie. 08:00hs a 22:00hs ,Sáb. 08:00hs a 22:00hs ,Dom. 11:00hs a 20:00hs ,-34.616308,-58.458301
2711,5319293,CARREFOUR EXPRESS (0628),AV. RIVADAVIA 4119,CABALLITO,Capital Federal,0,0,1,0,Lun. a Vie. 08:00hs a 22:00hs ,Sáb. 08:00hs a 22:00hs ,Dom. 11:00hs a 20:00hs ,-34.612737,-58.423861
2732,5319302,CARREFOUR EXPRESS (0639),PEDRO GOYENA 188,CABALLITO,Capital Federal,0,0,1,0,Lun. a Vie. 08:00hs a 22:00hs ,Sáb. 08:00hs a 22:00hs ,Dom. 11:00hs a 20:00hs ,-34.625453,-58.429881
2735,5319232,CARREFOUR EXPRESS (0561),ANGEL GALLARDO 940,CABALLITO,Capital Federal,0,0,1,0,Lun. a Vie. 08:00hs a 22:00hs ,Sáb. 08:00hs a 22:00hs ,Dom. 11:00hs a 20:00hs ,-34.606749,-58.443445
2737,5319234,CARREFOUR EXPRESS (0563),HIDALGO 955,CABALLITO,Capital Federal,0,0,1,0,Lun. a Vie. 08:00hs a 22:00hs ,Sáb. 08:00hs a 22:00hs ,Dom. 11:00hs a 20:00hs ,-34.608244,-58.44159
2759,5319012,CARREFOUR EXPRESS (0265),ANGEL GALLARDO 30,CABALLITO,Capital Federal,0,0,1,0,Lun. a Vie. 08:00hs a 22:00hs ,Sáb. 08:00hs a 22:00hs ,Dom. 11:00hs a 20:00hs ,-34.602349,-58.432621
2761,5319014,CARREFOUR EXPRESS (0298),FORMOSA 565,CABALLITO,Capital Federal,0,0,1,0,Lun. a Vie. 08:00hs a 22:00hs ,Sáb. 08:00hs a 22:00hs ,Dom. 11:00hs a 20:00hs ,-34.62136,-58.436247
2784,5319037,CARREFOUR EXPRESS (0321),CANGALLO 33,CABALLITO,Capital Federal,0,0,1,0,Lun. a Vie. 08:00hs a 22:00hs ,Sáb. 08:00hs a 22:00hs ,Dom. 11:00hs a 20:00hs ,-34.606102,-58.431087
3000,5319362,CARREFOUR EXPRESS (670),HIDALGO 92,CABALLITO,Capital Federal,0,0,1,0,Lun. a Vie. 08:30hs a 22:00hs ,Sáb. 08:30hs a 22:00hs ,Dom. 11:00hs a 20:00hs ,-34.617756,-58.438269
3006,5319368,CARREFOUR EXPRESS (732),AMBROSETTI 758,CABALLITO,Capital Federal,0,0,1,0,Lun. a Vie. 08:30hs a 22:00hs ,Sáb. 08:30hs a 22:00hs ,Dom. 11:00hs a 20:00hs ,-34.6095,-58.438638
3009,5319371,CARREFOUR EXPRESS (693),PEDRO GOYENA 1680,CABALLITO,Capital Federal,0,0,1,0,Lun. a Vie. 08:30hs a 22:00hs ,Sáb. 08:30hs a 22:00hs ,Dom. 11:00hs a 20:00hs ,-34.672512,-58.505776
3833,12349035,MAXIKIOSCO PARRAL,PARRAL 261,CABALLITO,Capital Federal,0,1,1,0,Lun. a Vie. 09:00hs a 18:00hs ,Sáb. 09:00hs a 13:00hs ,,-34.616387,-58.440214
3646,8049350,WESTE CABALLITO II,ROSARIO 810,CABALLITO,Capital Federal,1,1,1,0,Lun. a Vie. 10:00hs a 19:00hs ,Sáb. 10:00hs a 13:00hs ,,-34.620582,-58.440079
4024,8749154,SERVICIOS ARCADIA,AV. DIAZ VELEZ 5163,CABALLITO,Capital Federal,1,1,1,0,Lun. a Vie. 09:00hs a 20:30hs ,Sáb. 09:00hs a 20:30hs ,,-34.608791,-58.439641
4156,11949458,MAXIKIOSCO ZURITA,AV. DIRECTORIO 417,CABALLITO,Capital Federal,0,1,1,0,Lun. a Vie. 09:00hs a 17:00hs ,,,-34.627794,-58.432605
4187,5319396,CARREFOUR EXPRESS (719),YERBAL 2701,CABALLITO,Capital Federal,0,0,1,0,Lun. a Vie. 08:30hs a 22:00hs ,Sáb. 08:30hs a 22:00hs ,Dom. 11:00hs a 20:00hs ,-34.628735,-58.467515
3953,5349373,MINIMERCADO NELLY II,VALLE 195,CABALLITO,Capital Federal,0,1,1,0,Lun. a Vie. 09:00hs a 12:00hs y 14:00hs a 19:00hs,,,-34.623931,-58.430205
4291,90049059,AGENCIA BOYACA,BOYACA 73,CABALLITO,Capital Federal,1,1,1,0,Lun. a Vie. 09:00hs a 18:00hs ,Sáb. 10:00hs a 13:00hs ,,-34.625789,-58.457019
5087,7506003,PUERTO VIRTUAL PRIMERA JUNTA,AV RIVADAVIA 5451,CABALLITO,Capital Federal,1,1,1,0,Lun. a Vie. 09:00hs a 19:00hs ,Sáb. 08:30hs a 14:30hs ,,-34.620689,-58.442153
5779,12649029,AGENCIA MORENO,JOSE MARIA MORENO 450,CABALLITO,Capital Federal,0,1,1,0,Lun. a Vie. 09:00hs a 18:00hs ,,,-34.623703,-58.434637
5853,5319407,CARREFOUR EXPRESS (692),NEUQUEN 520,CABALLITO,Capital Federal,0,0,1,0,Lun. a Vie. 07:00hs a 22:30hs ,Sáb. 07:00hs a 22:30hs ,Dom. 08:00hs a 22:00hs ,-34.650249,-58.785211
5560,8749259,PAGO CABALLITO,FORMOSA 437,CABALLITO,Capital Federal,1,1,1,0,Lun. a Vie. 08:00hs a 20:00hs ,Sáb. 09:00hs a 14:00hs ,,-34.621117,-58.434366
