IDSUCURSAL,NRO_AGENTE_PF,NOMBRE,DIRECCION,LOCALIDAD,PROVINCIA,WESTERN_UNION,ENVIO_NACIONAL,PAGO_FACTURAS,RECARGA_FACIL,HS_LAV,HS_SABADO,HS_DOMINGO,LATITUD,LONGITUD
120,90003008,WAL MART NEUQUEN,RN 22 Y EUGENIO PERTICONE,NEUQUEN,Neuquén,1,1,1,0,Lun. a Vie. 08:00hs a 22:00hs ,Sáb. 08:00hs a 22:00hs ,Dom. 08:00hs a 22:00hs ,-38.949645,-68.02217
389,9902174,CORREO NEUQUEN - C,SANTA FE 101,NEUQUEN,Neuquén,1,0,1,0,Lun. a Vie. 08:00hs a 14:00hs y 16:00hs a 20:00hs,,,-38.953941,-68.055968
1960,6949351,LIBRERIA EL TREBOL,SARMIENTO 997,NEUQUEN,Neuquén,0,0,1,0,Lun. a Vie. 08:30hs a 13:00hs y 17:00hs a 21:00hs,Sáb. 09:00hs a 13:00hs y 18:00hs a 21:00hs,,-38.95746147,-68.07252386
2024,12049198,KIOSCO EL CORSA,BELGRANO 4190,NEUQUEN,Neuquén,0,1,1,0,Lun. a Vie. 08:00hs a 22:00hs ,Sáb. 08:00hs a 22:00hs ,Dom. 10:00hs a 13:00hs ,-38.95222673,-68.11632514
2052,90001114,C.S. CARREFOUR NEUQUEN II,ANTARTIDA ARGENTINA 3700,NEUQUEN,Neuquén,1,1,1,0,Lun. a Vie. 08:00hs a 22:00hs ,Sáb. 08:00hs a 22:00hs ,,-38.948957,-68.111351
2054,90001116,C.S. CARREFOUR HIPER NEUQUEN,OLASCOAGA 350,NEUQUEN,Neuquén,1,1,1,0,Lun. a Vie. 09:00hs a 21:00hs ,Sáb. 09:00hs a 21:00hs ,,-38.95883814,-68.05850933
2090,11149048,ESTUDIO JURIDICO CIALCETA Y ASOCIADOS,FELIX SAN MARTIN 424,NEUQUEN,Neuquén,0,1,1,0,Lun. a Vie. 08:00hs a 20:00hs ,,,-38.95918782,-68.05281053
2213,8118033,COREFIN (NEUQUEN),ALCORTA 124,NEUQUEN,Neuquén,0,0,1,0,Lun. a Vie. 08:30hs a 13:00hs y 16:00hs a 19:30hs,Sáb. 09:00hs a 13:00hs ,,-38.95840929,-68.06065376
2198,12049284,AMANCAY,AMANCAY 596,NEUQUEN,Neuquén,0,1,1,0,Lun. a Vie. 08:30hs a 20:30hs ,,,-38.94841683,-68.042311
2453,11949128,DESPENSA CARINA,REPUBLICA DE ITALIA 1664,NEUQUEN,Neuquén,1,1,1,0,Lun. a Vie. 08:30hs a 21:00hs ,Sáb. 08:30hs a 21:00hs ,,-38.94539,-68.082192
2456,8049288,CENTRO DE PAGOS,CARLOS H RODRIGUEZ 261,NEUQUEN,Neuquén,0,1,1,0,Lun. a Vie. 07:30hs a 18:00hs ,Sáb. 10:00hs a 13:00hs ,,-38.953001,-68.062918
3187,12049676,DRUGSTORE MECOHUE,JUAN JULIAN LASTRA 2400,NEUQUEN,Neuquén,1,1,1,0,Lun. a Vie. 09:00hs a 21:00hs ,Sáb. 09:00hs a 21:00hs ,,-38.959578,-68.092604
3196,8049324,CENTRO DE PAGOS II,DIAGONAL ALVEAR 55,NEUQUEN,Neuquén,0,1,1,0,Lun. a Vie. 08:00hs a 13:00hs ,,,-38.952495,-68.060143
3206,5320007,SUPERMAYORISTA VITAL NEUQUEN,RUTA NACIONAL 22 KM 1218,NEUQUEN,Neuquén,0,0,1,0,Lun. a Vie. 08:00hs a 19:00hs ,Sáb. 08:00hs a 20:00hs ,,-38.958777,-68.118227
3228,8749088,CENTRO DE PAGOS III,SAN LUIS 334,NEUQUEN,Neuquén,1,1,1,0,Lun. a Vie. 08:00hs a 20:00hs ,Sáb. 08:00hs a 14:00hs ,,-38.958708,-68.060722
3375,12049791,KIOSCO LOS MELLIZOS,LUIS BELTRAN 854,NEUQUEN,Neuquén,0,1,1,0,Lun. a Vie. 09:00hs a 13:00hs y 17:00hs a 21:00hs,Sáb. 09:00hs a 13:00hs y 17:00hs a 20:00hs,,-38.96249,-68.07128
3393,5749028,EL ABUELO,ALUMINE 109,NEUQUEN,Neuquén,0,1,1,0,Lun. a Vie. 09:00hs a 17:00hs ,Sáb. 09:00hs a 13:00hs ,,-38.956325,-68.037029
3769,5949070,SR. CHAPLIN,GRAL MANUEL BELGRANO 38,NEUQUEN,Neuquén,1,1,1,0,Lun. a Vie. 09:00hs a 23:00hs ,,,-38.950873,-68.059518
3852,8749139,CICLIMO NICO- GUSTAVO LOPEZ,AV. OLASCOAGA 917,NEUQUEN,Neuquén,1,1,1,0,Lun. a Vie. 09:00hs a 12:30hs y 17:00hs a 21:00hs,Sáb. 09:00hs a 12:30hs y 17:00hs a 21:00hs,,-38.965005,-68.05955
3854,10249862,AGENCIA 140 DRUPPY,CABELLERA DEL FRIO 578 LOCAL 2,NEUQUEN,Neuquén,0,1,1,0,Lun. a Vie. 09:00hs a 13:30hs y 17:30hs a 21:00hs,Sáb. 09:00hs a 13:30hs y 17:30hs a 21:00hs,,-38.927325,-68.079251
3699,6427025,COOP. OBRERA NEUQUEN (113),EL CHOCON 644,NEUQUEN,Neuquén,0,0,1,0,Lun. a Vie. 09:00hs a 21:30hs ,Sáb. 09:00hs a 21:30hs ,Dom. 09:00hs a 13:00hs y 17:00hs a 21:30hs,-38.968941,-68.050364
3700,6427026,COOP. OBRERA NEUQUEN (84),PIUQUEN 1780,NEUQUEN,Neuquén,0,0,1,0,Lun. a Vie. 09:00hs a 13:00hs y 16:30hs a 21:00hs,Sáb. 09:00hs a 13:00hs y 16:30hs a 21:00hs,Dom. 09:00hs a 13:00hs ,-38.925472,-68.084021
4048,9759007,AGL OPEN 24,SARMIENTO 606,NEUQUEN,Neuquén,0,0,1,0,Lun. a Vie. 09:00hs a 23:00hs ,Sáb. 09:00hs a 23:00hs ,,-38.95711,-68.067642
4142,10349103,LA ANONIMA ACCESORIOS STOP II,ANTARTIDA ARGENTINA 1111,NEUQUEN,Neuquén,1,1,1,0,Lun. a Vie. 09:00hs a 21:00hs ,Sáb. 09:00hs a 21:00hs ,Dom. 09:00hs a 21:00hs ,-38.947472,-68.07305
4421,90049070,TEAMWORK COMMODO CHANGO MAS,BELGRANO 2735,NEUQUEN,Neuquén,1,1,1,0,Lun. a Vie. 07:00hs a 21:00hs ,,,-38.919647,-67.996307
4425,12449188,SUPER TODO MAXIKIOSCO,PENALOZA 15,NEUQUEN,Neuquén,1,1,1,0,Lun. a Vie. 08:00hs a 22:00hs ,Sáb. 09:00hs a 13:30hs y 16:30hs a 20:30hs,,-38.954938,-68.080001
4514,10249952,AGENCIA 059 NEQUEN,MITRE 521,NEUQUEN,Neuquén,0,1,1,0,Lun. a Vie. 09:00hs a 13:30hs y 16:30hs a 20:30hs,Sáb. 09:00hs a 13:30hs y 16:30hs a 20:30hs,,-41.134294,-71.302353
4809,10049036,DINERO FULL - ELECTROMAS,LA PAMPA 257,NEUQUEN,Neuquén,0,1,1,0,Lun. a Vie. 09:00hs a 15:00hs ,,,-38.957732,-68.062136
4612,8749189,SERVICIO DE PAGO OESTE - GUSTAVO LOPEZ,GODOY 1205,NEUQUEN,Neuquén,0,1,1,0,Lun. a Vie. 09:00hs a 13:00hs y 13:30hs a 18:00hs,Sáb. 09:00hs a 13:00hs y 13:30hs a 18:00hs,,-38.941624,-68.117335
5764,90001244,C.S. ALTO NEUQUEN III,HIPOLITO YRIGOYEN 16,NEUQUEN,Neuquén,1,1,1,0,Lun. a Vie. 08:00hs a 18:00hs ,Sáb. 09:00hs a 14:00hs ,,-38.954924,-68.060748
5768,90001246,C.S. DELEGACION MUNICIPAL PROGRESO,ANTARTIDA ARGENTINA 2389,NEUQUEN,Neuquén,1,1,1,0,Lun. a Vie. 07:00hs a 15:00hs ,,,-38.947175,-68.09224
5772,90001247,C.S. DELEGACION MUNICIPAL ALTO GODOY,ANGEL NOVELLA 4255,NEUQUEN,Neuquén,1,1,1,0,Lun. a Vie. 09:00hs a 18:00hs ,Sáb. 09:00hs a 12:30hs ,,-38.934504,-68.118048
5776,12449374,SUPERTODO MAXIKIOSCO II,SARMIENTO 1055,NEUQUEN,Neuquén,0,1,1,0,Lun. a Vie. 08:00hs a 22:00hs ,Sáb. 09:00hs a 16:30hs y 13:30hs a 20:30hs,,-38.956972,-68.074262
5789,8159502,AGL SEGUROS TRIUNFO NQN,MENDOZA 76,NEUQUEN,Neuquén,0,0,1,0,Lun. a Vie. 09:00hs a 18:00hs ,,,-38.954295,-68.053608
5859,8159571,AGL SEGUROS GIAQUINTA,SAN MARTIN 4147,NEUQUEN,Neuquén,0,0,1,0,Lun. a Vie. 09:00hs a 12:30hs y 16:00hs a 20:00hs,,,-38.954627,-68.116695
5250,90001220,C.S. ALTO NEUQUEN II,SANTA FE 50,NEUQUEN,Neuquén,1,1,1,0,Lun. a Vie. 07:00hs a 21:00hs ,Sáb. 07:00hs a 21:00hs ,,-38.954584,-68.05607
6013,8159593,AGL SEGUROS SAN CRISTOBAL,INDEPENDENCIA 396,NEUQUEN,Neuquén,0,0,1,0,Lun. a Vie. 09:00hs a 17:00hs ,,,-38.954993,-68.053675
6066,10349156,GESTIONES MONTOYA,PERITO MORENO 524,NEUQUEN,Neuquén,1,1,1,0,Lun. a Vie. 09:00hs a 12:30hs y 16:30hs a 19:00hs,,,-38.958162,-68.051623
5620,8749268,TEAM WORK II,IRIGOYEN 185,NEUQUEN,Neuquén,1,1,1,0,Lun. a Vie. 08:30hs a 20:00hs ,Sáb. 09:00hs a 20:00hs ,,-39.946776,-71.076842
5628,6427042,COOP OBRERA NEUQUEN (124),DR. RAMON 3950,NEUQUEN,Neuquén,0,0,1,0,Lun. a Vie. 08:00hs a 21:30hs ,Sáb. 08:00hs a 21:30hs ,Dom. 08:00hs a 21:30hs ,-38.941802,-68.113643
