IDSUCURSAL,NRO_AGENTE_PF,NOMBRE,DIRECCION,LOCALIDAD,PROVINCIA,WESTERN_UNION,ENVIO_NACIONAL,PAGO_FACTURAS,RECARGA_FACIL,HS_LAV,HS_SABADO,HS_DOMINGO,LATITUD,LONGITUD
121,90003009,WAL MART CORDOBA ESTE,MAURICIO YADAROLA 1699,CORDOBA,Córdoba,1,1,1,0,Lun. a Vie. 09:00hs a 22:00hs ,Sáb. 11:00hs a 22:00hs ,Dom. 11:00hs a 22:00hs ,-31.391097,-64.160641
122,90003010,WAL MART CORDOBA OESTE,AV. COLON Y DE CIRCUNVALACION,CORDOBA,Córdoba,1,1,1,0,Lun. a Vie. 09:00hs a 22:00hs ,Sáb. 11:00hs a 22:00hs ,Dom. 11:00hs a 22:00hs ,-31.397007,-64.266902
125,90015002,C.S. LIBERTAD CORDOBA LUGONES,F. L. BELTRAN Y CARDENOSA,CORDOBA,Córdoba,1,1,1,0,Lun. a Vie. 09:00hs a 22:00hs ,Sáb. 09:00hs a 22:00hs ,Dom. 09:00hs a 22:00hs ,-31.365669,-64.217757
126,90015003,C.S. LIBERTAD CORDOBA J. RIOS,LIBERTAD Y CNEL PRINGLES,CORDOBA,Córdoba,1,1,1,0,Lun. a Vie. 09:00hs a 22:00hs ,Sáb. 09:00hs a 22:00hs ,Dom. 09:00hs a 22:00hs ,-31.408838,-64.169056
127,90015004,C.S. LIBERTAD CORDOBA RUTA 9,AV. SABATTINI 3250,CORDOBA,Córdoba,1,1,1,0,Lun. a Vie. 09:00hs a 22:00hs ,Sáb. 09:00hs a 22:00hs ,Dom. 09:00hs a 22:00hs ,-31.433189,-64.142626
130,90016002,C.S. MARIANO MAX II,AV. ARTURO CAPDEVILLA Y RANCAGUA,CORDOBA,Córdoba,1,1,1,0,Lun. a Vie. 08:00hs a 22:00hs ,,,-31.379753,-64.147744
174,8049024,COCAPROSECO-COOP.LTDA.,"RUTA 19 KM 7,5",CORDOBA,Córdoba,0,1,1,0,Lun. a Vie. 13:00hs a 18:00hs ,,,-31.393807,-64.109051
383,9902168,CORREO CORDOBA - C,AV. COLON 210,CORDOBA,Córdoba,1,0,1,0,Lun. a Vie. 08:30hs a 19:30hs ,,,-31.412816,-64.185825
425,9902221,CORREO CORDOBA - 1,AV. JUAN B. JUSTO 3479,CORDOBA,Córdoba,1,0,1,0,Lun. a Vie. 08:00hs a 13:00hs y 17:00hs a 20:00hs,,,-31.384635,-64.175913
430,9902226,CORREO CORDOBA - 6,JUAN RODRIGUEZ 1351 - BRIO SAN VICENTE,CORDOBA,Córdoba,1,0,1,0,Lun. a Vie. 08:00hs a 13:00hs y 17:00hs a 20:00hs,,,-31.423801,-64.149294
432,9902228,CORREO CORDOBA - 12,AV. L. N. ALEM 753,CORDOBA,Córdoba,1,0,1,0,Lun. a Vie. 08:00hs a 13:00hs y 17:00hs a 20:00hs,,,-31.3937,-64.166298
434,9902230,CORREO CORDOBA - 9,AV. RAFAEL NUNEZ 3782 LOCAL 2 BRIO CERRO,CORDOBA,Córdoba,1,0,1,0,Lun. a Vie. 08:30hs a 13:00hs y 16:00hs a 19:00hs,,,-31.375667,-64.22677
435,9902231,CORREO CORDOBA - 16,AV. VELEZ SARSFIELD 3458,CORDOBA,Córdoba,1,0,1,0,Lun. a Vie. 08:00hs a 13:00hs y 17:00hs a 20:00hs,,,-31.449911,-64.19987
440,9902236,CORREO CORDOBA - 10,AV. FUERZA AEREA ARGENTINA 2921,CORDOBA,Córdoba,1,0,1,0,Lun. a Vie. 08:00hs a 13:00hs y 17:00hs a 20:00hs,,,-31.431569,-64.227393
443,9902239,CORREO CORDOBA - 8,MONS. P.CABRERA 3160 - BRIO ZUMARAN,CORDOBA,Córdoba,1,0,1,0,Lun. a Vie. 08:30hs a 13:00hs y 16:00hs a 19:00hs,,,-31.375971,-64.206636
444,9902240,CORREO CORDOBA - 3,AV. COLON  2547,CORDOBA,Córdoba,1,0,1,0,Lun. a Vie. 08:30hs a 13:00hs y 16:00hs a 19:00hs,,,-31.40418149,-64.21545516
213,5207071,AXION CARAFFA (916),N. PABLO CABRERA 1807,CORDOBA,Córdoba,0,0,0,1,Lun. a Vie. 00:00hs a 24:00hs ,Sáb. 00:00hs a 24:00hs ,Dom. 00:00hs a 24:00hs ,-31.38812522,-64.2038708
214,5207072,AXION EL ARCO (947),AV. A. SABATTINI 4720,CORDOBA,Córdoba,0,0,0,1,Lun. a Vie. 00:00hs a 24:00hs ,Sáb. 00:00hs a 24:00hs ,Dom. 00:00hs a 24:00hs ,-31.4365258,-64.12984978
714,9902541,CORREO PATIO OLMOS,BELGRANO 381,CORDOBA,Córdoba,0,0,1,0,Lun. a Vie. 10:00hs a 22:00hs ,,Dom. 10:00hs a 22:00hs ,-31.418676,-64.189649
1043,8112015,TARJETA KADICARD SAN MARTIN,SAN MARTIN 286,CORDOBA,Córdoba,0,0,1,0,Lun. a Vie. 08:00hs a 18:00hs ,,,-31.412854,-64.18261057
1044,5207101,AXION VILLA ALLENDE (966),AV. GOYCOCHEA 1235,CORDOBA,Córdoba,0,0,0,1,Lun. a Vie. 00:00hs a 24:00hs ,Sáb. 00:00hs a 24:00hs ,Dom. 00:00hs a 24:00hs ,-31.301141,-64.286282
1055,9902782,CORREO AGENCIA 23 CORDOBA,CASEROS 551,CORDOBA,Córdoba,0,0,1,0,Lun. a Vie. 09:00hs a 18:00hs ,,,-31.41626039,-64.19238357
1144,5207102,AXION BULNES (969),AV. EDUARDO BULNES 1108,CORDOBA,Córdoba,0,0,0,1,Lun. a Vie. 00:00hs a 24:00hs ,Sáb. 00:00hs a 24:00hs ,Dom. 00:00hs a 24:00hs ,-31.39997179,-64.17354168
1174,5207103,AXION GUZMAN (970),ALVEAR 837,CORDOBA,Córdoba,0,0,0,1,Lun. a Vie. 00:00hs a 24:00hs ,Sáb. 00:00hs a 24:00hs ,Dom. 00:00hs a 24:00hs ,-32.688027,-62.100874
1182,6949209,LIBRERIA TINTA CHINA,NEVADO 2734 LOC 4,CORDOBA,Córdoba,0,1,1,0,Lun. a Vie. 09:00hs a 13:00hs y 17:00hs a 20:00hs,,,-31.44104343,-64.21549943
1201,5149861,FARMACIA NACIF I,LARREA 1749,CORDOBA,Córdoba,0,1,1,0,Lun. a Vie. 09:30hs a 13:00hs y 17:30hs a 21:30hs,Sáb. 09:30hs a 13:00hs y 17:30hs a 21:30hs,,-31.416468,-64.15893
909,8949152,TELECENTRO MARACAIBO,MARACAIBO 700,CORDOBA,Córdoba,0,1,1,0,Lun. a Vie. 08:00hs a 13:00hs y 17:00hs a 20:00hs,Sáb. 09:00hs a 13:00hs ,,-31.383683,-64.167985
943,90016004,C.S. MARIANO MAX V,AV. SANTA ANA 3500,CORDOBA,Córdoba,1,1,1,0,Lun. a Vie. 08:00hs a 22:00hs ,Sáb. 08:00hs a 22:00hs ,Dom. 09:00hs a 22:00hs ,-31.412694,-64.23002
967,8113001,BANCO ROELA SAN MARTIN,SAN MARTIN 56,CORDOBA,Córdoba,0,0,1,0,Lun. a Vie. 08:00hs a 13:30hs ,,,-31.41549855,-64.18371016
968,8113003,BANCO ROELA J.B.JUSTO,AV. JUAN B.JUSTO 3455,CORDOBA,Córdoba,0,0,1,0,Lun. a Vie. 08:00hs a 13:30hs ,,,-31.38514071,-64.175913
969,8113002,BANCO ROELA ALEM,AV. LEANDRO N. ALEM 1499,CORDOBA,Córdoba,0,0,1,0,Lun. a Vie. 08:00hs a 13:30hs ,,,-31.387129,-64.160424
1416,9849018,MINIMERCADO  EL 12,"CAMINO A 60 CUADRAS KM 12,4",CORDOBA,Córdoba,0,1,1,0,Lun. a Vie. 08:00hs a 13:00hs y 16:30hs a 20:30hs,Sáb. 08:00hs a 13:00hs y 16:30hs a 20:30hs,,-31.527653,-64.156849
1240,90003021,WAL MART CORDOBA SUR,HORACIO JUAREZ 4410,CORDOBA,Córdoba,1,1,1,0,Lun. a Vie. 08:00hs a 22:00hs ,Sáb. 08:00hs a 22:00hs ,Dom. 08:00hs a 22:00hs ,-31.46653018,-64.16182449
1250,7049538,DESPENSA MARY,LOS MOLLES 6287,CORDOBA,Córdoba,0,1,1,0,Lun. a Vie. 08:00hs a 13:30hs y 16:30hs a 21:30hs,Sáb. 08:00hs a 13:30hs y 16:30hs a 21:30hs,Dom. 09:00hs a 13:30hs ,-31.46045004,-64.10030435
1264,6949228,JUAN MORREN LIBRERIA Y KIOSCO,SAN JERONIMO 507,CORDOBA,Córdoba,0,1,1,0,Lun. a Vie. 09:00hs a 18:30hs ,Sáb. 09:00hs a 14:00hs ,,-31.41918339,-64.17776057
1271,6149198,DESPENSA NORMA,PROGRESO 1936,CORDOBA,Córdoba,0,1,1,0,Lun. a Vie. 08:30hs a 14:00hs y 17:30hs a 21:00hs,Sáb. 08:30hs a 14:00hs y 17:30hs a 21:00hs,Dom. 08:30hs a 14:00hs y 17:30hs a 21:00hs,-31.388434,-64.20553
1277,6401003,CAJA MUTUAL SAN CRISTOBAL III,LIBERTAD 61,CORDOBA,Córdoba,0,0,1,0,Lun. a Vie. 08:00hs a 14:30hs ,,,-31.40829341,-64.17983218
1285,90015017,C.S. LIBERTAD ZONA NORTE,ENRIQUE BODERAU 7571,CORDOBA,Córdoba,1,1,1,0,Lun. a Vie. 09:00hs a 22:00hs ,Sáb. 09:00hs a 22:00hs ,Dom. 09:00hs a 22:00hs ,-31.33585171,-64.28831
1288,7549274,POLIRUBRO NOCHERO,AV. ALEM 3770,CORDOBA,Córdoba,0,0,1,0,Lun. a Vie. 14:00hs a 22:00hs ,Sáb. 14:00hs a 22:00hs ,,-31.36470225,-64.14763075
1621,8949464,CLARO-MERCADO SUD,BOULEVARD ILLIA 155 PUESTO 7,CORDOBA,Córdoba,1,1,1,0,Lun. a Vie. 08:00hs a 13:00hs y 16:30hs a 20:00hs,Sáb. 08:00hs a 14:00hs ,,-31.42139971,-64.18408986
1629,9902831,CORREO AGENCIA 22,AV. RAFAEL NUNEZ 6237,CORDOBA,Córdoba,1,0,1,0,Lun. a Vie. 10:00hs a 17:00hs ,,,-31.345318,-64.251247
1632,11849049,FARMACIA ANTA,ANTA 5713,CORDOBA,Córdoba,0,1,1,0,Lun. a Vie. 09:30hs a 13:30hs y 17:30hs a 21:00hs,Sáb. 09:30hs a 13:30hs ,,-31.38624773,-64.25258394
1664,7549700,QUEDAR DE 10,ITALIA 2003,CORDOBA,Córdoba,1,1,1,0,Lun. a Vie. 09:00hs a 14:30hs y 17:30hs a 22:00hs,Sáb. 09:00hs a 14:30hs y 17:30hs a 22:00hs,Dom. 10:00hs a 14:00hs y 19:00hs a 22:00hs,-31.38889965,-64.20584167
1705,5949060,VIDEOCLUB SIMULACRO,AV. COLON 1582,CORDOBA,Córdoba,1,1,1,0,Lun. a Vie. 10:00hs a 13:00hs y 17:00hs a 20:00hs,Sáb. 10:00hs a 13:00hs ,,-31.40740165,-64.20430773
1732,7949011,HELADERIA YO,24 DE SEPTIEMBRE 898,CORDOBA,Córdoba,0,0,1,0,Lun. a Vie. 09:00hs a 20:00hs ,Sáb. 09:00hs a 20:00hs ,,-31.41510308,-64.17078382
1766,9749101,ALMACEN NAZARENO,BILBAO 2496,CORDOBA,Córdoba,0,1,1,0,Lun. a Vie. 09:00hs a 13:00hs y 16:00hs a 20:00hs,Sáb. 09:00hs a 13:00hs y 16:00hs a 20:00hs,,-31.43669117,-64.15819933
1807,9849072,LA GLADYS II,SANTA ROSA 2395,CORDOBA,Córdoba,0,1,1,0,Lun. a Vie. 09:00hs a 13:00hs y 15:00hs a 21:00hs,Sáb. 09:00hs a 13:00hs y 15:00hs a 21:00hs,,-31.4036118,-64.21324788
1522,11849011,FARMACIA MARTINEZ,RECONQUISTA 3833,CORDOBA,Córdoba,0,0,1,0,Lun. a Vie. 09:00hs a 13:00hs y 17:00hs a 21:00hs,Sáb. 09:00hs a 13:00hs y 17:00hs a 21:00hs,,-31.4377652,-64.23865269
1530,5249076,GN - COM SRL,AV. BERNARDO O HIGGINS 3026,CORDOBA,Córdoba,0,0,1,0,Lun. a Vie. 07:00hs a 13:00hs y 16:00hs a 21:00hs,Sáb. 07:00hs a 13:00hs y 16:00hs a 21:00hs,Dom. 07:00hs a 13:00hs y 16:00hs a 21:00hs,-31.446956,-64.168739
1559,6449201,CENTRO DE ALMACENEROS,LIMA 379,CORDOBA,Córdoba,0,1,1,0,Lun. a Vie. 09:00hs a 16:00hs ,,,-31.41406098,-64.17750427
1573,8949456,TELECENTRO SANTA ROSA,SANTA ROSA 94,CORDOBA,Córdoba,0,1,1,0,Lun. a Vie. 09:30hs a 18:00hs ,Sáb. 09:30hs a 13:00hs ,,-31.41227255,-64.18376769
1999,8949512,CENTRO DE SERVICIOS OCTAVIO PINTO,OCTAVIO PINTO 2756 LOC 4,CORDOBA,Córdoba,1,1,1,0,Lun. a Vie. 09:00hs a 14:00hs y 16:00hs a 20:00hs,Sáb. 09:00hs a 14:00hs y 16:00hs a 20:00hs,,-31.38809776,-64.21678908
2010,90001078,C.S. DINO RUTA 20,AV. FUERZA AEREA 1700,CORDOBA,Córdoba,1,1,1,0,Lun. a Vie. 10:00hs a 22:00hs ,Sáb. 09:00hs a 22:00hs ,Dom. 09:00hs a 22:00hs ,-31.42994488,-64.21249361
2011,90001079,C.S. DINO ALTO VERDE,AV. RODRIGUEZ DEL BUSTO 4086,CORDOBA,Córdoba,1,1,1,0,Lun. a Vie. 10:00hs a 22:00hs ,Sáb. 10:00hs a 22:00hs ,Dom. 10:00hs a 22:00hs ,-31.36515486,-64.22011957
2012,90001080,C.S. DINO SAN VICENTE,AGUSTIN GARZON 1252,CORDOBA,Córdoba,1,1,1,0,Lun. a Vie. 09:00hs a 21:00hs ,Sáb. 09:00hs a 21:00hs ,,-31.424607,-64.168739
2064,90001109,C.S. CARREFOUR CORDOBA JUAN B. JUSTO,JUAN B. JUSTO 4775,CORDOBA,Córdoba,1,1,1,0,Lun. a Vie. 08:00hs a 21:00hs ,Sáb. 08:00hs a 21:00hs ,Dom. 10:00hs a 16:00hs ,-31.36838518,-64.17609551
2066,90001111,C.S. CARREFOUR CORDOBA COLON,AV. COLON 4880,CORDOBA,Córdoba,1,1,1,0,Lun. a Vie. 09:00hs a 22:00hs ,Sáb. 09:00hs a 22:00hs y 00:00hs a 00:00hs,Dom. 09:00hs a 22:00hs y 00:00hs a 00:00hs,-31.39610255,-64.24403996
2067,90001112,C.S. CARREFOUR CORDOBA RECTA MARTINOLLI,RECTA MARTINOLLI 7500,CORDOBA,Córdoba,1,1,1,0,Lun. a Vie. 09:00hs a 22:00hs ,Sáb. 10:00hs a 16:00hs ,,-31.347631,-64.26621
2077,90001125,C.S. CARREFOUR GRANADEROS,BOULEVARD LOS GRANADEROS 2906,CORDOBA,Córdoba,1,1,1,0,Lun. a Vie. 08:30hs a 22:00hs ,Sáb. 08:30hs a 22:00hs ,,-31.37466433,-64.21376376
1858,10049008,SOLUTION EXPRESS,AV. RISCO ALVARADO 3833,CORDOBA,Córdoba,0,1,1,0,Lun. a Vie. 09:00hs a 13:00hs y 17:00hs a 21:00hs,Sáb. 09:00hs a 13:00hs y 17:00hs a 21:00hs,,-31.45816049,-64.13232284
2220,8049248,SERVICIOS INDEPENDENCIA,INDEPENDENCIA 387,CORDOBA,Córdoba,0,1,1,0,Lun. a Vie. 08:00hs a 20:00hs ,Sáb. 08:00hs a 13:00hs ,,-31.42069133,-64.18602831
2249,7449076,KARINA MODA,ARRECIFES 290,CORDOBA,Córdoba,0,1,1,0,Lun. a Vie. 08:00hs a 14:00hs y 16:30hs a 21:30hs,Sáb. 09:00hs a 21:00hs ,Dom. 09:00hs a 21:00hs ,-31.40349932,-64.24161495
2254,12049329,RECO 12 PAO,AV. SANTA ANA 4490 LOCAL B,CORDOBA,Córdoba,0,1,1,0,Lun. a Vie. 09:00hs a 13:00hs y 17:00hs a 21:00hs,Sáb. 09:00hs a 13:00hs y 17:00hs a 21:00hs,,-31.41160783,-64.24412542
2258,10249638,RECO 12 EL GRINGO,GRAL. GUIDO 1593,CORDOBA,Córdoba,0,1,1,0,Lun. a Vie. 09:30hs a 13:30hs y 16:30hs a 20:30hs,,,-31.3899712,-64.20105916
2300,7549957,DRUGSTORE 24 GRADOS,AV.SEPTIEMBRE 1435 LOC B,CORDOBA,Córdoba,1,1,1,0,Lun. a Vie. 08:00hs a 22:00hs ,Sáb. 10:00hs a 22:00hs ,,-31.413234,-64.164342
2316,12049372,PAULI S CAKE,OBISPO CEBALLOS 536,CORDOBA,Córdoba,0,1,1,0,Lun. a Vie. 09:00hs a 11:00hs y 16:30hs a 21:30hs,Sáb. 09:00hs a 11:00hs y 16:30hs a 21:30hs,,-31.39356267,-64.19415686
2351,5349320,MAXICOR,AV. PARRAVICCHINI 2843,CORDOBA,Córdoba,0,1,1,0,Lun. a Vie. 09:00hs a 13:00hs y 17:00hs a 21:00hs,Sáb. 09:00hs a 13:00hs y 17:00hs a 21:00hs,,-31.371715,-64.169237
2352,5349321,MAXICOR II,AV. ALEM 3062,CORDOBA,Córdoba,0,1,1,0,Lun. a Vie. 09:00hs a 13:00hs y 18:00hs a 22:00hs,Sáb. 09:00hs a 13:00hs y 18:00hs a 22:00hs,,-31.3737845,-64.150912
2382,6949411,LIBRERIA MEDITERRANEA,BOULEVARD CHACABUCO 375,CORDOBA,Córdoba,0,1,1,0,Lun. a Vie. 08:00hs a 13:30hs y 15:00hs a 18:00hs,,,-34.632241,-60.47568
2409,12049434,RECO 12 ALTO TEJEDA,GREGORIO GAVIER 2005,CORDOBA,Córdoba,0,1,1,0,Lun. a Vie. 09:00hs a 13:00hs y 16:00hs a 20:00hs,Sáb. 09:00hs a 13:00hs y 16:00hs a 20:00hs,Dom. 09:00hs a 13:00hs y 16:00hs a 20:00hs,-31.368561,-64.23557
2155,8049239,S Y C GESTORIA INTEGRAL,RIO NEGRO 5267,CORDOBA,Córdoba,1,1,1,0,Lun. a Vie. 09:00hs a 13:00hs y 17:00hs a 20:30hs,Sáb. 09:00hs a 13:00hs y 17:00hs a 20:00hs,,-31.47352763,-64.22254239
2555,5319274,CARREFOUR EXPRESS (0606),OBISPO TREJO 1166,CORDOBA,Córdoba,0,0,1,0,Lun. a Vie. 08:00hs a 22:00hs ,Sáb. 08:00hs a 22:00hs ,Dom. 11:00hs a 20:00hs ,-31.428957,-64.191176
2557,5319275,CARREFOUR EXPRESS (0607),CHACABUCO 727,CORDOBA,Córdoba,0,0,1,0,Lun. a Vie. 08:00hs a 22:00hs ,Sáb. 08:00hs a 22:00hs ,Dom. 11:00hs a 20:00hs ,-31.425849,-64.184031
2652,5319278,CARREFOUR EXPRESS (0610),PUEYRREDON 298,CORDOBA,Córdoba,0,0,1,0,Lun. a Vie. 08:00hs a 22:00hs ,Sáb. 08:00hs a 22:00hs ,Dom. 11:00hs a 20:00hs ,-31.425981,-64.193171
2423,8118038,COREFIN (CORDOBA 1),25 DE MAYO 138,CORDOBA,Córdoba,0,0,1,0,Lun. a Vie. 10:00hs a 19:00hs ,Sáb. 10:00hs a 13:00hs ,,-31.415382,-64.181895
2830,11849168,MEDIKFARMA 2,DUARTE QUIROS 1602 PB LOCAL 3,CORDOBA,Córdoba,1,1,1,0,Lun. a Vie. 09:00hs a 13:00hs y 15:00hs a 19:00hs,Sáb. 09:00hs a 13:00hs ,,-31.412518,-64.206506
2844,12049508,EMILIO,JERONIMO LUIS DE CABRERA 783-787,CORDOBA,Córdoba,1,1,1,0,Lun. a Vie. 09:00hs a 21:00hs ,Sáb. 09:00hs a 21:00hs ,,-31.396458,-64.187493
2921,7249106,DESCARTABLES CAMPERO,AV. PATRIA 939 LOC 4,CORDOBA,Córdoba,1,1,1,0,Lun. a Vie. 08:30hs a 13:00hs y 17:00hs a 21:00hs,Sáb. 08:30hs a 13:00hs y 17:00hs a 21:00hs,,-31.403561,-64.160091
2949,11949194,MERY,GUSTAVO MARAMBIO 1080,CORDOBA,Córdoba,1,1,1,0,Lun. a Vie. 09:00hs a 13:45hs y 17:00hs a 20:45hs,Sáb. 09:00hs a 13:45hs ,,-31.374757,-64.157112
2962,8118045,COREFIN CORDOBA,SAN MARTIN 91,CORDOBA,Córdoba,0,0,1,0,Lun. a Vie. 09:00hs a 18:00hs ,Sáb. 10:00hs a 13:00hs ,,-31.414891,-64.183849
2742,5319304,CARREFOUR EXPRESS (0641),ALVEAR 126,CORDOBA,Córdoba,0,0,1,0,Lun. a Vie. 08:00hs a 22:00hs ,Sáb. 08:00hs a 22:00hs ,Dom. 11:00hs a 20:00hs ,-31.415328,-64.18078
2743,5319305,CARREFOUR EXPRESS (0642),GRAL. PAZ 240,CORDOBA,Córdoba,0,0,1,0,Lun. a Vie. 08:00hs a 22:00hs ,Sáb. 08:00hs a 22:00hs ,Dom. 11:00hs a 20:00hs ,-31.412351,-64.185754
2745,5319307,CARREFOUR EXPRESS (0644),25 DE MAYO 979,CORDOBA,Córdoba,0,0,1,0,Lun. a Vie. 08:00hs a 22:00hs ,Sáb. 08:00hs a 22:00hs ,Dom. 11:00hs a 20:00hs ,-31.415811,-64.169456
2749,5319311,CARREFOUR EXPRESS (0648),BELGRANO 54,CORDOBA,Córdoba,0,0,1,0,Lun. a Vie. 08:00hs a 22:00hs ,Sáb. 08:00hs a 22:00hs ,Dom. 11:00hs a 20:00hs ,-32.174873,-64.107674
2753,5319315,CARREFOUR EXPRESS (0653),BELLARDINELLI 3150,CORDOBA,Córdoba,0,0,1,0,Lun. a Vie. 08:00hs a 22:00hs ,Sáb. 08:00hs a 22:00hs ,Dom. 11:00hs a 20:00hs ,-31.44747,-64.19431
3151,11549006,RECO12 ILUMINA-2,ARTURO M. BAS 480,CORDOBA,Córdoba,0,1,1,0,Lun. a Vie. 09:00hs a 13:00hs y 17:00hs a 21:00hs,Sáb. 09:00hs a 13:00hs y 17:00hs a 21:00hs,,-31.41946,-64.194609
3094,8049310,CENTRO DE SERVICIOS MINI LIBERTAD,TUCUMAN 135,CORDOBA,Córdoba,0,1,1,0,Lun. a Vie. 09:00hs a 18:00hs ,Sáb. 09:00hs a 18:00hs ,,-31.413192,-64.18768
3432,6649028,PELADERO JORGITO,RIO PRIMERO 1564,CORDOBA,Córdoba,0,1,1,0,Lun. a Vie. 09:00hs a 13:00hs y 18:00hs a 21:00hs,,,-31.427475,-64.132512
3445,10249808,COOPECOR RENO,SAN JERONIMO 470,CORDOBA,Córdoba,1,1,1,0,Lun. a Vie. 08:30hs a 20:00hs ,Sáb. 08:30hs a 14:00hs ,,-31.419011,-64.178383
3571,12049911,BARRIGA,SAN JERONIMO 248,CORDOBA,Córdoba,1,1,1,0,Lun. a Vie. 08:00hs a 13:00hs y 14:00hs a 18:00hs,Sáb. 08:00hs a 13:00hs y 14:00hs a 18:00hs,,-31.418124,-64.181233
3599,7849051,AGUAD FACUNDO,INDEPENDENCIA 369 PB A,CORDOBA,Córdoba,0,0,1,0,Lun. a Vie. 09:00hs a 13:00hs y 18:00hs a 20:00hs,,,-31.420242,-64.185765
3376,11949273,CORCAL,BOULEVARD LOS ALEMANES 5176,CORDOBA,Córdoba,1,1,1,0,Lun. a Vie. 09:00hs a 20:00hs ,Sáb. 09:00hs a 13:00hs ,,-31.34333,-64.23739
3401,8749118,CENTRO DE SERVICIOS DONATO,AV. DONATO ALVAREZ 8228,CORDOBA,Córdoba,0,1,1,0,Lun. a Vie. 09:00hs a 13:00hs y 16:00hs a 19:00hs,,,-31.327553,-64.266633
3774,6949501,LIBRERIA TRES ELEFANTES,HORACIO MARTINEZ 3443,CORDOBA,Córdoba,1,1,1,0,Lun. a Vie. 09:00hs a 13:00hs y 16:00hs a 20:00hs,Sáb. 09:00hs a 13:00hs y 16:00hs a 20:00hs,,-31.447198,-64.213769
3880,11949399,CASA LIDIA,AV. PAINE 5425,CORDOBA,Córdoba,1,1,1,0,Lun. a Vie. 09:00hs a 13:00hs y 17:00hs a 21:00hs,,,-31.414761,-64.257136
3635,12049950,MAXIKIOSKO LIDIA,COLON 1117,CORDOBA,Córdoba,1,1,1,0,Lun. a Vie. 09:00hs a 21:00hs ,Sáb. 09:00hs a 13:00hs y 16:00hs a 20:00hs,Dom. 17:00hs a 19:00hs ,-31.409228,-64.198299
3639,8049349,COMMODO DISCO RICHIERI,AV. RICHIERI 3296,CORDOBA,Córdoba,1,1,1,0,Lun. a Vie. 09:00hs a 13:30hs y 17:00hs a 21:00hs,Sáb. 09:30hs a 14:00hs ,,-31.45075,-64.176634
3641,6349402,MYL,ARGANDONA 3184,CORDOBA,Córdoba,1,1,1,0,Lun. a Vie. 09:00hs a 13:00hs y 17:00hs a 20:30hs,,,-31.42355,-64.143054
3649,8049351,CENTRO DE SERVICIOS MARIANO LOS GIGANTES,AV. SAAVEDRA LAMAS,CORDOBA,Córdoba,0,1,1,0,Lun. a Vie. 09:00hs a 13:00hs y 17:00hs a 20:30hs,Sáb. 09:00hs a 13:00hs y 17:00hs a 20:30hs,,-31.366701,-64.165666
3681,12049965,MAXIKIOSCO 24 HRS,PUYRREDON 69,CORDOBA,Córdoba,1,1,1,0,Lun. a Vie. 08:00hs a 16:00hs ,,,-31.427138,-64.189604
3696,6949498,PAGOS BV SAN JUAN,BV. SAN JUAN 349,CORDOBA,Córdoba,0,1,1,0,Lun. a Vie. 08:00hs a 13:00hs y 13:30hs a 18:30hs,,,-31.419647,-64.190999
4041,10249900,COOPECOR AGENCIA 0724,SANTA MARIA 1758,CORDOBA,Córdoba,0,1,1,0,Lun. a Vie. 08:30hs a 13:30hs y 17:00hs a 20:30hs,Sáb. 08:30hs a 13:30hs y 17:00hs a 20:30hs,,-31.434066,-64.199521
4049,5449460,NH MUEBLES Y COLCHONES,SANTA ANA 3809,CORDOBA,Córdoba,0,1,1,0,Lun. a Vie. 09:00hs a 13:00hs y 16:30hs a 20:30hs,Sáb. 09:00hs a 13:00hs y 16:30hs a 20:30hs,,-31.411925,-64.23407
4065,12449079,MAXIKIOSKO AVE FENIX,NICOLAS AVELLANEDA 445 PB LOCAL 1,CORDOBA,Córdoba,1,1,1,0,Lun. a Vie. 08:00hs a 20:00hs ,Sáb. 07:00hs a 14:00hs ,Dom. 17:00hs a 23:00hs ,-31.407195,-64.194414
4114,8149350,ASEGURE-C,LUIS AGOTE 1847,CORDOBA,Córdoba,1,1,1,0,Lun. a Vie. 09:00hs a 13:00hs y 16:00hs a 19:00hs,,,-31.427082,-64.213508
4133,9749288,LA GLORIA,DIAGONAL ICA 317,CORDOBA,Córdoba,1,1,1,0,Lun. a Vie. 09:00hs a 22:00hs ,Sáb. 09:00hs a 22:00hs ,Dom. 09:00hs a 22:00hs ,-31.389034,-64.172034
4144,6949527,LIBRERIA PIGALLE,AV. RAFAEL NUNEZ 4669 LOCAL 27-30,CORDOBA,Córdoba,1,1,1,0,Lun. a Vie. 08:30hs a 13:30hs y 16:00hs a 19:00hs,Sáb. 10:00hs a 13:00hs ,,-31.362682,-64.23729
4152,10359064,AGL SOLUCIONES EN COBRANZAS,AV. COLON 610 PISO 7,CORDOBA,Córdoba,0,0,1,0,Lun. a Vie. 09:00hs a 19:30hs ,,,-31.410956,-64.191394
4164,8149352,MONTEMAR COMPANIA FINANCIERA,25 DE MAYO 131,CORDOBA,Córdoba,0,1,1,0,Lun. a Vie. 09:00hs a 18:00hs ,Sáb. 09:30hs a 13:00hs ,,-31.415403,-64.181778
3899,12449013,PAGOS OCIO 1,AV. CARLOS GIMENEZ 64 LOC 8,CORDOBA,Córdoba,1,1,1,0,Lun. a Vie. 09:00hs a 13:00hs y 17:30hs a 20:30hs,Sáb. 09:00hs a 13:00hs y 17:30hs a 20:30hs,,-31.366536,-64.165757
3917,7449122,EUSEBIO,AV. VELEZ SARSFIELD 3263,CORDOBA,Córdoba,1,1,1,0,Lun. a Vie. 09:30hs a 13:00hs y 17:30hs a 20:30hs,Sáb. 09:30hs a 13:30hs ,,-31.447991,-64.199004
3921,6949509,BOCHITA,GABRIELA MISTRAL 3420,CORDOBA,Córdoba,0,1,1,0,Lun. a Vie. 09:00hs a 13:00hs y 17:30hs a 20:00hs,Sáb. 09:00hs a 13:00hs y 17:30hs a 20:00hs,,-31.435881,-64.233716
3935,8749147,CENTRO DE SERVICIOS MINI LIBERTAD II,DERQUI 33,CORDOBA,Córdoba,0,1,1,0,Lun. a Vie. 09:00hs a 18:00hs ,,,-31.425612,-64.187379
3936,8749148,CENTRO DE SERVICIOS MINI LIBERTAD III,AV.RAFAEL NUNEZ 5887,CORDOBA,Córdoba,0,1,1,0,Lun. a Vie. 09:00hs a 13:30hs y 17:00hs a 20:30hs,Sáb. 09:00hs a 13:00hs ,,-31.348959,-64.249032
3948,5319393,CARREFOUR EXPRESS (736),CHILE 154,CORDOBA,Córdoba,0,0,1,0,Lun. a Vie. 08:00hs a 22:00hs ,Sáb. 08:00hs a 22:00hs ,Dom. 11:00hs a 20:00hs ,-31.430492,-64.187778
3958,9749281,DESPENSA NANO BROCHERO,CURA BROCHERO 810,CORDOBA,Córdoba,0,1,1,0,Lun. a Vie. 09:00hs a 18:00hs ,,,-31.392341,-64.168397
3966,11649340,BARRIGAS 2,SANDOVAL 7955,CORDOBA,Córdoba,1,1,1,0,Lun. a Vie. 09:30hs a 13:30hs y 17:30hs a 21:30hs,,,-31.340687,-64.270753
3974,5349375,SUPER M,JUAN B. JUSTO 4150,CORDOBA,Córdoba,1,1,1,0,Lun. a Vie. 09:00hs a 18:00hs ,Sáb. 09:00hs a 18:00hs ,,-31.376709,-64.176001
4363,8249091,LAGUNA EVT,AV. COLON 259 PISO 1 LOCAL 129,CORDOBA,Córdoba,1,1,1,0,Lun. a Vie. 09:30hs a 19:00hs ,,,-31.412604,-64.186661
4436,11949494,TWEETY SHOP,ALICIA MOREAU DE JUSTO 6855,CORDOBA,Córdoba,0,1,1,0,Lun. a Vie. 09:30hs a 13:30hs y 17:30hs a 21:30hs,Sáb. 09:30hs a 13:30hs y 17:30hs a 21:30hs,,-31.338107,-64.179849
4234,9749292,LA ESQUINA DE LA LIMPIEZA,AV. SANTA FE 190,CORDOBA,Córdoba,1,1,1,0,Lun. a Vie. 09:30hs a 13:30hs y 17:30hs a 21:00hs,Sáb. 10:00hs a 13:30hs y 17:30hs a 21:00hs,,-31.408686,-64.200737
4236,90049049,GRUPO ALTO PARQUE I,ADOLFO ORMA 1506,CORDOBA,Córdoba,1,1,1,0,Lun. a Vie. 08:30hs a 13:00hs y 15:00hs a 20:00hs,Sáb. 08:30hs a 13:00hs y 15:00hs a 20:00hs,,-31.382541,-64.229083
4251,5319401,CARREFOUR EXPRESS (720),AV. INDEPENDENCIA 585,CORDOBA,Córdoba,0,0,1,0,Lun. a Vie. 08:00hs a 22:00hs ,Sáb. 08:00hs a 22:00hs ,Dom. 11:00hs a 20:00hs ,-34.617221,-58.374208
4255,10249921,JOKER I,AV. RAFAEL NUNEZ 3972,CORDOBA,Córdoba,0,1,1,0,Lun. a Vie. 08:00hs a 20:00hs ,Sáb. 08:00hs a 20:00hs ,,-31.371831,-64.230016
4261,10249923,RECTA I,RECTA MARTINOLI 7730 LOC 2,CORDOBA,Córdoba,0,1,1,0,Lun. a Vie. 08:30hs a 20:00hs ,Sáb. 08:30hs a 20:00hs ,,-31.3474,-64.267905
4265,12449140,PAGO VIVES (CRS),AV. VIVES 2996,CORDOBA,Córdoba,1,1,1,0,Lun. a Vie. 09:00hs a 14:00hs y 17:00hs a 20:00hs,Sáb. 09:00hs a 14:30hs y 17:00hs a 20:30hs,,-31.378256,-64.198976
4268,10249926,BINGO I,FERNANDO FADER 3805,CORDOBA,Córdoba,0,1,1,0,Lun. a Vie. 09:00hs a 19:00hs ,,,-31.376909,-64.229351
4269,10249927,FADER I,FERNANDO FADER 4004,CORDOBA,Córdoba,1,1,1,0,Lun. a Vie. 09:00hs a 19:00hs ,Sáb. 09:00hs a 19:00hs ,,-31.373995,-64.232849
4303,12149068,ROJANA,RIO URUGUAY 1026,CORDOBA,Córdoba,1,1,1,0,Lun. a Vie. 08:00hs a 22:00hs ,,,-31.421641,-64.127768
4706,6949551,AYELEN LIBRERIA,AV. ALFONSINA ESTORNI 1056,CORDOBA,Córdoba,1,1,1,0,Lun. a Vie. 10:00hs a 14:00hs y 17:30hs a 21:30hs,Sáb. 10:00hs a 14:00hs y 18:00hs a 21:30hs,,-31.355484,-64.16052
4709,7249135,ALE,CIPRIANO PERELLO 4989,CORDOBA,Córdoba,0,1,1,0,Lun. a Vie. 09:00hs a 14:00hs y 17:00hs a 20:00hs,Sáb. 09:00hs a 12:30hs ,,-31.466918,-64.113738
4744,6949555,LIBRERIA APRIORI,ARTURO M. BAS 146,CORDOBA,Córdoba,1,1,1,0,Lun. a Vie. 08:00hs a 18:00hs ,,,-31.415268,-64.192831
4788,12449273,MERCADITO DE LAS ARTES I,MARCELO T DE ALVEAR 820 LOC B,CORDOBA,Córdoba,0,0,1,0,Lun. a Vie. 09:00hs a 13:00hs y 15:00hs a 19:00hs,,,-31.423975,-64.193749
4849,11949542,DA-COLON,AV COLON 167 PB A O 1,CORDOBA,Córdoba,0,1,1,0,Lun. a Vie. 09:00hs a 17:00hs ,Sáb. 09:00hs a 13:00hs ,,-31.413096,-64.185236
4850,11949543,DA-27 DE ABRIL,27 DE ABRIL 340,CORDOBA,Córdoba,0,1,1,0,Lun. a Vie. 09:00hs a 17:00hs ,Sáb. 09:00hs a 13:00hs ,,-31.415619,-64.189086
4851,11949544,DA-25 DE MAYO,25 DE MAYO 42,CORDOBA,Córdoba,0,1,1,0,Lun. a Vie. 09:00hs a 17:00hs ,Sáb. 09:00hs a 13:00hs ,,-31.415149,-64.183029
4638,7149035,PAGOS PAEZ MARINA SOLEDAD,JUAN DEL CAMPILLO 993,CORDOBA,Córdoba,1,1,1,0,Lun. a Vie. 09:00hs a 14:00hs y 17:00hs a 20:00hs,,,-31.397932,-64.190845
6774,,SARTORI PAIS VIAJES,AV RAFAEL NUNEZ  4295,CORDOBA,Córdoba,1,0,0,0,Lun. a Vie. 0900 A 1800,,,-31.368548,-64.23333
6235,,CORREO CORDOBA - 21,AV. AMADEO SABATTINI  2680,CORDOBA,Córdoba,1,0,0,0,Lun. a Vie. 0800 A 1300 1700 A 2000,,,-31.433252,-64.150957
6236,,CORREO CORDOBA - 23,ARTURO M. BAS  251,CORDOBA,Córdoba,1,0,0,0,Lun. a Vie. 0800 A 1400,,,-31.416573,-64.19326
5680,8749273,CORCAL II,RICARDO ROJAS 6834,CORDOBA,Córdoba,0,1,1,0,Lun. a Vie. 09:00hs a 14:00hs y 16:00hs a 21:00hs,Sáb. 09:00hs a 13:00hs ,,-31.341446,-64.254756
5073,90001214,C.S.CORDOBA III,27 DE ABRIL 305,CORDOBA,Córdoba,1,1,1,0,Lun. a Vie. 09:00hs a 19:00hs ,Sáb. 09:00hs a 15:00hs ,,-31.415927,-64.188626
5082,11449083,CORDOBA OESTE,DEAN FUNES 3036,CORDOBA,Córdoba,1,1,1,0,Lun. a Vie. 08:30hs a 13:30hs y 16:30hs a 20:30hs,Sáb. 10:30hs a 13:30hs ,,-31.404137,-64.221825
5762,12449372,ABDONUR,SARACHAGA 656 LOC 5,CORDOBA,Córdoba,0,1,1,0,Lun. a Vie. 08:30hs a 13:00hs y 15:00hs a 20:00hs,Sáb. 08:30hs a 13:00hs y 15:00hs a 20:00hs,,-31.391224,-64.183882
5143,12449329,MINISHOP THE PENGUINS I,AVELLANEDA 396,CORDOBA,Córdoba,1,1,1,0,Lun. a Vie. 08:30hs a 18:00hs ,Sáb. 08:30hs a 18:00hs ,,-31.315801,-64.304415
5798,8159542,AGL SEGUROS TRANSEGUROS,AV BERNARDO DE O¿HIGGINS 4440,CORDOBA,Córdoba,0,0,1,0,Lun. a Vie. 08:30hs a 18:30hs ,,,-31.464521,-64.168899
5835,12449377,PAGOS OCIO 2,AV REVOLUCION DE MAYO 1843,CORDOBA,Córdoba,0,1,1,0,Lun. a Vie. 09:00hs a 13:00hs y 17:00hs a 21:00hs,Sáb. 09:00hs a 13:00hs ,,-31.439783,-64.161382
5155,11949587,DA-CASEROS,AV.VELEZ SARSFIELD 156,CORDOBA,Córdoba,0,1,1,0,Lun. a Vie. 09:00hs a 17:00hs ,,,-31.417026,-64.187648
5188,8159287,AGL SEGUROS  RIO URUGUAY SEGUROS,DUARTE QUIROZ 3036,CORDOBA,Córdoba,0,0,1,0,Lun. a Vie. 09:00hs a 13:00hs y 15:00hs a 19:00hs,,,-31.407242,-64.223262
5189,12649017,LA 805,AGUSTIN GARZON 5256,CORDOBA,Córdoba,1,1,1,0,Lun. a Vie. 09:00hs a 13:30hs y 17:00hs a 20:30hs,Sáb. 09:00hs a 13:30hs y 17:00hs a 20:30hs,,-31.427439,-64.118576
5844,6949575,CRISOL,ALEJANDRO MAGARINOS 709 LOCAL 2,CORDOBA,Córdoba,1,1,1,0,Lun. a Vie. 08:00hs a 13:30hs y 16:00hs a 20:00hs,,,-31.398035,-64.173909
5909,90049134,DOLTO TECNOLOGIA Y SERVICIOS I,RONDEAU 415,CORDOBA,Córdoba,1,1,1,0,Lun. a Vie. 09:00hs a 15:00hs y 16:00hs a 22:00hs,Sáb. 09:00hs a 13:30hs ,,-31.423603,-64.181071
5912,90049135,DOLTO TECNOLOGIA Y SERVICIOS,SAN LORENZO 328 LOC 4,CORDOBA,Córdoba,1,1,1,0,Lun. a Vie. 09:00hs a 15:00hs y 16:00hs a 22:00hs,Sáb. 09:30hs a 13:30hs ,,-31.424534,-64.182687
5253,90001222,C.S. CORDOBA IV,ALVEAR 84,CORDOBA,Córdoba,1,1,1,0,Lun. a Vie. 09:00hs a 19:00hs ,Sáb. 09:00hs a 15:00hs ,,-31.421078,-64.496059
5942,12449373,PARADA UNO,ROSARIO DE SANTA FE 153,CORDOBA,Córdoba,1,1,1,0,Lun. a Vie. 08:00hs a 20:30hs ,Sáb. 08:00hs a 20:30hs ,,-31.416555,-64.181956
5293,12649018,QUINIELA 588 I,RONDEAU 588,CORDOBA,Córdoba,1,1,1,0,Lun. a Vie. 09:00hs a 14:00hs y 16:00hs a 20:30hs,Sáb. 09:00hs a 13:30hs ,,-31.424461,-64.178754
5311,8159352,AGL SEGUROS ORGANIZACION 9 DE JULIO,9 DE JULIO 647,CORDOBA,Córdoba,0,0,1,0,Lun. a Vie. 08:00hs a 15:00hs ,,,-31.41232,-64.192356
6015,6949576,LIBRERIA PALOMA,AV RICCHIERI 2738 LOCAL 1 PB,CORDOBA,Córdoba,1,1,1,0,Lun. a Vie. 09:00hs a 13:00hs y 17:00hs a 21:00hs,Sáb. 10:30hs a 13:30hs ,,-31.44321,-64.176759
5359,11949605,DA-GRAL PAZ,GENERAL PAZ 31,CORDOBA,Córdoba,0,1,1,0,Lun. a Vie. 09:00hs a 17:00hs ,,,-31.414516,-64.186544
6017,6349442,GG TECNO SUC TERMINAL DE ONMIBUS,BV PERON 380,CORDOBA,Córdoba,1,1,1,0,Lun. a Vie. 10:00hs a 22:00hs ,Sáb. 10:00hs a 22:00hs ,Dom. 10:00hs a 22:00hs ,-31.422761,-64.175622
6018,6349441,GG TECNO SUC. SAN VICENTE,SAN JERONIMO 2599,CORDOBA,Córdoba,1,1,1,0,Lun. a Vie. 09:00hs a 14:00hs y 17:00hs a 21:00hs,Sáb. 09:00hs a 14:00hs y 17:00hs a 21:00hs,,-31.423191,-64.150538
6022,8149620,INTERMEDIACION DE RIESGO,CHAQUIRA 7856,CORDOBA,Córdoba,1,1,1,0,Lun. a Vie. 09:00hs a 14:00hs y 16:30hs a 20:30hs,,,-31.323016,-64.271986
5370,11949603,DA-CANADA,AV COLON 521,CORDOBA,Córdoba,0,1,1,0,Lun. a Vie. 09:00hs a 17:00hs ,,,-31.411725,-64.1901
6064,12449398,MUNDO GAMER I,LEON PINELO 584,CORDOBA,Córdoba,1,1,1,0,Lun. a Vie. 09:00hs a 13:00hs y 16:00hs a 19:00hs,Sáb. 09:00hs a 13:00hs y 16:00hs a 19:00hs,,-31.413602,-64.223233
6115,,BARUTUR,RIVADAVIA  93,CORDOBA,Córdoba,1,0,0,0,Lun. a Vie. 0800 A 1530,Sáb. 0900 A 1200,,-31.415488469388,-64.182322102041
6106,7249139,AYACUCHO I,AV. ARTURO CAPDEVILA 18,CORDOBA,Córdoba,0,1,1,0,Lun. a Vie. 08:00hs a 20:00hs ,Sáb. 08:00hs a 20:00hs ,,-31.380666,-64.175466
5455,12449349,TELECENTRO CIBER DP,INDEPENDENCIA 273,CORDOBA,Córdoba,1,1,1,0,Lun. a Vie. 08:30hs a 20:00hs ,Sáb. 08:30hs a 20:00hs ,,-31.419192,-64.185295
5469,8159425,AGL SEGUROS COCCONI,AV FUERZA AEREA 4487,CORDOBA,Córdoba,0,0,1,0,Lun. a Vie. 08:30hs a 13:00hs y 15:30hs a 19:00hs,,,-31.432757,-64.245775
5482,8749237,MUN PUNTO PAGO ESTRADA,ESTRADA 160,CORDOBA,Córdoba,1,1,1,0,Lun. a Vie. 08:00hs a 20:00hs ,,,-31.42796,-64.18663
5483,8749236,MUN PUNTO PAGO PATIO OLMOS,VELEZ SARSFIELD 363 PATIO OLMOS GOND 250,CORDOBA,Córdoba,1,1,1,0,Lun. a Vie. 10:00hs a 22:00hs ,Sáb. 10:00hs a 22:00hs ,Dom. 10:00hs a 22:00hs ,-31.419973,-64.188519
5484,8749238,MUN PUNTO PAGO HIPER CONSTRUCCION,CAMANO Y BAZAN 4495 LOCAL 630,CORDOBA,Córdoba,1,1,1,0,Lun. a Vie. 09:00hs a 22:00hs ,Sáb. 09:00hs a 22:00hs ,Dom. 09:00hs a 22:00hs ,-31.361931,-64.218225
5485,8749239,MUN PUNTO PAGO POETA LUGONES,LASCANO COLODRERO 2996,CORDOBA,Córdoba,1,1,1,0,Lun. a Vie. 09:00hs a 13:00hs y 17:00hs a 21:00hs,Sáb. 09:00hs a 13:00hs ,,-31.36318,-64.212106
5486,8749240,MUN PUNTO PAGO GRUPAR,25 DE MAYO 267,CORDOBA,Córdoba,1,1,1,0,Lun. a Vie. 08:30hs a 18:00hs ,Sáb. 08:30hs a 14:00hs ,,-31.415884,-64.180094
5487,8749241,MUN PUNTO PAGO 25 DE MAYO,25 DE MAYO 140,CORDOBA,Córdoba,1,1,1,0,Lun. a Vie. 08:00hs a 18:00hs ,,,-31.415637,-64.181708
5488,8749242,MUN PUNTO PAGO 25 DE MAYO II,25 DE MAYO 120,CORDOBA,Córdoba,1,1,1,0,Lun. a Vie. 08:30hs a 18:00hs ,Sáb. 08:30hs a 14:00hs ,,-31.415428,-64.181981
5489,8749243,MUN PUNTO PAGO CPC SAN VICENTE,SAN JERONIMO 2850,CORDOBA,Córdoba,1,1,1,0,Lun. a Vie. 07:30hs a 14:00hs ,,,-31.423631,-64.146908
5490,8749244,MUN PUNTO PAGO CPC CENTRO AMERICA,JUAN B. JUSTO Y PARRAVICINI,CORDOBA,Córdoba,1,1,1,0,Lun. a Vie. 07:30hs a 14:00hs ,,,-31.374424,-64.176104
5491,8749246,MUN PUNTO PAGO CPC GUINAZU,IBAR SEGURA FUNES Y DEL PINCULLO,CORDOBA,Córdoba,0,1,1,0,Lun. a Vie. 07:30hs a 14:00hs ,,,-31.31277,-64.177051
5493,8749247,MUN PUNTO PAGO CPC COLON,AV. COLON 5300,CORDOBA,Córdoba,1,1,1,0,Lun. a Vie. 07:30hs a 14:00hs ,,,-31.396064,-64.251689
5494,8749248,MUN PUNTO PAGO CPC RUTA 20,AV.FUERZA AEREA Y RICHARDSON,CORDOBA,Córdoba,1,1,1,0,Lun. a Vie. 07:30hs a 14:00hs ,,,-31.432578,-64.24493
5495,8749249,MUN PUNTO PAGO CPC VILLA DEL LIBERTADOR,AV. ARMADA ARGENTINA 1650,CORDOBA,Córdoba,1,1,1,0,Lun. a Vie. 07:30hs a 14:00hs ,,,-31.467416,-64.224939
5496,8749250,MUN PUNTO PAGO CPC M.P.CABRERA,AV. MONSENOR PABLO CABRERA 4800,CORDOBA,Córdoba,1,1,1,0,Lun. a Vie. 07:30hs a 14:00hs ,,,-31.360107,-64.203707
5497,8749252,MUN PUNTO PAGO CPC ARGUELLO,AV. RAFAEL NUNEZ Y RICARDO ROJAS,CORDOBA,Córdoba,1,1,1,0,Lun. a Vie. 07:30hs a 14:00hs ,,,-31.342374,-64.253448
5498,8749251,MUN PUNTO PAGO CPC MERCADO DE LA CIUDAD,ONCATIVO 50,CORDOBA,Córdoba,1,1,1,0,Lun. a Vie. 07:30hs a 14:00hs ,,,-31.409599,-64.180569
5499,8749253,MUN. PUNTO PAGO CPC RANCAGUA,RANCAGUA 2900,CORDOBA,Córdoba,1,1,1,0,Lun. a Vie. 07:30hs a 14:00hs ,,,-31.377647,-64.147784
5500,8749254,MUN. PUNTO PAGO CPC EMPALME,AV. AMADEO SABATTINI Y CARNERILLO,CORDOBA,Córdoba,1,1,1,0,Lun. a Vie. 07:30hs a 14:00hs ,,,-31.437905,-64.128552
5501,8749255,MUN PUNTO PAGO CPC CH.SAN FELI,DIEGO DE TORRES Y ALONSO DE REYNOSO,CORDOBA,Córdoba,1,1,1,0,Lun. a Vie. 07:30hs a 14:00hs ,,,-31.441847,-64.144163
5509,8149495,ORGANIZACION CORDOBA,ANACREONTE 2190 LOC 7,CORDOBA,Córdoba,1,1,1,0,Lun. a Vie. 09:00hs a 19:00hs ,,,-31.37904,-64.203093
5511,8149496,ORGANIZACION CORDOBA I,SARGENTO CABRAL 1537,CORDOBA,Córdoba,1,1,1,0,Lun. a Vie. 10:00hs a 18:30hs ,,,-31.425645,-64.150792
5513,8749256,MUN PUNTO PAGO CPC PUEYRREDON,RINCON 2500,CORDOBA,Córdoba,1,1,1,0,Lun. a Vie. 07:30hs a 14:00hs ,,,-31.40389,-64.154642
4865,11949555,DA-RIVERA,AV COLON 82,CORDOBA,Córdoba,0,1,1,0,Lun. a Vie. 09:00hs a 17:00hs ,Sáb. 09:00hs a 13:00hs ,,-31.413181,-64.18401
4867,11949557,DA-VELEZ SARSFIELD,VELEZ SARSFIELD 286,CORDOBA,Córdoba,0,1,1,0,Lun. a Vie. 09:00hs a 17:00hs ,Sáb. 09:00hs a 13:00hs ,,-31.418345,-64.188186
4868,11949558,DA-BANCO,COLON 445,CORDOBA,Córdoba,0,1,1,0,Lun. a Vie. 09:00hs a 17:00hs ,Sáb. 09:00hs a 13:00hs ,,-31.411989,-64.189072
5545,8749235,GETTE PASAJES DEAN FUNES,DEAN GREGORIO FUNES 708 LOCAL 2,CORDOBA,Córdoba,0,1,1,0,Lun. a Vie. 09:00hs a 17:00hs ,,,-31.430458,-64.18395
5546,8749262,GETTE PASAJES COLON,AV.COLON 1042 LOCAL 2,CORDOBA,Córdoba,0,1,1,0,Lun. a Vie. 09:00hs a 17:00hs ,,,-31.409374,-64.197043
5552,8159452,AGL SEGUROS PANIZO,AV VELEZ SARSFIELD 3196,CORDOBA,Córdoba,0,0,1,0,Lun. a Vie. 09:00hs a 12:30hs y 16:00hs a 20:30hs,Sáb. 09:00hs a 12:30hs y 16:00hs a 20:30hs,,-31.44715,-64.199005
5558,12649024,SAUL HERMANOS,CHACABUCO 102,CORDOBA,Córdoba,1,1,1,0,Lun. a Vie. 08:00hs a 2:00hs ,Sáb. 08:30hs a 14:00hs ,,-31.41833,-64.180691
4923,11949572,AUTOSERVICIO,ROQUE SAENZ PENA 1509,CORDOBA,Córdoba,0,1,1,0,Lun. a Vie. 09:00hs a 14:00hs y 15:00hs a 22:00hs,Sáb. 09:00hs a 14:00hs y 15:00hs a 22:00hs,Dom. 12:00hs a 14:00hs y 15:00hs a 22:00hs,-31.399334,-64.181615
4937,10649021,ALAN ESTILISTAS,PUNILLA 1987,CORDOBA,Córdoba,0,1,1,0,Lun. a Vie. 15:00hs a 21:00hs ,Sáb. 15:00hs a 21:00hs ,,-31.430456,-64.131272
5584,6149357,NENE,OBISPO SALGUERO 701,CORDOBA,Córdoba,1,1,1,0,Lun. a Vie. 08:30hs a 20:30hs ,Sáb. 08:30hs a 12:30hs ,,-31.426142,-64.182484
5608,12449359,SERVICENTRO SANTA MARIA,AV. MALVINAS 2565,CORDOBA,Córdoba,0,1,1,0,Lun. a Vie. 09:00hs a 13:00hs y 17:00hs a 21:00hs,Sáb. 09:00hs a 13:00hs y 17:00hs a 21:00hs,,-31.389457,-64.136733
4944,6949562,TEOREMA,SAN MARTIN 5886,CORDOBA,Córdoba,0,1,1,0,Lun. a Vie. 07:00hs a 14:00hs y 16:00hs a 21:00hs,Sáb. 07:00hs a 14:00hs y 16:00hs a 21:00hs,,37.882898,-4.756255
4948,12449298,WENA,AV. RECTA MARTINOLI 8105,CORDOBA,Córdoba,1,1,1,0,Lun. a Vie. 08:30hs a 23:00hs ,Sáb. 08:30hs a 23:00hs ,,-31.347311,-64.273656
