IDSUCURSAL,NRO_AGENTE_PF,NOMBRE,DIRECCION,LOCALIDAD,PROVINCIA,WESTERN_UNION,ENVIO_NACIONAL,PAGO_FACTURAS,RECARGA_FACIL,HS_LAV,HS_SABADO,HS_DOMINGO,LATITUD,LONGITUD
390,9902175,CORREO BAHIA BLANCA - C,MORENO 34,BAHIA BLANCA,Buenos Aires,1,0,1,0,Lun. a Vie. 08:00hs a 20:00hs ,,,-38.71814933,-62.26791967
705,9902529,CORREO BAHIA BLANCA SUC. 2,DON BOSCO 1021,BAHIA BLANCA,Buenos Aires,1,0,1,0,Lun. a Vie. 09:00hs a 13:00hs y 15:00hs a 18:00hs,,,-38.722297408163,-62.293704795918
1101,5149775,FARMACIA CHISTIK,VIEYTES 1460,BAHIA BLANCA,Buenos Aires,0,1,1,0,Lun. a Vie. 08:30hs a 16:30hs ,Sáb. 08:30hs a 12:30hs ,,-38.70732355,-62.28496322
1166,7049370,KIOSCO LA ESQUINA (BA),MISIONEROS 799,BAHIA BLANCA,Buenos Aires,1,1,1,0,Lun. a Vie. 07:30hs a 13:00hs y 16:00hs a 21:00hs,Sáb. 08:00hs a 13:00hs y 16:30hs a 21:00hs,Dom. 08:00hs a 12:00hs ,-38.735281,-62.228978
1185,7049428,KIOSCO GUADA,MORENO 602,BAHIA BLANCA,Buenos Aires,1,1,1,0,Lun. a Vie. 08:00hs a 17:00hs ,Sáb. 08:00hs a 13:30hs ,Dom. 08:00hs a 13:30hs ,-38.723927,-62.274516
1444,7549520,MARICAR,RINCON 355,BAHIA BLANCA,Buenos Aires,0,1,1,0,Lun. a Vie. 08:00hs a 13:00hs y 16:00hs a 21:00hs,Sáb. 09:00hs a 13:00hs y 16:30hs a 21:00hs,Dom. 09:00hs a 12:00hs ,-38.71168222,-62.25217431
1458,7549538,LUNA NUEVA,PELLEGRINI 702,BAHIA BLANCA,Buenos Aires,0,1,1,0,Lun. a Vie. 08:00hs a 18:00hs ,Sáb. 08:00hs a 18:00hs ,,-38.720031,-62.24824
1300,6949249,GUTICOPIAS,BRANSEN 394,BAHIA BLANCA,Buenos Aires,0,1,1,0,Lun. a Vie. 08:00hs a 18:00hs ,,,-38.71952595,-62.25476063
1553,5349226,SUPERMERCADOS OASIS I,PAUNERO 1130,BAHIA BLANCA,Buenos Aires,0,1,1,0,Lun. a Vie. 09:00hs a 12:30hs y 16:30hs a 20:30hs,Sáb. 09:00hs a 12:30hs y 16:30hs a 20:30hs,Dom. 09:00hs a 12:30hs ,-38.74149114,-62.26974286
1554,5349228,SUPERMERCADOS OASIS III,JUJUY 1403,BAHIA BLANCA,Buenos Aires,0,1,1,0,Lun. a Vie. 09:00hs a 12:30hs y 16:30hs a 20:30hs,Sáb. 09:00hs a 12:30hs y 16:30hs a 20:30hs,Dom. 09:00hs a 12:30hs ,-38.72146496,-62.30141533
1603,7049918,KIOSCO DON PERIGNON,CHICLANA 176,BAHIA BLANCA,Buenos Aires,1,1,1,0,Lun. a Vie. 08:00hs a 19:00hs ,Sáb. 09:00hs a 12:00hs ,,-38.71970767,-62.26429022
1963,5349293,SUPER MAR K,MALVINAS 2140,BAHIA BLANCA,Buenos Aires,0,0,1,0,Lun. a Vie. 08:30hs a 13:00hs y 17:00hs a 19:30hs,Sáb. 08:30hs a 13:00hs y 17:00hs a 19:30hs,,-38.71027841,-62.3029479
1819,5349268,SUPERMERCADO CEFERINO,HOLDICH 1991,BAHIA BLANCA,Buenos Aires,0,1,1,0,Lun. a Vie. 08:30hs a 13:00hs y 16:30hs a 20:00hs,Sáb. 08:30hs a 13:00hs y 16:30hs a 21:00hs,Dom. 09:30hs a 13:00hs ,-38.73035853,-62.29629873
2216,8118036,COREFIN (BAHIA BLANCA),CHICLANA 293,BAHIA BLANCA,Buenos Aires,0,0,1,0,Lun. a Vie. 10:00hs a 18:00hs ,Sáb. 08:30hs a 13:30hs ,,-38.7202805,-62.2664735
2132,12249026,LOCUTORIO VICENTE LOPEZ,VICENTE LOPEZ 76,BAHIA BLANCA,Buenos Aires,1,1,1,0,Lun. a Vie. 08:00hs a 19:00hs ,Sáb. 09:00hs a 13:00hs ,,-38.71867694,-62.26813953
2569,5207107,AXION BAHIA BLANCA (637),SARMIENTO 4114,BAHIA BLANCA,Buenos Aires,0,0,0,1,Lun. a Vie. 00:00hs a 24:00hs ,Sáb. 00:00hs a 24:00hs ,Dom. 00:00hs a 24:00hs ,-38.697583,-62.243096
2571,5207108,AXION UNIVERSITARIO (742),AV. ALEM 1086,BAHIA BLANCA,Buenos Aires,0,0,0,1,Lun. a Vie. 00:00hs a 24:00hs ,Sáb. 00:00hs a 24:00hs ,Dom. 00:00hs a 24:00hs ,-38.70402,-62.269541
2478,9449025,Q IDEA SERVICIOS GRAFICOS,THOMPSON 1134,BAHIA BLANCA,Buenos Aires,1,1,1,0,Lun. a Vie. 08:30hs a 13:00hs y 16:30hs a 20:00hs,,,-38.733255,-62.260156
2885,11949177,LUNA NUEVA III CRS,ALVARADO 277,BAHIA BLANCA,Buenos Aires,0,1,1,0,Lun. a Vie. 08:00hs a 17:00hs ,Sáb. 08:00hs a 17:00hs ,,-38.712802,-62.265588
3207,5320008,SUPERMAYORISTA VITAL BAHIA BLANCA,RUTA 3 KM 690,BAHIA BLANCA,Buenos Aires,0,0,1,0,Lun. a Vie. 08:00hs a 19:00hs ,Sáb. 08:00hs a 20:00hs ,,-38.738752,-62.297418
3244,7249109,COTILLON LAS REINAS,TTE. FARIAS 1571,BAHIA BLANCA,Buenos Aires,1,1,1,0,Lun. a Vie. 08:00hs a 21:00hs ,Sáb. 08:00hs a 21:00hs ,,-38.744236,-62.2641
3027,11949201,KIOSCO USHUAIA CRS,ZELARRAYAN 679,BAHIA BLANCA,Buenos Aires,1,1,1,0,Lun. a Vie. 08:30hs a 13:30hs y 16:30hs a 19:30hs,Sáb. 09:30hs a 13:30hs ,,-38.71115,-62.272223
3288,9749232,ALMACEN HILDA CRS,ENTRE RIOS 1892,BAHIA BLANCA,Buenos Aires,0,1,1,0,Lun. a Vie. 09:00hs a 13:00hs y 17:00hs a 20:00hs,,,-38.724821,-62.301429
3368,8159002,AGL IMG ADMINISTRADORA DE RIESGO,19 DE MAYO 899,BAHIA BLANCA,Buenos Aires,0,0,1,0,Lun. a Vie. 09:00hs a 15:00hs ,,,-38.707036,-62.258507
3790,11949365,EL ENCUENTRO,MORENO 1770,BAHIA BLANCA,Buenos Aires,0,1,1,0,Lun. a Vie. 10:00hs a 14:30hs y 17:00hs a 20:00hs,,,-38.733554,-62.287165
3797,9849151,MINIMERCADO LA MONEDA,BOUCHARD 2052,BAHIA BLANCA,Buenos Aires,0,1,1,0,Lun. a Vie. 08:00hs a 22:00hs ,Sáb. 08:00hs a 22:00hs ,Dom. 08:00hs a 22:00hs ,-38.725226,-62.230122
3822,12349004,KIOSCO BELGRANO,BELGRANO 40,BAHIA BLANCA,Buenos Aires,1,1,1,0,Lun. a Vie. 08:00hs a 20:00hs ,Sáb. 08:00hs a 20:00hs ,,-38.719415,-62.263611
3618,12049946,KIOSCO GIANNI,ZELARAYAN 1726,BAHIA BLANCA,Buenos Aires,0,1,1,0,Lun. a Vie. 09:00hs a 12:30hs y 17:30hs a 21:00hs,Sáb. 09:00hs a 12:30hs y 17:30hs a 21:00hs,,-38.701939,-62.283774
3678,12049964,DRUGSTORE PUNTO,CHICLANA 19,BAHIA BLANCA,Buenos Aires,1,1,1,0,Lun. a Vie. 09:30hs a 17:30hs ,Sáb. 10:00hs a 12:00hs ,,-38.718318,-62.266348
4102,11949453,POLIRUBRO MITRE,BARTOLOME MITRE 110,BAHIA BLANCA,Buenos Aires,1,1,1,0,Lun. a Vie. 07:30hs a 20:00hs ,Sáb. 07:30hs a 20:00hs ,,-38.715128,-62.264775
3937,11949411,POLIRUBRO FAUSTO,12 DE OCTUBRE 932,BAHIA BLANCA,Buenos Aires,0,1,1,0,Lun. a Vie. 09:00hs a 19:00hs ,,,-38.703629,-62.266145
3959,12449039,MAXIKIOSCO BE HAPPY,FITZ ROY 44,BAHIA BLANCA,Buenos Aires,0,1,1,0,Lun. a Vie. 08:00hs a 19:00hs ,Sáb. 08:00hs a 19:00hs ,,-38.721533,-62.263948
4263,90049055,RAPI CANO O HIGGINS,O HIGGINS 309,BAHIA BLANCA,Buenos Aires,1,1,1,0,Lun. a Vie. 09:30hs a 17:30hs ,Sáb. 10:00hs a 12:00hs ,,-38.722694,-62.269752
4295,12249162,CPU COMPUTACION,ESTOMBA 762,BAHIA BLANCA,Buenos Aires,1,1,1,0,Lun. a Vie. 09:00hs a 14:00hs y 16:30hs a 20:30hs,Sáb. 09:00hs a 14:00hs ,,-38.711906,-62.274751
4708,9849169,MINIMERCADO EZE,19 DE MAYO 1141,BAHIA BLANCA,Buenos Aires,0,1,1,0,Lun. a Vie. 08:30hs a 13:00hs y 17:00hs a 20:30hs,Sáb. 09:30hs a 13:00hs y 18:00hs a 20:30hs,,-38.705878,-62.257088
6688,,EL CALDEN TURISMO,LAS HERAS  484,BAHIA BLANCA,Buenos Aires,1,0,0,0,Lun. a Vie. 0900 A 1500,,,-38.716373,-62.257443
6200,,CORREO CENTRO,DORREGO  579,BAHIA BLANCA,Buenos Aires,1,0,0,0,Lun. a Vie. 0930 A 1730,,,-38.719333693878,-62.254934306123
5670,10359088,AGL SEGUROS SM,SOCRATES 1999,BAHIA BLANCA,Buenos Aires,0,0,1,0,Lun. a Vie. 14:00hs a 19:00hs ,,,-38.730174,-62.237537
5784,8159536,AGL SEGUROS DELL ORFANO,ALBERDI 1615,BAHIA BLANCA,Buenos Aires,0,0,1,0,Lun. a Vie. 08:00hs a 12:00hs y 16:00hs a 20:00hs,Sáb. 09:00hs a 12:00hs ,,-38.729382,-62.244638
5801,8159544,AGL SEGUROS SASSI,ITALIA 847,BAHIA BLANCA,Buenos Aires,0,0,1,0,Lun. a Vie. 09:00hs a 16:00hs ,,,-38.732052,-62.264134
5870,5349395,SUPERMERCADO MEGA CRS,AV. GRAL. ARIAS 2141,BAHIA BLANCA,Buenos Aires,0,1,1,0,Lun. a Vie. 08:30hs a 13:30hs y 16:30hs a 21:00hs,Sáb. 08:30hs a 13:30hs y 16:30hs a 21:00hs,Dom. 08:30hs a 13:30hs y 16:30hs a 21:00hs,-38.754388,-62.264717
5273,10359070,AGL SEGUROS PARAGUAY 8,PARAGUAY 8,BAHIA BLANCA,Buenos Aires,0,0,1,0,Lun. a Vie. 17:00hs a 20:00hs ,,,-38.712108,-62.274006
5993,12449387,DRUGSTORE PUNTO 2,BROWN 98,BAHIA BLANCA,Buenos Aires,1,1,1,0,Lun. a Vie. 08:00hs a 20:00hs ,Sáb. 09:00hs a 13:00hs ,,-38.720616,-62.267287
6042,8159621,AGL SEGUROS CID,ALMAFUERTE 398,BAHIA BLANCA,Buenos Aires,0,0,1,0,Lun. a Vie. 09:00hs a 15:00hs ,,,-38.722882,-62.280509
5415,10359079,AGL SEGUROS SAVIO,PARAGUAY 440,BAHIA BLANCA,Buenos Aires,0,0,1,0,Lun. a Vie. 09:00hs a 14:00hs ,,,-38.707758,-62.267816
4931,9849174,MINIMERCADO JUDITH,HUAURA 1441,BAHIA BLANCA,Buenos Aires,1,1,1,0,Lun. a Vie. 09:00hs a 13:00hs y 16:00hs a 20:00hs,Sáb. 08:30hs a 13:00hs y 16:00hs a 21:00hs,,-38.731683,-62.222548
4965,5549034,HOSTEL BAHIA BLANCA,SOLER 739,BAHIA BLANCA,Buenos Aires,1,1,1,0,Lun. a Vie. 09:00hs a 17:00hs ,Sáb. 09:00hs a 13:00hs ,,-38.722415,-62.25598
